cms_certification_num,name,address,city,state,zip5,beds,phone_number,homepage_url,chargemaster_url,last_edited_by_username
193031,ENCOMPASS HEALTH REHABILITATION HOSPITAL OF ALEXAN,104 NORTH THIRD STREET,ALEXANDRIA,LA,71301,47,3184491370,https://encompasshealth.com/locations/alexandriarehab/transparency-healthcare,https://encompasshealth.com/-/media/healthsouth/project/healthsouth/files/2022-price-transparency/25-1659391_encompass-health-rehabilitation-hospital-of-alexandria_standardcharges.csv,mysequel
203025,"HEALTHSOUTH/MAINE MEDICAL CENTER, LLC","335 BRIGHTON AVENUE, UNIT 201",PORTLAND,ME,4102,100,2077754000,https://encompasshealth.com/locations/nerhp/transparency-healthcare,https://encompasshealth.com/-/media/healthsouth/project/healthsouth/files/2022-price-transparency/721371920new-england-rehabilitation-hospital-of-portland-a-joint-venture-of-maine-medical-standard.csv,mysequel
213028,ENCOMPASS HEALTH REHAB HOSPITAL OF SALISBURY,220 TILGHMAN ROAD,SALISBURY,MD,21804,64,4105464600,https://encompasshealth.com/locations/salisburyrehab/transparency-healthcare,https://encompasshealth.com/-/media/healthsouth/project/healthsouth/files/2022-price-transparency/23-2655290_encompass-health-rehabilitation-hospital-of-salisbury_standardcharges.csv,mysequel
223026,ENCOMPASS HEALTH REHABILITATION HOSP OF NEW ENGLAN,2 REHABILITATION WAY,WOBURN,MA,1801,210,7819355050,https://encompasshealth.com/locations/newenglandrehab/transparency-healthcare,https://encompasshealth.com/-/media/healthsouth/project/healthsouth/files/2022-price-transparency/90-1015581_encompass-health-rehabilitation-hospital-of-new-england_standardcharges.csv,mysequel
223027,ENCOMPASS HEALTH BRAINTREE HOSPITAL OF BRAINTREE,250 POND STREET,BRAINTREE,MA,2184,187,7818485353,https://encompasshealth.com/locations/braintreerehab/transparency-healthcare,https://encompasshealth.com/-/media/healthsouth/project/healthsouth/files/2022-price-transparency/90-1015323_encompass-health-rehabilitation-hospital-of-braintree_standardcharges.csv,mysequel
223029,"FAIRLAWN REHAB HOSP, AN AFFILIATE OF ENCOMPASS HLT",189 MAY STREET,WORCESTER,MA,1602,110,5087916351,https://encompasshealth.com/locations/fairlawnrehab/transparency-healthcare,https://encompasshealth.com/-/media/healthsouth/project/healthsouth/files/2022-price-transparency/04-2948290_fairlawn-rehabilitation-hospital-an-affiliate-of-encompass-health-_standardcharges.csv,mysequel
223030,ENCOMPASS HEALTH REHAB HOSPITAL OF WESTERN MASS,222 STATE STREET,LUDLOW,MA,1056,53,4135897581,https://encompasshealth.com/locations/westernmassrehab/transparency-healthcare,https://encompasshealth.com/-/media/healthsouth/project/healthsouth/files/2022-price-transparency/04-2987822_encompass-health-rehabilitation-hospital-of-western-massachusetts_standardcharges.csv,mysequel
063030,ENCOMPASS HEALTH REHABILITATION HOSPITAL OF CO SPG,325 PARKSIDE DR,COLORADO SPRINGS,CO,80910,64,7196308000,https://encompasshealth.com/locations/coloradospringsrehab/transparency-healthcare,https://encompasshealth.com/-/media/healthsouth/project/healthsouth/files/2022-price-transparency/25-1612420_encompass-health-rehabilitation-hospital-of-colorado-springs_standardcharges.csv,mysequel
063034,ENCOMPASS HEALTH REHAB HOSPITAL OF LITTLETON,1001 W MINERAL AVE,LITTLETON,CO,80120,40,3033341100,https://encompasshealth.com/locations/littletonrehab/transparency-healthcare,https://encompasshealth.com/-/media/healthsouth/project/healthsouth/files/2022-price-transparency/83-1877464_encompass-health-rehabilitation-hospital-of-littleton_standardcharges.csv,mysequel
013025,ENCOMPASS HEALTH LAKESHORE REHABILITATION HOSPITAL,3800 RIDGEWAY DRIVE,BIRMINGHAM,AL,35209,100,2058682000,https://encompasshealth.com/locations/lakeshorerehab/transparency-healthcare,https://encompasshealth.com/-/media/healthsouth/project/healthsouth/files/2022-price-transparency/62-1178229_encompass-health-lakeshore-rehabilitation-hospital_standardcharges.csv,mysequel
013028,ENCOMPASS REHABILITATION HOSPITAL OF MONTGOMERY,4465 NARROW LANE RD,MONTGOMERY,AL,36116,70,3342847821,https://encompasshealth.com/locations/montgomeryrehab/transparency-healthcare,https://encompasshealth.com/-/media/healthsouth/project/healthsouth/files/2022-price-transparency/63-1106107_encompass-health-rehabilitation-hospital-of-montgomery_standardcharges.csv,mysequel
013029,ENCOMPASS HEALTH REHABILITATION HOSPITAL NORTH  AL,107 GOVERNORS DRIVE,HUNTSVILLE,AL,35801,70,2055352300,https://encompasshealth.com/locations/huntsvillerehab/transparency-healthcare,https://encompasshealth.com/-/media/healthsouth/project/healthsouth/files/2022-price-transparency/37-1921725_encompass-health-rehabilitation-hospital-of-north-alabama_standardcharges.csv,mysequel
013030,ENCOMPASS HEALTH REHABILITATION HOSPITAL OF DOTHAN,1736 EAST MAIN STREET,DOTHAN,AL,36301,51,3347126333,https://encompasshealth.com/locations/dothanrehab/transparency-healthcare,https://encompasshealth.com/-/media/healthsouth/project/healthsouth/files/2022-price-transparency/63-1097851_encompass-health-rehabilitation-hospital-of-dothan_standardcharges.csv,mysequel
013031,ENCOMPASS HEALTH REHABILITATION HOSPITAL OF SHELBY,900 OAK MOUNTAIN COMMONS LANE,PELHAM,AL,35124,34,2052167621,https://encompasshealth.com/locations/shelbycountyrehab/transparency-healthcare,https://encompasshealth.com/-/media/healthsouth/project/healthsouth/files/2022-price-transparency/27-0275705_encompass-health-rehabilitation-hospital-of-shelby-county_standardcharges.csv,mysequel
013032,ENCOMPASS HEALTH REHABILITATION HOSPITAL GADSDEN,801 GOODYEAR AVE,GADSDEN,AL,35903,44,2564395000,https://encompasshealth.com/locations/gadsdenrehab/transparency-healthcare,https://encompasshealth.com/-/media/healthsouth/project/healthsouth/files/2022-price-transparency/27-4000610_encompass-health-rehabilitation-hospital-of-gadsden_standardcharges.csv,mysequel
013033,REGIONAL REHABILITATION HOSPITAL,3715 US HIGHWAY 431 NORTH,PHENIX CITY,AL,36867,58,3347322200,https://encompasshealth.com/locations/regionalrehab/transparency-healthcare,https://encompasshealth.com/-/media/healthsouth/project/healthsouth/files/2022-price-transparency/63-1280233_regional-rehabilitation-hospital_standardcharges.csv,mysequel
143028,VAN MATRE HEALTHSOUTH REHABILITATION HOSPITAL,950 S MULFORD RD,ROCKFORD,IL,61108,65,8153818548,https://encompasshealth.com/locations/vanmatrerehab/transparency-healthcare,https://encompasshealth.com/-/media/healthsouth/project/healthsouth/files/2022-price-transparency/36-4397130_van-matre-encompass-health-rehabilitation-institute_standardcharges.csv,mysequel
033025,ENCOMPASS HEALTH REHAB HOSPITAL OF SCOTTSDALE,9630 EAST SHEA BOULEVARD,SCOTTSDALE,AZ,85260,60,4805515400,https://encompasshealth.com/locations/scottsdalerehab/transparency-healthcare,https://encompasshealth.com/-/media/healthsouth/project/healthsouth/files/2022-price-transparency/63-1184846_encompass-health-rehabilitation-hospital-of-scottsdale_standardcharges.csv,mysequel
033028,ENCOMPASS HEALTH REHABILITATION INSTITUTE OF TUCSO,2650 NORTH WYATT DRIVE,TUCSON,AZ,85712,80,5203251300,https://encompasshealth.com/locations/rehabinstituteoftucson/transparency-healthcare,https://encompasshealth.com/-/media/healthsouth/project/healthsouth/files/2022-price-transparency/63-1184847_encompass-health-rehabilitation-institute-of-tucson_standardcharges.csv,mysequel
033029,ENCOMPASS HEALTH REHABILITATION HOSPITAL OF NORTHW,1921 WEST HOSPITAL DRIVE,TUCSON,AZ,85704,60,5207422800,https://encompasshealth.com/locations/northwesttucsonrehab/transparency-healthcare,https://encompasshealth.com/-/media/healthsouth/project/healthsouth/files/2022-price-transparency/25-1654947_encompass-health-rehabilitation-hospital-of-northwest-tucson_standardcharges.csv,mysequel
033032,ENCOMPASS HEALTH VALLEY OF THE SUN REHAB HOSPITAL,13460 NORTH 67TH AVENUE,GLENDALE,AZ,85304,75,6238788800,https://encompasshealth.com/locations/valleyofthesunrehab/transparency-healthcare,https://encompasshealth.com/-/media/healthsouth/project/healthsouth/files/2022-price-transparency/63-1184848_encompass-health-valley-of-the-sun-rehabilitation-hospital_standardcharges.csv,mysequel
033034,"YUMA REHABILITATION HOSPITAL,AN AFFILIATION OF ENC",901 WEST 24TH STREET,YUMA,AZ,85364,51,9287265000,https://encompasshealth.com/locations/yumarehab/transparency-healthcare,https://encompasshealth.com/-/media/healthsouth/project/healthsouth/files/2022-price-transparency/943427408yuma-rehabilitation-hospital-an-affiliation-of-encompass-health-and-yuma-regional-standard.csv,mysequel
033037,ENCOMPASS HEALTH REHABILITATION HOSPITAL OF EAST V,5652 EAST BASELINE ROAD,MESA,AZ,85206,60,4805670350,https://encompasshealth.com/locations/eastvalleyrehab/transparency-healthcare,https://encompasshealth.com/-/media/healthsouth/project/healthsouth/files/2022-price-transparency/26-2942698_encompass-health-rehabilitation-hospital-of-east-valley_standardcharges.csv,mysequel
153025,ENCOMPASS HEALTH DEACONESS REHABILITATION HOSPITAL,9355 WARRICK TRAIL,NEWBURGH,IN,47630,103,8124769983,https://encompasshealth.com/locations/deaconessrehab/transparency-healthcare,https://encompasshealth.com/-/media/healthsouth/project/healthsouth/files/2022-price-transparency/72-1375246_encompass-health-deaconess-rehabilitation-hospital-_standardcharges.csv,mysequel
083026,ENCOMPASS HEALTH REHAB HOSPITAL OF MIDDLETOWN,250 EAST HAMPDEN ROAD,MIDDLETOWN,DE,19709,40,3024643400,https://encompasshealth.com/locations/middletownrehab/transparency-healthcare,https://encompasshealth.com/-/media/healthsouth/project/healthsouth/files/2022-price-transparency/27-3463026_encompass-health-rehabilitation-hospital-of-middletown_standardcharges.csv,mysequel
043028,ENCOMPASS HEALTH REHABILITATION HOSPITAL FT SMITH,1401 SOUTH J STREET,FORT SMITH,AR,72901,80,4797853300,https://encompasshealth.com/locations/fortsmithrehab/transparency-healthcare,https://encompasshealth.com/-/media/healthsouth/project/healthsouth/files/2022-price-transparency/63-1105919_encompass-health-rehabilitation-hospital-of-fort-smith_standardcharges.csv,mysequel
043029,ENCOMPASS HEALTH REHABILITATION HOSPITAL,1201 FLEMING AVE,JONESBORO,AR,72401,80,8709320440,https://encompasshealth.com/locations/jonesbororehab/transparency-healthcare,https://encompasshealth.com/-/media/healthsouth/project/healthsouth/files/2022-price-transparency/46-1429335_encompass-health-rehabilitation-hospital-of-jonesboro_standardcharges.csv,mysequel
043031,CHI ST VINCENT SHERWOOD REHABILITATION HOSPITAL,2201 WILDWOOD AVENUE,SHERWOOD,AR,72120,80,5018341800,https://encompasshealth.com/locations/stvincentrehab/transparency-healthcare,https://encompasshealth.com/-/media/healthsouth/project/healthsouth/files/2022-price-transparency/251652121chi-st-vincent-sherwood-rehabilitation-hospital-a-partner-of-encompass-healthstandardcharge.csv,mysequel
043032,ENCOMPASS HEALTH REHAB HOSP A PARTNER OF WASH REG,153 E MONTE PAINTER DRIVE,FAYETTEVILLE,AR,72703,80,4794442200,https://encompasshealth.com/locations/fayettevillerehab/transparency-healthcare,https://encompasshealth.com/-/media/healthsouth/project/healthsouth/files/2022-price-transparency/25-1652127_encompass-health-rehabilitation-hospital-a-partner-of-washington-regional_standardcharges.csv,mysequel
043035,"CHI ST VINCENT HS REHAB HOSP, A PART OF ENCOMPASS",1636 HIGDON FERRY ROAD,HOT SPRINGS,AR,71913,40,5016512000,https://encompasshealth.com/locations/stvhotsprings/transparency-healthcare,https://encompasshealth.com/-/media/healthsouth/project/healthsouth/files/2022-price-transparency/251652121chi-st-vincent-hot-springs-rehabilitation-hospital-a-partner-of-encompass-healthstandardcha.csv,mysequel
173025,"KANSAS REHABILITATION HOSPITAL, A JOINT VENTURE OF",1504 SW 8TH AVENUE,TOPEKA,KS,66606,72,7852356600,https://encompasshealth.com/locations/kansasrehab/transparency-healthcare,https://encompasshealth.com/-/media/healthsouth/project/healthsouth/files/2022-price-transparency/521535077kansas-rehabilitation-hospital-a-joint-venture-of-encompass-health-and-stormont-standard.csv,mysequel
173026,MIDAMERICA REHABILITATION HOSPITAL,5701 W 110TH STREET,OVERLAND PARK,KS,66211,80,9134912410,https://encompasshealth.com/locations/midamericarehab/transparency-healthcare,https://encompasshealth.com/-/media/healthsouth/project/healthsouth/files/2022-price-transparency/74-2491473_midamerica-rehabilitation-hospital_standardcharges.csv,mysequel
183026,CARDINAL HILL REHABILITATION HOSPITAL,2050 VERSAILLES ROAD,LEXINGTON,KY,40504,158,8592545701,https://encompasshealth.com/locations/cardinalhillrehab/transparency-healthcare,https://encompasshealth.com/-/media/healthsouth/project/healthsouth/files/2022-price-transparency/47-3054927_cardinal-hill-rehabilitation-hospital_standardcharges.csv,mysequel
103028,ENCOMPASS HEALTH REHAB HOSPITAL OF SUNRISE,4399 NOB HILL RD,SUNRISE,FL,33351,126,9547490300,https://encompasshealth.com/locations/sunriserehab/transparency-healthcare,https://encompasshealth.com/-/media/healthsouth/project/healthsouth/files/2022-price-transparency/63-1134714_encompass-health-rehabilitation-hospital-of-sunrise_standardcharges.csv,mysequel
183027,ENCOMPASS HEALTH REHABILITATION HOSPITAL OF NORTHE,201 MEDICAL VILLAGE DRIVE,EDGEWOOD,KY,41017,51,8593412044,https://encompasshealth.com/locations/kentuckyrehab/transparency-healthcare,https://encompasshealth.com/-/media/healthsouth/project/healthsouth/files/2022-price-transparency/63-1184835_encompass-health-rehabilitation-hospital-of-northern-kentucky_standardcharges.csv,mysequel
183028,ENCOMPASS HEALTH REHABILITATION HOSPITAL OF LAKEVI,134 HEARTLAND DRIVE,ELIZABETHTOWN,KY,42701,40,2707693100,https://encompasshealth.com/locations/lakeviewrehab/transparency-healthcare,https://encompasshealth.com/-/media/healthsouth/project/healthsouth/files/2022-price-transparency/25-1573943_encompass-health-rehabilitation-hospital-of-lakeview-_standardcharges.csv,mysequel
103031,ENCOMPASS HEALTH REHAB HOSPITAL OF SARASOTA,6400 EDGELAKE DR,SARASOTA,FL,34240,96,9419218600,https://encompasshealth.com/locations/sarasotarehab/transparency-healthcare,https://encompasshealth.com/-/media/healthsouth/project/healthsouth/files/2022-price-transparency/63-1134650_encompass-health-rehabilitation-hospital-of-sarasota_standardcharges.csv,mysequel
103032,ENCOMPASS HEALTH REHAB HOSPITAL OF TREASURE COAST,1600 37TH ST,VERO BEACH,FL,32960,80,7727782100,https://encompasshealth.com/locations/treasurecoastrehab/transparency-healthcare,https://encompasshealth.com/-/media/healthsouth/project/healthsouth/files/2022-price-transparency/63-1105921_encompass-health-rehabilitation-hospital-of-treasure-coast_standardcharges.csv,mysequel
103033,ENCOMPASS HEALTH REHABILITATION HOSPITAL OF TALLAH,1675 RIGGINS RD,TALLAHASSEE,FL,32308,76,8506564800,https://encompasshealth.com/locations/tallahasseerehab/transparency-healthcare,https://encompasshealth.com/-/media/healthsouth/project/healthsouth/files/2022-price-transparency/63-1134713_encompass-health-rehabilitation-hospital-of-tallahassee_standardcharges.csv,mysequel
103034,SEA PINES REHAB HOSP AFFILIATE OF ENCOMPASS HEALTH,101 E FLORIDA AVENUE,MELBOURNE,FL,32901,90,3219844600,https://encompasshealth.com/locations/seapinesrehab/transparency-healthcare,https://encompasshealth.com/-/media/healthsouth/project/healthsouth/files/2022-price-transparency/63-1134647_sea-pines-rehabilitation-hospital-an-affiliate-of-encompass-health-_standardcharges.csv,mysequel
103037,ENCOMPASS HEALTH REHABILITATION HOSPITAL OF LARGO,901 CLEARWATER LARGO RD N,LARGO,FL,33770,70,7275862999,https://encompasshealth.com/locations/largorehab/transparency-healthcare,https://encompasshealth.com/-/media/healthsouth/project/healthsouth/files/2022-price-transparency/63-1134645_encompass-health-rehabilitation-hospital-of-largo_standardcharges.csv,mysequel
103038,ENCOMPASS HEALTH REHABILITATION HOSPITAL OF MIAMI,20601 OLD CUTLER RD,MIAMI,FL,33189,60,3052513800,https://encompasshealth.com/locations/miamirehab/transparency-healthcare,https://encompasshealth.com/-/media/healthsouth/project/healthsouth/files/2022-price-transparency/27-5253818_encompass-health-rehabilitation-hospital-of-miami_standardcharges.csv,mysequel
103040,ENCOMPASS HEALTH REHABILITATION HOSPITAL OF PANAMA,1847 FLORIDA AVE,PANAMA CITY,FL,32405,75,8509148600,https://encompasshealth.com/locations/panamacityrehab/transparency-healthcare,https://encompasshealth.com/-/media/healthsouth/project/healthsouth/files/2022-price-transparency/63-1119356_encompass-health-rehabilitation-hospital-of-panama-city-_standardcharges.csv,mysequel
103042,ENCOMPASS HEALTH REHAB HOSPITAL OF SPRING HILL,12440 CORTEZ BLVD,BROOKSVILLE,FL,34613,80,3525924250,https://encompasshealth.com/locations/springhillrehab/transparency-healthcare,https://encompasshealth.com/-/media/healthsouth/project/healthsouth/files/2022-price-transparency/63-1244181_encompass-health-rehabilitation-hospital-of-spring-hill_standardcharges.csv,mysequel
103043,ENCOMPASS HEALTH REHAB HOSPITAL OF OCALA,2275 SW 22ND LANE,OCALA,FL,34471,80,3522824000,https://encompasshealth.com/locations/ocalarehab/transparency-healthcare,https://encompasshealth.com/-/media/healthsouth/project/healthsouth/files/2022-price-transparency/27-3308405_encompass-health-rehabilitation-hospital-of-ocala_standardcharges.csv,mysequel
103044,ENCOMPASS HEALTH REHAB HOSPITAL AN AFFILIATE OF MA,5850 SE COMMUNITY DR,STUART,FL,34997,80,7723243522,https://encompasshealth.com/locations/martinrehab/transparency-healthcare,https://encompasshealth.com/-/media/healthsouth/project/healthsouth/files/2022-price-transparency/27-4895765_encompass-health-rehabilitation-hospital-an-affiliate-of-martin-health_standardcharges.csv,mysequel
103045,ENCOMPASS HEALTH REHABILITATION HOSPITAL OF ALTAMO,831 S STATE RD 434,ALTAMONTE,FL,32714,50,4075878600,https://encompasshealth.com/locations/altamontespringsrehab/transparency-healthcare,https://encompasshealth.com/-/media/healthsouth/project/healthsouth/files/2022-price-transparency/45-2905189_encompass-health-rehabilitation-hospital-of-altamonte-springs_standardcharges.csv,mysequel
253027,"ENCOMPASS HEALTH REHABILITATION HOSPITAL, PARTNER","4500 13TH STREET, SUITE 900",GULFPORT,MS,39501,33,2288226965,https://encompasshealth.com/locations/gulfportrehab/transparency-healthcare,https://encompasshealth.com/-/media/healthsouth/project/healthsouth/files/2022-price-transparency/814331986encompass-health-rehabilitation-hospital-a-partner-of-memorial-hospital-at-gulfportstandard.csv,mysequel
053031,ENCOMPASS HEALTH REHABILITATON HOSPITAL OF BAKERS,5001 COMMERCE DRIVE,BAKERSFIELD,CA,93309,86,6613235500,https://encompasshealth.com/locations/bakersfieldrehab/transparency-healthcare,https://encompasshealth.com/-/media/healthsouth/project/healthsouth/files/2022-price-transparency/63-1184845_encompass-health-rehabilitation-hospital-of-bakersfield_standardcharges.csv,mysequel
053034,ENCOMPASS HEALTH REHABILITATION HOSPITAL OF TUSTIN,14851 YORBA STREET,TUSTIN,CA,92780,117,7148329200,https://encompasshealth.com/locations/tustinrehab/transparency-healthcare,https://encompasshealth.com/-/media/healthsouth/project/healthsouth/files/2022-price-transparency/33-0695017_encompass-health-rehabilitation-hospital-of-tustin_standardcharges.csv,mysequel
053040,ENCOMPASS HEALTH REHABILITATION HOSPITAL OF MODEST,1303 MABLE AVENUE,MODESTO,CA,95355,50,2098573400,https://encompasshealth.com/locations/modestorehab/transparency-healthcare,https://encompasshealth.com/-/media/healthsouth/project/healthsouth/files/2022-price-transparency/46-4417320_encompass-health-rehabilitation-hospital-of-modesto_standardcharges.csv,mysequel
343027,NOVANT HEALTH REHABILITATION HOSPITAL,2475 HILLCREST CENTER CIRCLE,WINSTON-SALEM,NC,27103,68,3367543500,https://encompasshealth.com/locations/novanthealthrehab/transparency-healthcare,https://encompasshealth.com/-/media/healthsouth/project/healthsouth/files/2022-price-transparency/81-3251045_novant-health-rehabilitation-hospital-an-affiliate-of-encompass-health_standardcharges.csv,mysequel
363034,ENCOMPASS HEALTH REHABILITATION HOSPITAL OF CINCIN,151 WEST GALBRAITH ROAD,CINCINNATI,OH,45216,60,5134185600,https://encompasshealth.com/locations/cincinnatirehab/transparency-healthcare,https://encompasshealth.com/-/media/healthsouth/project/healthsouth/files/2022-price-transparency/45-1441844_encompass-health-rehabilitation-hospital-of-cincinnati_standardcharges.csv,mysequel
363042,"MOUNT CARMEL REHABILITATION HOSPITAL, AN AFFILIATE",597 EXECUTIVE CAMPUS DR,WESTERVILLE,OH,43082,60,6143923400,https://encompasshealth.com/locations/mountcarmelrehab/transparency-healthcare,https://encompasshealth.com/-/media/healthsouth/project/healthsouth/files/2022-price-transparency/47-4200156_mount-carmel-rehabilitation-hospital-an-affiliate-of-encompass-health_standardcharges.csv,mysequel
113030,"WALTON REHAB HOSPITAL, AFFILIATE OF ENCOMPASS HLTH",1355 INDEPENDENCE DRIVE,AUGUSTA,GA,30901,58,7067247746,https://encompasshealth.com/locations/waltonrehab/transparency-healthcare,https://encompasshealth.com/-/media/healthsouth/project/healthsouth/files/2022-price-transparency/46-1318969_walton-rehabilitation-hospital-an-affiliate-of-encompass-health_standardcharges.csv,mysequel
113032,ENCOMPASS HEALTH REHABILITATION HOSPITAL OF NEWNAN,2101 EAST NEWNAN CROSSING BLVD,NEWNAN,GA,30265,50,6785526200,https://encompasshealth.com/locations/newnanrehab/transparency-healthcare,https://encompasshealth.com/-/media/healthsouth/project/healthsouth/files/2022-price-transparency/27-3390540_rehabilitation-hospital-of-newnan_standardcharges.csv,mysequel
113033,ENCOMPASS HEALTH REHAB HOSPITAL OF SAVANNAH,6510 SEAWRIGHT DRIVE,SAVANNAH,GA,31404,50,9122356000,https://encompasshealth.com/locations/savannahrehab/transparency-healthcare,https://encompasshealth.com/-/media/healthsouth/project/healthsouth/files/2022-price-transparency/47-1281407_encompass-health-rehabilitation-hospital-of-savannah_standardcharges.csv,mysequel
133028,SAINT ALPHONSUS REGIONAL REHABILITATION HOSPITAL,711 NORTH CURTIS ROAD,BOISE,ID,83706,40,2086053000,https://encompasshealth.com/locations/boiserehab/transparency-healthcare,https://encompasshealth.com/-/media/healthsouth/project/healthsouth/files/2022-price-transparency/824272202saint-alphonsus-regional-rehabilitation-hospital-an-affiliate-of-encompass-healthstandardch.csv,mysequel
673070,SOUTH PLAINS REHABILITATION HOSPITAL AN AFFILIATE,5406 COLGATE STREET,LUBBOCK,TX,79416,40,8065073500,https://encompasshealth.com/locations/southplainsrehab/transparency-healthcare,https://encompasshealth.com/-/media/healthsouth/project/healthsouth/files/2022-price-transparency/823034309south-plains-rehabilitation-hospital-an-affiliate-of-umc-and-encompass-healthstandardcharge.csv,mysequel
673071,ENCOMPASS HEALTH REHABILITATION HOSPITAL OF KATY,23331 GRAND RESERVE DRIVE,KATY,TX,77494,40,2815053500,https://encompasshealth.com/locations/houston/katyrehab/transparency-healthcare,https://encompasshealth.com/-/media/healthsouth/project/healthsouth/files/2022-price-transparency/82-4549154_encompass-health-rehabilitation-hospital-of-katy_standardcharges.csv,mysequel
263027,RUSK REHABILITATION CTR,315 BUSINESS LOOP 70 W,COLUMBIA,MO,65203,72,5738172703,https://encompasshealth.com/locations/ruskrehab/transparency-healthcare,https://encompasshealth.com/-/media/healthsouth/project/healthsouth/files/2022-price-transparency/721349747rusk-rehabilitation-hospital-an-affiliation-of-encompass-health-and-mu-health-carestandardc.csv,mysequel
263028,"THE REHABILITATION INSTITUTE OF ST. LOUIS, AN AFFI",4455 DUNCAN AVE,SAINT LOUIS,MO,63110,131,3146583925,https://encompasshealth.com/locations/rehabinstitutestl/transparency-healthcare,https://encompasshealth.com/-/media/healthsouth/project/healthsouth/files/2022-price-transparency/631254288the-rehabilitation-institute-of-st-louis-an-affiliation-of-bjc-healthcare-and-encompasstand.csv,mysequel
393026,ENCOMPASS HEALTH REHABILITATION HOSPITAL OF READIN,1623 MORGANTOWN ROAD,READING,PA,19607,60,6107966000,https://encompasshealth.com/locations/readingrehab/transparency-healthcare,https://encompasshealth.com/-/media/healthsouth/project/healthsouth/files/2022-price-transparency/72-1397929_encompass-health-rehabilitation-hospital-of-reading_standardcharges.csv,mysequel
393027,HEALTHSOUTH HARMARVILLE REHABILITATION HOSPITAL,320 GUYS RUN ROAD,PITTSBURGH,PA,15238,162,4128281300,https://encompasshealth.com/locations/harmarvillerehab/transparency-healthcare,https://encompasshealth.com/-/media/healthsouth/project/healthsouth/files/2022-price-transparency/52-1960506_encompass-health-rehabilitation-hospital-of-harmarville_standardcharges.csv,mysequel
393031,ENCOMPASS HEALTH REHABILITATION HOSPITAL OF MECHAN,175 LANCASTER BOULEVARD,MECHANICSBURG,PA,17055,75,7176913720,https://encompasshealth.com/locations/mechanicsburgrehab/transparency-healthcare,https://encompasshealth.com/-/media/healthsouth/project/healthsouth/files/2022-price-transparency/63-1105923_encompass-health-rehabilitation-hospital-of-mechanicsburg_standardcharges.csv,mysequel
393037,"ENCOMPASS HEALTH REHABILITATION HOSPITAL OF YORK,",1850 NORMANDIE DRIVE,YORK,PA,17404,90,7177676941,https://encompasshealth.com/locations/yorkrehab/transparency-healthcare,https://encompasshealth.com/-/media/healthsouth/project/healthsouth/files/2022-price-transparency/63-1105925_encompass-health-rehabilitation-hospital-of-york_standardcharges.csv,mysequel
393039,ENCOMPASS HEALTH REHABILITATION HOSPITAL OF NITTAN,550 WEST COLLEGE AVENUE,PLEASANT GAP,PA,16823,73,8143593421,https://encompasshealth.com/locations/nittanyvalleyrehab/transparency-healthcare,https://encompasshealth.com/-/media/healthsouth/project/healthsouth/files/2022-price-transparency/63-1105924_encompass-health-rehabilitation-hospital-of-nittany-valley_standardcharges.csv,mysequel
393040,ENCOMPASS HEALTH REHABILITATION HOSPITAL OF ALTOON,2005 VALLEY VIEW BOULEVARD,ALTOONA,PA,16602,80,8149443535,https://encompasshealth.com/locations/altoonarehab/transparency-healthcare,https://encompasshealth.com/-/media/healthsouth/project/healthsouth/files/2022-price-transparency/26-2198419_encompass-health-rehabilitation-hospital-of-altoona_standardcharges.csv,mysequel
393045,ENCOMPASS HEALTH REHAB HOSPITAL OF SEWICKLEY,351 CAMP MEETING ROAD,SEWICKLEY,PA,15143,55,4127419500,https://encompasshealth.com/locations/sewickleyrehab/transparency-healthcare,https://encompasshealth.com/-/media/healthsouth/project/healthsouth/files/2022-price-transparency/63-1227351_encompass-health-rehabilitation-hospital-of-sewickley_standardcharges.csv,mysequel
393046,HEALTHSOUTH REHABILITATION HOSPITAL OF ERIE,143 EAST SECOND STREET,ERIE,PA,16507,108,8148781200,https://encompasshealth.com/locations/erierehab/transparency-healthcare,https://encompasshealth.com/-/media/healthsouth/project/healthsouth/files/2022-price-transparency/63-1105904_encompass-health-rehabilitation-hospital-of-erie_standardcharges.csv,mysequel
393047,GEISINGER ENCOMPASS HEALTH REHABILITATION HOSPITAL,64 REHAB LANE,DANVILLE,PA,17821,42,5702716110,https://encompasshealth.com/locations/geisinger/transparency-healthcare,https://encompasshealth.com/-/media/healthsouth/project/healthsouth/files/2022-price-transparency/72-1398803_geisinger-encompass-health-rehabilitation-hospital-_standardcharges.csv,mysequel
403025,HEALTH SOUTH REHABILITATION HOSPITAL OF SAN JUAN,UNIVERSITY DISTRICT HOSPITAL -- 3RD  FLOOR,SAN JUAN,PR,936,32,7872745100,https://encompasshealth.com/locations/puertoricorehab/transparency-healthcare,https://encompasshealth.com/-/media/healthsouth/project/healthsouth/files/2022-price-transparency/46-0977422_encompass-health-rehabilitation-hospital-of-san-juan_standardcharges.csv,mysequel
403026,"HEALTHSOUTH REHABILITATION HOSPITAL OF MANATI, INC",CARR 2 K47 7,ALTS DE MANATI,PR,674,40,7876213800,https://encompasshealth.com/locations/manatirehab/transparency-healthcare,https://encompasshealth.com/-/media/healthsouth/project/healthsouth/files/2022-price-transparency/20-1151662_encompass-health-rehabilitation-hospital-of-manati_standardcharges.csv,mysequel
373034,"ST JOHN REHAB HOSPITAL, AN AFFILIATE OF ENCOMPASS",1200 W ALBANY DRIVE,BROKEN ARROW,OK,74012,40,9187442291,https://encompasshealth.com/locations/stjohnrehab/transparency-healthcare,https://encompasshealth.com/-/media/healthsouth/project/healthsouth/files/2022-price-transparency/47-4332576_st-john-rehabilitation-hospital-an-affiliate-of-encompass-health_standardcharges.csv,mysequel
423025,ENCOMPASS HEALTH REHABILITATION HOSPITAL OF COLA,2935 COLONIAL DRIVE,COLUMBIA,SC,29203,96,8032547777,https://encompasshealth.com/locations/columbiarehab/transparency-healthcare,https://encompasshealth.com/-/media/healthsouth/project/healthsouth/files/2022-price-transparency/63-0974715_encompass-health-rehabilitation-hospital-of-columbia_standardcharges.csv,mysequel
423026,ENCOMPASS HEALTH REHABILITATION HOSPITAL OF FLORE,900 EAST CHEVES ST,FLORENCE,SC,29506,88,8436799000,https://encompasshealth.com/locations/florencerehab/transparency-healthcare,https://encompasshealth.com/-/media/healthsouth/project/healthsouth/files/2022-price-transparency/57-0775688_encompass-health-rehabilitation-hospital-of-florence_standardcharges.csv,mysequel
423027,"HEALTHSOUTH REHABILITATION HOSP OF CHARLESTON, INC",9181 MEDCOM ST,NORTH CHARLESTON,SC,29406,49,8438207777,https://encompasshealth.com/locations/charlestonrehab/transparency-healthcare,https://encompasshealth.com/-/media/healthsouth/project/healthsouth/files/2022-price-transparency/57-0904886_musc-health-rehabilitation-hospital-an-affiliate-of-encompass-health_standardcharges.csv,mysequel
423028,ENCOMPASS HEALTH REHABILITATION HOSPITAL OF ROCK H,1795 FRANK GASTON BLVD,ROCK HILL,SC,29732,50,8033263500,https://encompasshealth.com/locations/rockhillrehab/transparency-healthcare,https://encompasshealth.com/-/media/healthsouth/project/healthsouth/files/2022-price-transparency/57-1071353_encompass-health-rehabilitation-hospital-of-rock-hill_standardcharges.csv,mysequel
423029,ANMED HEALTHSOUTH REHABILITATION HOSPITAL,1 SPRINGBACK WAY,ANDERSON,SC,29621,60,8647162600,https://encompasshealth.com/locations/anmedrehab/transparency-healthcare,https://encompasshealth.com/-/media/healthsouth/project/healthsouth/files/2022-price-transparency/94-3430783_anmed-health-rehabilitation-hospital_standardcharges.csv,mysequel
423032,ENCOMPASS HEALTH REHAB HOSPITAL OF BLUFFTON,107 SEAGRASS ROAD,BLUFFTON,SC,29910,38,8438368200,https://encompasshealth.com/locations/blufftonrehab/transparency-healthcare,https://encompasshealth.com/-/media/healthsouth/project/healthsouth/files/2022-price-transparency/81-1718775_encompass-health-rehabilitation-hospital-of-bluffton_standardcharges.csv,mysequel
443027,ENCOMPASS HEALTH REHABILITATION HOSPITAL OF KINGSP,113 CASSEL DRIVE,KINGSPORT,TN,37660,50,4232467240,https://encompasshealth.com/locations/kingsportrehab/transparency-healthcare,https://encompasshealth.com/-/media/healthsouth/project/healthsouth/files/2022-price-transparency/631028003rehabilitation-hospital-of-kingsport-a-joint-venture-of-ballad-health-and-encompasstandard.csv,mysequel
443028,VANDERBILT STALLWORTH REHAB HOSPITAL,2201 CHILDRENS WAY,NASHVILLE,TN,37212,80,6153207600,https://encompasshealth.com/locations/vanderbiltstallworth/transparency-healthcare,https://encompasshealth.com/-/media/healthsouth/project/healthsouth/files/2022-price-transparency/63-1077470_vanderbilt-stallworth-rehabilitation-hospital-_standardcharges.csv,mysequel
443029,ENCOMPASS HEALTH REHABILITIATION HOSPITAL OF MEMPH,1282 UNION AVENUE,MEMPHIS,TN,38104,80,9017222000,https://encompasshealth.com/locations/memphisrehab/transparency-healthcare,https://encompasshealth.com/-/media/healthsouth/project/healthsouth/files/2022-price-transparency/631107459encompass-health-rehabilitation-hospital-of-memphis-a-partner-of-methodist-healthcarestanda.csv,mysequel
443030,WEST TENNESSEE HEALTHCARE REHABILITATION HOSPITAL,180 MOUNT PELIA ROAD,MARTIN,TN,38237,40,7315874261,https://encompasshealth.com/locations/canecreekrehab/transparency-healthcare,https://encompasshealth.com/-/media/healthsouth/project/healthsouth/files/2022-price-transparency/475297151west-tennessee-healthcare-rehabilitation-hospital-cane-creek-encompass-standard-charges.csv,mysequel
443031,ENCOMPASS HEALTH METHODIST REHABILITATION HOSPITAL,4100 AUSTIN PEAY HIGHWAY,MEMPHIS,TN,38128,40,9012135400,https://encompasshealth.com/locations/northmemphisrehab/transparency-healthcare,https://encompasshealth.com/-/media/healthsouth/project/healthsouth/files/2022-price-transparency/631107459encompass-health-rehabilitation-hospital-of-north-memphis-a-partner-of-methodist-standard.csv,mysequel
443032,ENCOMPASS HEALTH REHABILITATION HOSPITAL OF CHATTA,2412 MCCALLIE AVENUE,CHATTANOOGA,TN,37404,69,4236980221,https://encompasshealth.com/locations/chattanoogarehab/transparency-healthcare,https://encompasshealth.com/-/media/healthsouth/project/healthsouth/files/2022-price-transparency/62-1178229_encompass-health-rehabilitation-hospital-of-chattanooga_standardcharges.csv,mysequel
443033,"QUILLEN REHABILITATION HOSPITAL, AJV OF BALLAD HLT",2511 WESLEY STREET,JOHNSON CITY,TN,37601,36,4239521700,https://encompasshealth.com/locations/quillenrehab/transparency-healthcare,https://encompasshealth.com/-/media/healthsouth/project/healthsouth/files/2022-price-transparency/465144209quillen-rehabilitation-hospital-a-joint-venture-of-ballad-health-and-encompass-health-stand.csv,mysequel
293026,ENCOMPASS HEALTH REHABILITATION HOSPITAL OF LV,1250 S VALLEY VIEW BLVD,LAS VEGAS,NV,89102,79,7028778898,https://encompasshealth.com/locations/lasvegasrehab/transparency-healthcare,https://encompasshealth.com/-/media/healthsouth/project/healthsouth/files/2022-price-transparency/25-1693810_encompass-health-rehabilitation-hospital-of-las-vegas_standardcharges.csv,mysequel
443035,ENCOMPASS HEALTH REHABILITATION HOSPITAL OF FRANKL,1000 PHYSICIANS WAY,FRANKLIN,TN,37067,40,6157214000,https://encompasshealth.com/locations/franklinrehab/transparency-healthcare,https://encompasshealth.com/-/media/healthsouth/project/healthsouth/files/2022-price-transparency/27-4344918_encompass-health-rehabilitation-hospital-of-franklin_standardcharges.csv,mysequel
443036,WEST TENNESSEE HEALTHCARE REHABILITATION HOSPTIAL,616 WEST FOREST AVENUE,JACKSON,TN,38301,48,7315415000,https://encompasshealth.com/locations/jacksonrehab/transparency-healthcare,https://encompasshealth.com/-/media/healthsouth/project/healthsouth/files/2022-price-transparency/475297151west-tennessee-healthcare-rehabilitation-hospital-jackson-encompass-heal-standard.csv,mysequel
293032,ENCOMPASS HEALTH REHABILITATION HOSPITAL OF HENDER,10301 JEFFREYS ST,HENDERSON,NV,89052,90,7029399400,https://encompasshealth.com/locations/hendersonrehab/transparency-healthcare,https://encompasshealth.com/-/media/healthsouth/project/healthsouth/files/2022-price-transparency/63-1262946_encompass-health-rehabilitation-hospital-of-henderson_standardcharges.csv,mysequel
293033,ENCOMPASS HEALTH REHAB HOSPITAL OF DESERT CANYON,9175 WEST OQUENDO ROAD,LAS VEGAS,NV,89148,50,7022527342,https://encompasshealth.com/locations/desertcanyonrehab/transparency-healthcare,https://encompasshealth.com/-/media/healthsouth/project/healthsouth/files/2022-price-transparency/27-2457834_encompass-health-rehabilitation-hospital-of-desert-canyon_standardcharges.csv,mysequel
303027,ENCOMPASS HEALTH REHABILITATION HOSPITAL OF CONCOR,254 PLEASANT STREET,CONCORD,NH,3301,50,6032269800,https://encompasshealth.com/locations/concordrehab/transparency-healthcare,https://encompasshealth.com/-/media/healthsouth/project/healthsouth/files/2022-price-transparency/63-1102594_encompass-health-rehabilitation-hospital-of-concord_standardcharges.csv,mysequel
313029,ENCOMPASS HEALTH REHAB HOSPITAL OF TOMS RIVER,14 HOSPITAL DRIVE,TOMS RIVER,NJ,8755,92,7328443100,https://encompasshealth.com/locations/tomsriverrehab/transparency-healthcare,https://encompasshealth.com/-/media/healthsouth/project/healthsouth/files/2022-price-transparency/63-1105897_encompass-health-rehabilitation-hospital-of-toms-river_standardcharges.csv,mysequel
313035,ENCOMPASS HEALTH REHAB HOSPITAL OF TINTON FALLS,2 CENTRE PLAZA,TINTON FALLS,NJ,7724,60,7324605320,https://encompasshealth.com/locations/tintonfallsrehab/transparency-healthcare,https://encompasshealth.com/-/media/healthsouth/project/healthsouth/files/2022-price-transparency/631254173encompass-health-rehabilitation-hospital-of-tinton-falls-standard.csv,mysequel
313036,ENCOMPASS HEALTH REHAB HOSPITAL OF VINELAND,1237 W SHERMAN AVENUE,VINELAND,NJ,8360,41,8566967100,https://encompasshealth.com/locations/vinelandrehab/transparency-healthcare,https://encompasshealth.com/-/media/healthsouth/project/healthsouth/files/2022-price-transparency/26-2414472_encompass-health-rehabilitation-hospital-of-vineland_standardcharges.csv,mysequel
323027,ENCOMPASS HEALTH REHABILITATION HOSPITAL OF ALBUQU,7000 JEFFERSON STREET NE,ALBUQUERQUE,NM,87109,61,5053449478,https://encompasshealth.com/locations/albuquerquerehab/transparency-healthcare,https://encompasshealth.com/-/media/healthsouth/project/healthsouth/files/2022-price-transparency/63-1011171_encompass-health-rehabilitation-hospital-of-albuquerque_standardcharges.csv,mysequel
453031,ENCOMPASS HEALTH REHABILITATION HOSPITAL OF SAN AN,9119 CINNAMON HILL,SAN ANTONIO,TX,78240,108,2106910737,https://encompasshealth.com/locations/sanantoniorehab/transparency-healthcare,https://encompasshealth.com/-/media/healthsouth/project/healthsouth/files/2022-price-transparency/63-1105930_encompass-health-rehabilitation-hospital-of-san-antonio_standardcharges.csv,mysequel
453040,HEALTHSOUTH REHABILITATION HOSPITAL OF ARLINGTON,3200 MATLOCK,ARLINGTON,TX,76015,85,8174684000,https://encompasshealth.com/locations/arlingtonrehab/transparency-healthcare,https://encompasshealth.com/-/media/healthsouth/project/healthsouth/files/2022-price-transparency/63-1184844_encompass-health-rehabilitation-hospital-of-arlington_standardcharges.csv,mysequel
453042,ENCOMPASS HEALTH REHABILITATION HOSPITAL OF CITY,6701 OAKMONT BOULEVARD,FORT WORTH,TX,76132,62,8173704700,https://encompasshealth.com/locations/cityviewrehab/transparency-healthcare,https://encompasshealth.com/-/media/healthsouth/project/healthsouth/files/2022-price-transparency/25-1587575_encompass-health-rehabilitation-hospital-of-city-view_standardcharges.csv,mysequel
453047,ENCOMPASS HEALTH REHABILITATION HOSPITAL OF PLANO,2800 W 15TH ST,PLANO,TX,75075,83,9726129000,https://encompasshealth.com/locations/planorehab/transparency-healthcare,https://encompasshealth.com/-/media/healthsouth/project/healthsouth/files/2022-price-transparency/25-1661222_encompass-health-rehabilitation-hospital-of-plano_standardcharges.csv,mysequel
453053,HEALTHSOUTH  REHABILITATION HOSPITAL OF TEXARKANA,515 WEST 12TH ST,TEXARKANA,TX,75501,60,9037930088,https://encompasshealth.com/locations/texarkanarehab/transparency-healthcare,https://encompasshealth.com/-/media/healthsouth/project/healthsouth/files/2022-price-transparency/63-1105916_encompass-health-rehabilitation-hospital-of-texarkana_standardcharges.csv,mysequel
453054,HEALTHSOUTH REHAB HOSPITAL OF WICHITA FALLS,3901 ARMORY ROAD,WICHITA FALLS,TX,76301,63,9407205700,https://encompasshealth.com/locations/wichitafallsrehab/transparency-healthcare,https://encompasshealth.com/-/media/healthsouth/project/healthsouth/files/2022-price-transparency/25-1664933_encompass-health-rehabilitation-hospital-of-wichita-falls_standardcharges.csv,mysequel
453056,CHRISTUS TRINITY MOTHER FRANCES REHABILITATION HOS,3131 TROUP HWY,TYLER,TX,75701,94,9035107000,https://encompasshealth.com/locations/christustmfrehab/transparency-healthcare,https://encompasshealth.com/-/media/healthsouth/project/healthsouth/files/2022-price-transparency/251675784christus-trinity-mother-frances-rehabilitation-hospital-a-partner-of-encompass-health-stand.csv,mysequel
453057,HEALTHSOUTH REHABILITATION OF MIDLAND ODESSA,1800 HERITAGE BOULEVARD,MIDLAND,TX,79707,80,9155201600,https://encompasshealth.com/locations/midlandrehab/transparency-healthcare,https://encompasshealth.com/-/media/healthsouth/project/healthsouth/files/2022-price-transparency/63-1105911_encompass-health-rehabilitation-hospital-of-midland-odessa_standardcharges.csv,mysequel
463025,ENCOMPASS HEALTH REHABILITATION HOSPITAL OF UTAH,8074 SOUTH 1300 EAST,SANDY,UT,84094,84,8015613400,https://encompasshealth.com/locations/utahrehab/transparency-healthcare,https://encompasshealth.com/-/media/healthsouth/project/healthsouth/files/2022-price-transparency/63-1105917_encompass-health-rehabilitation-hospital-of-utah_standardcharges.csv,mysequel
493028,ENCOMPASS HEALTH REHAB HOSPITAL OF RICHMOND,5700 FITZHUGH AVENUE,RICHMOND,VA,23226,40,8042885700,https://encompasshealth.com/locations/richmondrehab/transparency-healthcare,https://encompasshealth.com/-/media/healthsouth/project/healthsouth/files/2022-price-transparency/23-2655290_encompass-health-rehabilitation-hospital-of-richmond_standardcharges.csv,mysequel
493029,"UNIVERSITY OF VIRGINIA - HEALTHSOUTH, LLC",515 RAY C HUNT DRIVE,CHARLOTTESVILLE,VA,22903,50,4342442000,https://encompasshealth.com/locations/uvarehab/transparency-healthcare,https://encompasshealth.com/-/media/healthsouth/project/healthsouth/files/2022-price-transparency/72-1397571_uva-encompass-health-rehabilitation-hospital_standardcharges.csv,mysequel
493031,ENCOMPASS HEALTH REHAB HOSPITAL OF PETERSBURG,95 MEDICAL PARK BLVD,PETERSBURG,VA,23805,64,8045048100,https://encompasshealth.com/locations/petersburgrehab/transparency-healthcare,https://encompasshealth.com/-/media/healthsouth/project/healthsouth/files/2022-price-transparency/20-0948362_encompass-health-rehabilitation-hospital-of-petersburg_standardcharges.csv,mysequel
673043,ENCOMPASS HEALTH REHABILITATION HOSPITAL OF DALLAS,7930 NORTHAVEN ROAD,DALLAS,TX,75230,40,2147068200,https://encompasshealth.com/locations/dallasrehab/transparency-healthcare,https://encompasshealth.com/-/media/healthsouth/project/healthsouth/files/2022-price-transparency/26-2934144_encompass-health-rehabilitation-hospital-of-dallas_standardcharges.csv,mysequel
673044,ENCOMPASS HEALTH REHABILITATION HOSPITAL OF THE MI,2304 HIGHWAY 121,BEDFORD,TX,76021,60,8176842000,https://encompasshealth.com/locations/midcitiesrehab/transparency-healthcare,https://encompasshealth.com/-/media/healthsouth/project/healthsouth/files/2022-price-transparency/26-1408611_encompass-health-rehabilitation-hospital-of-the-midcities_standardcharges.csv,mysequel
673054,ENCOMPASS HEALTH REHABILITATION HOSPITAL OF AUSTIN,330 W BEN WHITE BLVD,AUSTIN,TX,78704,60,9723088567,https://encompasshealth.com/locations/austinrehab/transparency-healthcare,https://encompasshealth.com/-/media/healthsouth/project/healthsouth/files/2022-price-transparency/26-1408389_encompass-health-rehabilitation-hospital-of-austin_standardcharges.csv,mysequel
673065,CHI ST JOSEPH HEALTHSOUTH REHABILITATION HOSPITAL,1600 JOSEPH DR,BRYAN,TX,77802,49,9798217506,https://encompasshealth.com/locations/stjrehab/transparency-healthcare,https://encompasshealth.com/-/media/healthsouth/project/healthsouth/files/2022-price-transparency/475501500chi-st-joseph-health-rehabilitation-hospital-an-affiliate-of-encompass-healthstandardcharge.csv,mysequel
493032,ENCOMPASS HEALTH REHAB HOSPITAL OF FREDERICKSBURG,300 PARK HILL DRIVE,FREDERICKSBURG,VA,22401,58,5403687300,https://encompasshealth.com/locations/fredericksburgrehab/transparency-healthcare,https://encompasshealth.com/-/media/healthsouth/project/healthsouth/files/2022-price-transparency/20-0949793_encompass-health-rehabilitation-hospital-of-fredericksburg_standardcharges.csv,mysequel
493033,ENCOMPASS HEALTH REHAB HOSPITAL OF NORTHERN VA,24430 MILLSTREAM DRIVE,ALDIE,VA,20105,60,7039572000,https://encompasshealth.com/locations/northernvirginiarehab/transparency-healthcare,https://encompasshealth.com/-/media/healthsouth/project/healthsouth/files/2022-price-transparency/26-1159764_encompass-health-rehabilitation-hospital-of-northern-virginia_standardcharges.csv,mysequel
493034,THE REHABILITATION HOSPITAL OF SOUTHWEST VA,103 NORTH STREET,BRISTOL,VA,24201,25,2766427900,https://encompasshealth.com/locations/bristolrehab/transparency-healthcare,https://encompasshealth.com/-/media/healthsouth/project/healthsouth/files/2022-price-transparency/205612001rehabilitation-hospital-of-bristol-a-joint-venture-of-ballad-health-and-encompass-healthsta.csv,mysequel
513026,ENCOMPASS HEALTH REHAB HOSPITAL OF PRINCETON,120 12TH ST,PRINCETON,WV,24740,60,3044878000,https://encompasshealth.com/locations/princetonrehab/transparency-healthcare,https://encompasshealth.com/-/media/healthsouth/project/healthsouth/files/2022-price-transparency/23-2655290_encompass-health-rehabilitation-hospital-of-princeton_standardcharges.csv,mysequel
513027,ENCOMPASS HEALTH REHAB HOSPITAL OF PARKERSBURG,#3 WESTERN HILLS DRIVE,PARKERSBURG,WV,26105,40,3044201300,https://encompasshealth.com/locations/parkersburgrehab/transparency-healthcare,https://encompasshealth.com/-/media/healthsouth/project/healthsouth/files/2022-price-transparency/23-2655290_encompass-health-rehabilitation-hospital-of-parkersburg_standardcharges.csv,mysequel
513028,ENCOMPASS HEALTH REHAB HOSPITAL OF HUNTINGTON,6900 WEST COUNTRY CLUB DRIVE,HUNTINGTON,WV,25705,62,3047331060,https://encompasshealth.com/locations/huntingtonrehab/transparency-healthcare,https://encompasshealth.com/-/media/healthsouth/project/healthsouth/files/2022-price-transparency/62-1178229_encompass-health-rehabilitation-hospital-of-huntington_standardcharges.csv,mysequel
513030,ENCOMPASS HEALTH REHAB HOSPITAL OF MORGANTOWN,1160 VAN VOORHIS ROAD,MORGANTOWN,WV,26504,96,3045981100,https://encompasshealth.com/locations/morgantownrehab/transparency-healthcare,https://encompasshealth.com/-/media/healthsouth/project/healthsouth/files/2022-price-transparency/55-0670907_encompass-health-rehabilitation-hospital-of-morgantown_standardcharges.csv,mysequel
673029,ENCOMPASS HEALTH REHABILITAITON HOSPITAL OF RICHAR,3351 WATERVIEW PARKWAY,RICHARDSON,TX,75080,50,9723985700,https://encompasshealth.com/locations/richardsonrehab/transparency-healthcare,https://encompasshealth.com/-/media/healthsouth/project/healthsouth/files/2022-price-transparency/20-5315890_encompass-health-rehabilitation-hospital-of-richardson_standardcharges.csv,mysequel
673039,RELIANT REHABILITATION HOSPITAL  ABILENE,6401 DIRECTORS PARKWAY,ABILENE,TX,79606,60,3256911600,https://encompasshealth.com/locations/abilenerehab/transparency-healthcare,https://encompasshealth.com/-/media/healthsouth/project/healthsouth/files/2022-price-transparency/26-2652076_encompass-health-rehabilitation-hospital-of-abilene_standardcharges.csv,mysequel
673042,ENCOMPASS HEALTH REHABILITATION HOSPITAL OF SUGAR,1325 HWY 6,SUGAR LAND,TX,77478,50,2812767599,https://encompasshealth.com/locations/houston/sugarlandrehab/transparency-healthcare,https://encompasshealth.com/-/media/healthsouth/project/healthsouth/files/2022-price-transparency/27-2810882_encompass-health-rehabilitation-hospital-of-sugar-land_standardcharges.csv,mysequel
