"cms_certification_num","name","address","city","state","zip5","beds","phone_number","homepage_url","chargemaster_url","last_edited_by_username"
"393302","UPMC CHILDREN'S HOSPITAL OF PITTSBURGH","ONE CHILDREN'S HOSPITAL DRIVE","PITTSBURGH","PA","15224","312","4126925325","https://www.chp.edu/","https://cdn.upmc.com/-/media/upmc/locations/hospitals/documents/cdm-excel-files/upmc-childrens-cdm-file.xlsx	","captainstabs"
"390002","UPMC MCKEESPORT","1500 FIFTH AVENUE","MC KEESPORT","PA","15132","198","4126642000","https://www.upmc.com/locations/hospitals/mckeesport","https://cdn.upmc.com/-/media/upmc/locations/hospitals/documents/cdm-excel-files/upmc-mckeesport-cdm-file.xlsx	","captainstabs"
"390016","UPMC JAMESON","1211 WILMINGTON AVENUE","NEW CASTLE","PA","16105","175","7246564100","https://www.upmc.com/locations/hospitals/jameson","https://cdn.upmc.com/-/media/upmc/locations/hospitals/documents/cdm-excel-files/upmc-jameson-cdm-file.xlsx	","captainstabs"
"390028","UPMC MERCY","1400 LOCUST STREET","PITTSBURGH","PA","15219","495","4122328111","https://www.upmc.com/locations/hospitals/mercy","https://cdn.upmc.com/-/media/upmc/locations/hospitals/documents/cdm-excel-files/upmc-mercy-cdm-file.xlsx	","captainstabs"
"330239","UPMC CHAUTAUQUA AT WCA","207 FOOTE AVENUE","JAMESTOWN","NY","14701","88","7164870141","https://www.upmc.com/locations/hospitals/chautauqua","https://cdn.upmc.com/-/media/upmc/locations/hospitals/documents/cdm-excel-files/upmc-chautauqua-cdm-file.xlsx	","captainstabs"
"390039","UPMC SOMERSET","225 SOUTH CENTER AVENUE","SOMERSET","PA","15501","111","8144435000","https://www.somersethospital.com/","https://www.somersethospital.com/wp-content/uploads/2021/01/UPMC-Somerset-Chargemaster.xls	","captainstabs"
"390045","UPMC WILLIAMSPORT","700 HIGH STREET","WILLIAMSPORT","PA","17701","255","5703212389","https://www.upmc.com/locations/hospitals/williamsport","https://cdn.upmc.com/-/media/upmc/locations/hospitals/documents/cdm-excel-files/upmc-williamsport-and-upmc-williamsport-divine-providence-cdm-file.xlsx","captainstabs"
"390058","UPMC CARLISLE","361 ALEXANDER SPRING ROAD","CARLISLE","PA","17015","165","7172491212","https://www.upmc.com/locations/hospitals/carlisle","https://cdn.upmc.com/-/media/upmc/locations/hospitals/documents/cdm-excel-files/upmc-carlisle-cdm-file.csv	","captainstabs"
"390063","UPMC HAMOT","201 STATE STREET","ERIE","PA","16550","343","8148776000","https://www.upmc.com/locations/hospitals/hamot","https://cdn.upmc.com/-/media/upmc/locations/hospitals/documents/cdm-excel-files/upmc-hamot-cdm-file.xlsx	","captainstabs"
"210027","U P M C WESTERN MARYLAND","12500 WILLOWBROOK ROAD","CUMBERLAND","MD","21502","240","2409647000","https://www.wmhs.com/","https://www.wmhs.com/charges/charges.csv	","captainstabs"
"390068","UPMC LITITZ","1500 HIGHLANDS DRIVE","LITITZ","PA","17543","206","7176255670","https://www.upmc.com/locations/hospitals/lititz","https://cdn.upmc.com/-/media/upmc/locations/hospitals/documents/cdm-excel-files/upmc-lititz-cdm-file.csv	","captainstabs"
"390073","UPMC ALTOONA","620 HOWARD AVENUE","ALTOONA","PA","16601","398","8148892011","https://www.upmc.com/locations/hospitals/altoona","https://cdn.upmc.com/-/media/upmc/locations/hospitals/documents/cdm-excel-files/upmc-altoona-cdm-file.xlsx	","captainstabs"
"390091","UPMC NORTHWEST","100 FAIRFIELD DRIVE","SENECA","PA","16346","173","8146767600","https://www.upmc.com/locations/hospitals/northwest","https://cdn.upmc.com/-/media/upmc/locations/hospitals/documents/cdm-excel-files/upmc-northwest-cdm-file.xlsx	","captainstabs"
"390101","UPMC MEMORIAL","1701 INNOVATION DRIVE","YORK","PA","17408","128","7178438623","https://www.upmc.com/locations/hospitals/memorial","https://cdn.upmc.com/-/media/upmc/locations/hospitals/documents/cdm-excel-files/upmc-memorial-cdm-file.csv	","captainstabs"
"390102","UPMC ST MARGARET","815 FREEPORT ROAD","PITTSBURGH","PA","15215","237","4127844000","https://www.upmc.com/locations/hospitals/st-margaret","https://cdn.upmc.com/-/media/upmc/locations/hospitals/documents/cdm-excel-files/upmc-st-margaret-cdm-file.xlsx	","captainstabs"
"390104","UPMC KANE","4372 ROUTE 6","KANE","PA","16735","31","8148378585","https://www.upmc.com/media/news/upmc-kane","https://www.kanecommunityhospital.com/assets/Uploads/UPMC-Kane-CDM-File-January-2022.xlsx	","captainstabs"
"390107","UPMC PASSAVANT","9100 BABCOCK BOULEVARD","PITTSBURGH","PA","15237","346","4123676700","https://www.upmc.com/locations/hospitals/passavant","https://cdn.upmc.com/-/media/upmc/locations/hospitals/documents/cdm-excel-files/upmc-passavant-cdm-file.xlsx	","captainstabs"
"390114","MAGEE WOMENS HOSPITAL OF UPMC HEALTH SYSTEM","300 HALKET STREET","PITTSBURGH","PA","15213","363","4126414010","https://www.upmc.com/locations/hospitals/magee","https://cdn.upmc.com/-/media/upmc/locations/hospitals/documents/cdm-excel-files/upmc-magee-cdm-file.xlsx	","captainstabs"
"390117","UPMC BEDFORD MEMORIAL","10455 LINCOLN HIGHWAY","EVERETT","PA","15537","49","8146236161","https://www.upmc.com/locations/hospitals/bedford","https://cdn.upmc.com/-/media/upmc/locations/hospitals/documents/cdm-excel-files/upmc-bedford-cdm-file.xlsx	","captainstabs"
"390164","UPMC PRESBYTERIAN SHADYSIDE","200 LOTHROP STREET","PITTSBURGH","PA","15213","1577","4126478788","https://www.upmc.com/locations/hospitals/shadyside","https://cdn.upmc.com/-/media/upmc/locations/hospitals/documents/cdm-excel-files/upmc-presbyterian-cdm-file.xlsx	","captainstabs"
"390178","UPMC HORIZON","110 NORTH MAIN STREET","GREENVILLE","PA","16125","201","7245882100","https://www.upmc.com/locations/hospitals/horizon/locations/greenville","https://cdn.upmc.com/-/media/upmc/locations/hospitals/documents/cdm-excel-files/upmc-horizon-cdm-file.xlsx	","captainstabs"
"390233","UPMC HANOVER","300 HIGHLAND AVE","HANOVER","PA","17331","93","7176373711","https://www.upmc.com/locations/hospitals/hanover","https://cdn.upmc.com/-/media/upmc/locations/hospitals/documents/cdm-excel-files/upmc-hanover-cdm-file.csv	","captainstabs"
"390328","UPMC EAST","2775 MOSSIDE BOULEVARD","MONROEVILLE","PA","15146","155","4123573000","https://www.upmc.com/locations/hospitals/east","https://cdn.upmc.com/-/media/upmc/locations/hospitals/documents/cdm-excel-files/upmc-east-cdm-file.xlsx	","captainstabs"
"391301","UPMC MUNCY","215 EAST WATER STREET","MUNCY","PA","17756","20","5705468282","https://www.upmc.com/locations/hospitals/muncy","https://cdn.upmc.com/-/media/upmc/locations/hospitals/documents/cdm-excel-files/upmc-muncy-cdm-file.xlsx	","captainstabs"
"391313","UPMC COLE","1001 EAST SECOND STREET","COUDERSPORT","PA","16915","49","8142749301","https://www.upmc.com/locations/hospitals/cole","https://cdn.upmc.com/-/media/upmc/locations/hospitals/documents/cdm-excel-files/upmc-cole-cdm-file.csv	","captainstabs"
"391316","UPMC WELLSBORO","32-36 CENTRAL AVENUE","WELLSBORO","PA","16901","25","5707241631","https://www.upmc.com/locations/hospitals/wellsboro","https://cdn.upmc.com/-/media/upmc/locations/hospitals/documents/cdm-excel-files/upmc-wellsboro-cdm-file.xlsx	","captainstabs"
"390071","LOCK HAVEN HOSPITAL","24 CREE DRIVE","LOCK HAVEN","PA","17745","25","5708935024","https://www.upmc.com/locations/hospitals/lock-haven","https://cdn.upmc.com/-/media/upmc/locations/hospitals/documents/cdm-excel-files/upmc-lock-haven-cdm-file.xlsx	","captainstabs"
"390067","UPMC PINNACLE HOSPITALS","409 SOUTH SECOND STREET","HARRISBURG","PA","17105","717","7177825181","https://www.upmc.com/locations/hospitals/harrisburg/locations","https://cdn.upmc.com/-/media/upmc/locations/hospitals/documents/cdm-excel-files/upmc-pinnacle-harrisburg-cdm-file.csv	","captainstabs"
