name,business_type,state_registered,street_registered,city_registered,zip5_registered,state_physical,street_physical,city_physical,zip5_physical,filing_number,agent_name,agent_title,raw_physical_address,raw_registered_address
MCNAMARA MARCUS & CO,CORPORATION,PA,,,,,,,,2343004,ROBERT M MCNAMARA,OWNER,UNKNOWN PITTSTON PA 0 -0 LUZERNE,
MELVILLE MOVING AND STORAGE COMPANY,CORPORATION,PA,,,,,,,,2343005,,,UNKNOWN PHILADELPHIA PA 0 -0 PHILADELPHIA,
MELI'S TASTY BREAD BAKERY,CORPORATION,PA,,,,,,,,2343006,AMERICAN BAKING CO,OWNER,UNKNOWN PHILADELPHIA PA 0 -0 PHILADELPHIA,
MELVILLE SERVICE GARAGE,CORPORATION,PA,,,,,,,,2343007,,,UNKNOWN PHILADELPHIA PA 0 -0 PHILADELPHIA,
MEADOW BROOK FARM,CORPORATION,PA,,,,,,,,2343008,,,R D 1 POTTSTOWN PA 0 -0 MONTGOMERY,
MERCER GARBAGE SERVICE,CORPORATION,PA,,,,,,,,2343009,PAUL T MELLON,OWNER,UNKNOWN MERCER PA 0 -0 MERCER,
MODERN ELECTRIC COMPANY,CORPORATION,PA,,,,PA,80 COLLINS AVENUE,UNIONTOWN,,2343010,CLEVE H HELMEY,OWNER,80 COLLINS AVENUE UNIONTOWN PA 0 -0 FAYETTE,
MODAD'S PHARMACY,CORPORATION,PA,,,,PA,1 ACADEMY ST,ULYSSES,16948-0,2343011,RUSSELL T SWEELY,OWNER,1 ACADEMY ST ULYSSES PA 16948-0 POTTER,
TOM MCNAMARA SCHOOL OF SALESMANSHIP,CORPORATION,PA,,,,,,,,2343012,TOM MARTIN MCNAMARA,OWNER,UNKNOWN PITTSBURGH PA 0 -0 ALLEGHENY,
MELILLO'S FOOD MARKET,CORPORATION,PA,,,,PA,2952-54 N 22ND ST,PHILADELPHIA,,2343013,MAFALDA MELILLO,OWNER,2952-54 N 22ND ST PHILADELPHIA PA 0 -0 PHILADELPHIA,
MATCH ARMS COMPANY,CORPORATION,PA,,,,PA,831 MARY ST,SPRINGDALE,,2343014,V LAWRENCE BIROCHIK,OWNER,831 MARY ST SPRINGDALE PA 0 -0 ALLEGHENY,
MERCER GLASS & MIRROR CO,CORPORATION,PA,,,,,,,,2343015,,,UNKNOWN LANCASTER PA 0 -0 LANCASTER,
MODERN ELECTRIC COMPANY,CORPORATION,PA,,,,PA,4762 LIBERTY AVE,PITTSBURGH,,2343016,W H MILLER ETAL,OWNER,4762 LIBERTY AVE PITTSBURGH PA 0 -0 ALLEGHENY,
MCNAMEE'S CAFE,CORPORATION,PA,,,,,,,,2343017,,,UNKNOWN PHILADELPHIA PA 0 -0 PHILADELPHIA,
MELTZER-WEISBERG ASSOCIATES,CORPORATION,PA,,,,PA 19072-0 MONTGOMERY,857 MONTGOMERY AVE,NARBERTH,,2343018,MAINLINE MEDICAL GROUP LTD,OWNER,857 MONTGOMERY AVE NARBERTH PA 19072-0 MONTGOMERY,
MERCER HOMECRAFT COMPANY,CORPORATION,PA,,,,,,,,2343019,THOMAS N CLAYTON,OWNER,R D 5 MERCER PA 0 -0 MERCER,
MELVILLE,CORPORATION,PA,,,,,,,,2343020,LOUIS H SOMERSON,OWNER,UNKNOWN PHILADELPHIA PA 0 -0 PHILADELPHIA,
MELIOR MUSIC,CORPORATION,PA,,,,,,,,2343021,C NEVIN JACKSON JR ET AL,OWNER,R D 2 BOX 40 ELIZABETHTOWN PA 0 -0 LANCASTER,
MEADOW BROOK DAIRY FARM,CORPORATION,PA,,,,,,,,2343022,,,R D 1 ALBERT MOUNTAIN TOP PA 0 -0 LUZERNE,
MCNAMEE SALES CO,CORPORATION,PA,,,,,,,,2343023,,,UNKNOWN PUNXSUTAWNEY PA 0 -0 JEFFERSON,
MODERN ELECTRIC CO.,CORPORATION,PA,,,,PA,9 N 8TH STREET,READING,,2343024,ROSE JOSEPHSON,OWNER,9 N 8TH STREET READING PA 0 -0 BERKS,
"MELISSAS, STEVE & SON",CORPORATION,PA,,,,,,,,2343025,JAMES MELISSAS,OWNER,UNKNOWN MONESSEN PA 0 -0 WESTMORELAND,
MERCER KITCHEN COMPANY,CORPORATION,PA,,,,,,,,2343026,RONALD N RIFFLE,OWNER,R D 7 MERCER PA 0 -0 MERCER,
THE MELVILLE GALLERY,CORPORATION,PA,,,,PA 19103-0 PHILADELPHIA,121 S 18TH ST,PHILADELPHIA,,2343027,SIDNEY M LOCKER,OWNER,121 S 18TH ST PHILADELPHIA PA 19103-0 PHILADELPHIA,
MCNANNY ASSOCIATES,CORPORATION,PA,,,,,,,,2343028,WILLIAM E MCNANNY,OWNER,R D 2 BOX 449 MOUNT PLEASANT PA 0 -0 WESTMORELAND,
MELITTE DRESSES,CORPORATION,PA,,,,,,,,2343029,,,UNKNOWN UPPER DARBY PA 0 -0 DELAWARE,
MELVILLE GARDENS,CORPORATION,PA,,,,,,,,2343030,,,UNKNOWN PHILADELPHIA PA 0 -0 PHILADELPHIA,
MATE COMPANY,CORPORATION,PA,,,,,,,,2343031,,,GERMANTOWN PHILADELPHIA PA 0 -0 PHILADELPHIA,
MERCER LIME & STONE COMPANY,CORPORATION,PA,,,,,,,,2343032,J HARRY PETERSON ETAL,OWNER,UNKNOWN SLIPPERY ROCK PA 0 -0 BUTLER,
MEADOWBROOK FARMS,CORPORATION,PA,,,,,,,,2343033,VICTOR R SCHMIDT,OWNER,UNKNOWN UPPER MILFORD TWP PA 0 -0 LEHIGH,
LEWIS MOTOR CAR COMPANY,CORPORATION,PA,,,,PA,42ND AND CHESTNUT STREETS,PHILADELPHIA,,2343034,JOSEPH SILVERS,OWNER,42ND AND CHESTNUT STREETS PHILADELPHIA PA 0 -0 PHILADELPHIA,
MELVILLE STORAGE COMPANY,CORPORATION,PA,,,,,,,,2343035,LOUIS H SOMERSON,OWNER,UNKNOWN PHILADELPHIA PA 0 -0 PHILADELPHIA,
MELL AUTO SALES,CORPORATION,PA,,,,,,,,2343036,CHARLES MELLICK,OWNER,UNKNOWN ALLENTOWN PA 0 -0 LEHIGH,
MATCON SERVICES,CORPORATION,PA,,,,,,,,2343037,LEWIS H REID,OWNER,520 VERONICA RD W GOSHEN TOWNSHIP WEST CHESTER PA 19380-0 CHESTER,
MELE BROS. FLORISTS,CORPORATION,PA,,,,PA,520,BRADDOCK,,2343038,JOSEPH M MELE,OWNER,520 BRADDOCK AVE BRADDOCK PA 0 -0 ALLEGHENY,
LEWIS MOTOR COMPANY,CORPORATION,PA,,,,PA,8 NORTH FRONT STREET,STEELTON,,2343039,JOSEPH T LEWIS,OWNER,8 NORTH FRONT STREET STEELTON PA 0 -0 DAUPHIN,
MCNALLY'S DETECTIVE & PATROL SERVICE,CORPORATION,PA,,,,,,,,2343040,JOHN J MCNALLY,OWNER,UNKNOWN FALLSINGTON PA 0 -0 BUCKS,
MERCER LOCK & ELECTRIC CO.,CORPORATION,PA,,,,PA,1104-06 W ERIE AVE,PHILADELPHIA,,2343041,JAY E NELSON,OWNER,1104-06 W ERIE AVE PHILADELPHIA PA 0 -0 PHILADELPHIA,
MELROSE - VENETIAN,CORPORATION,PA,,,,PA 15126-0 MONTGOMERY,401 CHELTENHAM AVE,MELROSE PARK,,2343042,MELROSE JEWELERS INC,OWNER,401 CHELTENHAM AVE MELROSE PARK PA 15126-0 MONTGOMERY,
MEADOWBROOK FARMS,CORPORATION,PA,,,,,,,,2343043,VICTOR R SCHMIDT JR,OWNER,R D 1 EMMAUS PA 0 -0 LEHIGH,
MELE CONSTRUCTION,CORPORATION,PA,,,,PA,301 ERIE ST,DUNMORE,,2343044,CATHERINE MELE,OWNER,301 ERIE ST DUNMORE PA 0 -0 LACKAWANNA,
MELROY CAFE,CORPORATION,PA,,,,,,,,2343045,HAWLEY M EADIE,OWNER,UNKNOWN WARREN PA 0 -0 WARREN,
MELFRED DELIVERY SERVICE,CORPORATION,PA,,,,,,,,2343046,,,UNKNOWN PHILADELPHIA PA 0 -0 PHILADELPHIA,
MERCER CONVALESCENT HOME,CORPORATION,PA,,,,,,,,2343047,,,UNKNOWN MERCER PA 0 -0 MERCER,
LOCUST KNOLL FARMS,CORPORATION,PA,,,,,,,,2343048,FRANK FITTS,OWNER,R D 1 MEDIA PA 0 -0 DELAWARE,
MEL-ROY TAILORING COMPANY,CORPORATION,PA,,,,,,,,2343049,,,UNKNOWN PHILADELPHIA PA 0 -0 PHILADELPHIA,
MALGOR ELECTRICAL APPLIANCE SERVICE,CORPORATION,PA,,,,,,,,2343050,CHARLES LAIRD GORDON,OWNER,UNKNOWN KENNETT SQUARE PA 0 -0 CHESTER,
MEADOWBROOK FARM AND NURSERY,CORPORATION,PA,,,,PA,1633 WASHINGTON LANE,MEADOWBROOK,,2343051,J LIDDON PENNOCK JR,OWNER,1633 WASHINGTON LANE MEADOWBROOK PA 0 -0 MONTGOMERY,
MCNAMARA MANUFACTURERS AGENCIES,CORPORATION,PA,,,,PA 19106-0 PHILADELPHIA,701 SPRUCE ST,PHILADELPHIA,,2343052,JOHN W MCNAMARA,OWNER,701 SPRUCE ST PHILADELPHIA PA 19106-0 PHILADELPHIA,
LOGAN SHOPS,CORPORATION,PA,,,,PA,29 S MAIN STREET,WILKES-BARRE,,2343053,ROWAN'S INC,OWNER,29 S MAIN STREET WILKES-BARRE PA 0 -0 LUZERNE,
MELE BROS. REALTY,CORPORATION,PA,,,,PA,2826 MOUNT CARMEL AVE,NORTH HILLS,,2343054,ANTHONY J MELE ET AL,OWNER,2826 MOUNT CARMEL AVE NORTH HILLS PA 0 -0 MONTGOMERY,
MERCER COUNTY HOME IMPROVEMENT COMPANY,CORPORATION,PA,,,,,,,,2343055,T N CLAYTON ETAL,OWNER,R D 5 MERCER PA 0 -0 MERCER,
MELTING AND ABRASIVE SUPPLIES CO.,CORPORATION,PA,,,,PA,4012 NEILSON ST,PHILADELPHIA,,2343056,DAVID E CLARK,OWNER,4012 NEILSON ST PHILADELPHIA PA 0 -0 PHILADELPHIA,
MEADOWBROOK FARM,CORPORATION,PA,,,,,,,,2343057,GEORGE TRIVELLINI,OWNER,UNKNOWN PINEVILLE PA 0 -0 BUCKS,
"MELFORD, J H",CORPORATION,PA,,,,,,,,2343058,JOACHIM H MENDELSOHN,OWNER,UNKNOWN NEW HOPE PA 0 -0 BUCKS,
THE LEVENTHAL STORE,CORPORATION,PA,,,,PA,9-11 MARKET STREET,NANTICOKE,,2343059,JOSEPH LEVENTHAL,OWNER,9-11 MARKET STREET NANTICOKE PA 0 -0 LUZERNE,
THE MELTING POT,CORPORATION,PA,,,,PA 19120-0 PHILADELPHIA,354 CLAREMONT ROAD,PHILADELPHIA,,2343060,BARRY PLASKY,OWNER,354 CLAREMONT ROAD PHILADELPHIA PA 19120-0 PHILADELPHIA,
MCNAMARA PRINTING COMPANY,CORPORATION,PA,,,,,,,,2343061,,,UNKNOWN PITTSBURGH PA 0 -0 ALLEGHENY,
MELGAR,CORPORATION,PA,,,,,,,,2343062,WILLIAM WALDMAN,OWNER,UNKNOWN PHILADELPHIA PA 0 -0 PHILADELPHIA,
MEADOW BROOK DAIRY FARM,CORPORATION,PA,,,,,,,,2343063,ELMER A WENZEL,OWNER,R F D 2 WARREN PA 0 -0 WARREN,
LINDY PATENT MEDICINE COMPANY,CORPORATION,PA,,,,PA,18TH & SOUTH STREET,PHILADELPHIA,,2343064,LINDY DRUG COMPANY INC,OWNER,18TH & SOUTH STREET PHILADELPHIA PA 0 -0 PHILADELPHIA,
THE MELTING POT,CORPORATION,PA,,,,,,,,2343065,GLADIEUX FOOD SERVICES INC,OWNER,GREATER PGH INT'L AIRPORT TERMINAL PITTSBURGH PA 15222-0 ALLEGHENY,
"MELGRANE, P",CORPORATION,PA,,,,,,,,2343066,,,UNKNOWN PHILADELPHIA PA 0 -0 PHILADELPHIA,
MERCER COUNTY INSURANCE ASSOCIATES,CORPORATION,PA,,,,PA,3773 E STATE STREET,HICKORY TOWNSHIP,,2343067,WARREN ROTGABER,OWNER,3773 E STATE STREET HICKORY TOWNSHIP PA 0 -0 MERCER,
MADISON MEAT MARKET,CORPORATION,PA,,,,PA,311 W COUNTY LINE RD,WARMINSTER,,2343068,GLENN LONG,OWNER,311 W COUNTY LINE RD WARMINSTER PA 0 -0 BUCKS,
B. J. MCNAMEE ROOFING,CORPORATION,PA,,,,,,,,2343069,JAMES T MCNAMEE,OWNER,UNKNOWN PHILADELPHIA PA 0 -0 PHILADELPHIA,
MELTING POT USA,CORPORATION,PA,,,,PA 19025-0 MONTGOMERY,1580 DERRY DR,DRESHER,,2343070,GRETA GREEN,OWNER,1580 DERRY DR DRESHER PA 19025-0 MONTGOMERY,
LINDY BOOT SHOP,CORPORATION,PA,,,,PA,7004 ELMWOOD AVENUE,PHILADELPHIA,,2343071,SAMUEL RUBIN,OWNER,7004 ELMWOOD AVENUE PHILADELPHIA PA 0 -0 PHILADELPHIA,
MERCER COUNTY ROOFING AND SIDING COMPANY,CORPORATION,PA,,,,,,,,2343072,,,UNKNOWN SHARON PA 0 -0 MERCER,
MCNAMEE & RUSSELL,CORPORATION,PA,,,,,,,,2343073,JACOB F RUSSELL,OWNER,UNKNOWN GLENWILLARD PA 0 -0 ARMSTRONG,
MEADOWBROOK WATER CONDITIONING COMPANY,CORPORATION,PA,,,,PA,1725 MARKLEY ST,NORRISTOWN,,2343074,DONALD G SALTMAN,OWNER,1725 MARKLEY ST NORRISTOWN PA 0 -0 MONTGOMERY,
MELCO CONSTRUCTION & REAL ESTATE,CORPORATION,PA,,,,PA 15217-0 ALLEGHENY,6740 FOREST GLEN RD,PITTSBURGH,,2343075,MEL J FEINBERG,OWNER,6740 FOREST GLEN RD PITTSBURGH PA 15217-0 ALLEGHENY,
THE MELTZ CO.,CORPORATION,PA,,,,PA,2715 TREMONT ST,PHILADELPHIA,,2343076,LAWRENCE GLICKMAN,OWNER,2715 TREMONT ST PHILADELPHIA PA 0 -0 PHILADELPHIA,
MERCER DISPATCH AND REPUBLICAN,CORPORATION,PA,,,,,,,,2343077,,,UNKNOWN MERCER PA 0 -0 MERCER,
MADISON MOTEL,CORPORATION,PA,,,,,,,,2343078,JAMES W GUIZZETTE,OWNER,R D 2 STROUDSBURG PA 0 -0 MONROE,
MELCO PACKING COMPANY,CORPORATION,PA,,,,,,,,2343079,,,UNKNOWN PITTSBURGH PA 0 -0 ALLEGHENY,
LINDLEY BOWLING RECREATION,CORPORATION,PA,,,,PA,5143 N 5TH STREET,PHILADELPHIA,,2343080,HARMON N SACKS,OWNER,5143 N 5TH STREET PHILADELPHIA PA 0 -0 PHILADELPHIA,
MEADOW BROOK TRAVEL TRAILER SALES,CORPORATION,PA,,,,,,,,2343081,LUCILLE C SHIRK,OWNER,R D 1 PARADISE PA 0 -0 LANCASTER,
MCNAMEES TELEVISION AND RADIO SALES AND SERVICE,CORPORATION,PA,,,,,,,,2343082,SAMUEL J MCNAMEE,OWNER,UNKNOWN HAVERTOWN PA 0 -0 DELAWARE,
"MELTZER, HELGA ASSOCIATES",CORPORATION,PA,,,,PA,7321 ELBOW LANE,PHILADELPHIA,,2343083,LAURENCE E MELTZER,OWNER,7321 ELBOW LANE PHILADELPHIA PA 0 -0 PHILADELPHIA,
MERCANTILE LOAN CO,CORPORATION,PA,,,,,,,,2343084,LEWIS C BACHARACH,OWNER,UNKNOWN PHILADELPHIA PA 0 -0 PHILADELPHIA,
MELCO PRODUCTS CO,CORPORATION,PA,,,,,,,,2343085,MALCOLM D ROHN,OWNER,UNKNOWN PITTSBURGH PA 0 -0 ALLEGHENY,
MELROSE WEATHER COMPANY,CORPORATION,PA,,,,,,,,2343086,SAMUEL ROSEMAN,OWNER,UNKNOWN PHILADELPHIA PA 0 -0 PHILADELPHIA,
MADISON PAINTING CO,CORPORATION,PA,,,,,,,,2343087,WALTER R BENNER ET AL,OWNER,UNKNOWN CLIFTON HEIGHTS PA 0 -0 DELAWARE,
MERCANTILE SALES CO,CORPORATION,PA,,,,,,,,2343088,,,UNKNOWN ALLENTOWN PA 0 -0 LEHIGH,
MEADOWBROOK MARKET,CORPORATION,PA,,,,PA,345 W MAIN ST,LEOLA,,2343089,MAHLON S STAUFFER ETAL,OWNER,345 W MAIN ST LEOLA PA 0 -0 LANCASTER,
LIED'S TOBACCO COMPANY,CORPORATION,PA,,,,PA,524 N 9TH STREET,REAR READING,,2343090,HARRY G LIED,OWNER,524 N 9TH STREET REAR READING PA 0 -0 BERKS,
MELROY MANUFACTURING CO,CORPORATION,PA,,,,,,,,2343091,MORRIS MELNICK,OWNER,UNKNOWN PHILADELPHIA PA 0 -0 PHILADELPHIA,
MELCO VARIETY STORE,CORPORATION,PA,,,,,,,,2343092,JOHN A MELL,OWNER,UNKNOWN STONY CREEK MILLS PA 0 -0 BERKS,
MERCANTILE CREDIT COMPANY,CORPORATION,PA,,,,,,,,2343093,,,UNKNOWN POTTSVILLE PA 0 -0 SCHUYLKILL,
MELROY VENETIAN BLINDS,CORPORATION,PA,,,,,,,,2343094,,,UNKNOWN HAZLETON PA 0 -0 LUZERNE,
MEADOWBROOK GOLF COURSE,CORPORATION,PA,,,,,,,,2343095,M REED WELCH JR,OWNER,R D 1 HICKORY PA 0 -0 WASHINGTON,
JAMES M. LONG,CORPORATION,PA,,,,PA,36 N 3RD STREET,READING,,2343096,JAMES M LONG,OWNER,36 N 3RD STREET READING PA 0 -0 BERKS,
MADISON PROPERTIES,CORPORATION,PA,,,,PA 19103-0 PHILADELPHIA,1714 LOCUST ST,PHILADELPHIA,,2343097,MARTIN H SHORE,OWNER,1714 LOCUST ST PHILADELPHIA PA 19103-0 PHILADELPHIA,
MELDAN ASSOCIATES,CORPORATION,PA,,,,PA 15217-0 ALLEGHENY,2633 MURRAY AVE,PITTSBURGH,,2343098,MELVIN ZILKER,OWNER,2633 MURRAY AVE PITTSBURGH PA 15217-0 ALLEGHENY,
MERCANTILE CREDIT SERVICE,CORPORATION,PA,,,,,,,,2343099,,,UNKNOWN PHILADELPHIA PA 0 -0 PHILADELPHIA,
MC NANY LUMBER CO.,CORPORATION,PA,,,,PA 16373-0 VENANGO,MAIN ST,EMLENTON,,2343100,KATHY ANN MCNANY,OWNER,MAIN ST EMLENTON PA 16373-0 VENANGO,
"MELSON, WALTER H",CORPORATION,PA,,,,,,,,2343101,WALTER F MELSON,OWNER,UNKNOWN DREXEL HILL PA 0 -0 DELAWARE,
MERCANTILE DISTRIBUTORS ASSOCIATION,CORPORATION,PA,,,,,,,,2343102,,,UNKNOWN ALLENTOWN PA 0 -0 LEHIGH,
JAMES L MELDON COMPANY,CORPORATION,PA,,,,,,,,2343103,,,UNKNOWN ERIE PA 0 -0 ERIE,
THE MELTING POT,CORPORATION,PA,,,,PA 19124-0 PHILADELPHIA,4287-89 FRANKFORD AVE,PHILADELPHIA,,2343104,THOMAS' MELTING POT INC,OWNER,4287-89 FRANKFORD AVE PHILADELPHIA PA 19124-0 PHILADELPHIA,
LIME RIDGE STORE COMPANY,CORPORATION,PA,,,,,,,,2343105,FRANK BAKER,OWNER,R F D 5 LIME RIDGE BLOOMSBURG PA 0 -0 COLUMBIA,
MCMURTRIE CONSTRUCTION COMPANY,CORPORATION,PA,,,,PA,607 N 3RD ST,BELLWOOD,,2343106,WALTER M STOLER,OWNER,607 N 3RD ST BELLWOOD PA 16617-0 BLAIR,
JAMES L MELDON COMPANY,CORPORATION,PA,,,,,,,,2343107,,,UNKNOWN ERIE PA 0 -0 ERIE,
MERCANTILE EXCHANGE,CORPORATION,PA,,,,,,,,2343108,,,UNKNOWN PHILADELPHIA PA 0 -0 PHILADELPHIA,
MATCO MANAGEMENT CO.,CORPORATION,PA,,,,PA 19038-0 MONTGOMERY,137 S EASTON RD,GLENSIDE,,2343109,RITE PRODUCTS CORPORATION,OWNER,137 S EASTON RD GLENSIDE PA 19038-0 MONTGOMERY,
THE MEADOW BROOK SWIM CLUB,CORPORATION,PA,,,,,,,,2343110,JOSEPH P LOWE,OWNER,R D 1 MOUNT WOLF PA 0 -0 YORK,
LIGHTHOUSE SERVICE STATIONS,CORPORATION,PA,,,,,,,,2343111,JOHN H HOFMANN,OWNER,UNKNOWN HYDE PARK PA 0 -0 WESTMORELAND,
THE MERCANTILE FIRE UNDERWRITERS,CORPORATION,PA,,,,,,,,2343112,,,UNKNOWN HUNTINGDON PA 0 -0 HUNTINGDON,
MADISON SHOE STORE,CORPORATION,PA,,,,,,,,2343113,BENDHEIM'S INC,OWNER,WHITEHALL MALL SHOPPING CENTER NORTH SEVENTH & GRAPE STS FULLERTON PA 0 -0 LEHIGH,
MCNAB & CO.,CORPORATION,PA,,,,,,,,2343114,CHARLES F DOTY,OWNER,208 NATIONAL BANK BLDG MCKEESPORT PA 0 -0 ALLEGHENY,
MATCO BROKERS AND CONSULTANTS,CORPORATION,PA,,,,PA 17043-0 CUMBERLAND,127 S RIVER ST,WORMLEYSBURG,,2343115,DAWSON E FLINCHBAUGH,OWNER,127 S RIVER ST WORMLEYSBURG PA 17043-0 CUMBERLAND,
JAMES L MELDON COMPANY,CORPORATION,PA,,,,,,,,2343116,B C LINSEY,OWNER,UNKNOWN ERIE PA 0 -0 ERIE,
MEADOWBROOK SHOPPING CENTER ASSOCIATES,CORPORATION,PA,,,,PA 19064-0 DELAWARE,257 N STATE ST,SPRINGFIELD,,2343117,DAVID K SALAND ETAL,OWNER,257 N STATE ST SPRINGFIELD PA 19064-0 DELAWARE,
LIBERTY CLOTHES SHOP,CORPORATION,PA,,,,,,,,2343118,WEARWELL CORPORATION,OWNER,THIRD & COURT STREETS WILLIAMSPORT PA 0 -0 LYCOMING,
MERCANTILE BOND & CREDIT CO.,CORPORATION,PA,,,,PA,1528 WALNUT STREET,PHILADELPHIA,,2343119,NEWTON KIESERMAN ETAL,OWNER,1528 WALNUT STREET PHILADELPHIA PA 0 -0 PHILADELPHIA,
MADISON SPORTS WEAR COMPANY,CORPORATION,PA,,,,,,,,2343120,HELEN MISERENDINO ET,OWNER,UNKNOWN PHILADELPHIA PA 0 -0 PHILADELPHIA,
MELDOT'S CHILDREN SHOP,CORPORATION,PA,,,,,,,,2343121,MELVIN M WOLFE,OWNER,UNKNOWN MOUNT CARMEL PA 0 -0 NORTHUMBERLAND,
MATCO,CORPORATION,PA,,,,,,,,2343122,BERNARD MATZ,OWNER,UNKNOWN PHILADELPHIA PA 0 -0 PHILADELPHIA,
MERCANTILE COLLECTIONS,CORPORATION,PA,,,,,,,,2343123,NELSON A RUSSELL,OWNER,UNKNOWN COUDERSPORT PA 0 -0 POTTER,
MATCHMAKERS OF AMERICA,CORPORATION,PA,,,,PA,9601 BUSTLETON AVE,PHILADELPHIA,,2343124,HAROLD A SILVER,OWNER,9601 BUSTLETON AVE PHILADELPHIA PA 0 -0 PHILADELPHIA,
MEADOWBROOK PHARMACY INC,CORPORATION,PA,,,,,,,,2343125,SOUTHAMPTON PHARMACY INC,OWNER,1650 HUNTINGDON PIKE HOLY REDEEMER HOSPITAL OFFICE BLDG MEADOWBROOK PA 0 -0 MONTGOMERY,
EARL P. MCNAIR ENTERPRISES,CORPORATION,PA,,,,PA,1215 E CRAWFORD AVE,CONNELLSVILLE,,2343126,EARL P MCNAIR,OWNER,1215 E CRAWFORD AVE CONNELLSVILLE PA 0 -0 FAYETTE,
MERCANTILE CREDIT ASSOCIATION,CORPORATION,PA,,,,PA,601 W BEAVER AVE,STATE COLLEGE,,2343127,REBECCA J SORRELS,OWNER,601 W BEAVER AVE STATE COLLEGE PA 0 -0 CENTRE,
LIBERTY 4 IN 1 CASH AND CARRY,CORPORATION,PA,,,,PA,23 EAST PETER STREET,UNIONTOWN,,2343128,TONY NIARHOS,OWNER,23 EAST PETER STREET UNIONTOWN PA 0 -0 FAYETTE,
MCNALLY AMUSEMENT COMPANY,CORPORATION,PA,,,,,,,,2343129,,,UNKNOWN PITTSBURGH PA 0 -0 ALLEGHENY,
MADISON STUDIO,CORPORATION,PA,,,,PA,,WOODLYN,,2343130,CATHERINE J MADISON,OWNER,WOODLYN SHOPPING CENTER 1936 MACDADE BLVD WOODLYN PA 0 -0 DELAWARE,
THE MATCHMAKERS,CORPORATION,PA,,,,PA,10 SWAMP RD,NEWTOWN,,2343131,THE MATCHMAKERS INC,OWNER,10 SWAMP RD NEWTOWN PA 18940-0 BUCKS,
MEADOWBROOK MOBILE HOMES,CORPORATION,PA,,,,,,,,2343132,JULIANNA SIMONS,OWNER,BANGOR-RICHMOND RD R D 2 BANGOR PA 0 -0 NORTHAMPTON,
MERCADO'S HAULING COMPANY,CORPORATION,PA,,,,PA 19122-0 PHILADELPHIA,1411 N 4TH STREET,PHILADELPHIA,,2343133,ELMER MERCADO,OWNER,1411 N 4TH STREET PHILADELPHIA PA 19122-0 PHILADELPHIA,
LEVY & SMITH,CORPORATION,PA,,,,PA,107 N 3RD STREET,SUNBURY,,2343134,HERBERT LEVY,OWNER,107 N 3RD STREET SUNBURY PA 0 -0 NORTHUMBERLAND,
MELCO MUSIC COMPANY,CORPORATION,PA,,,,,,,,2343135,WILLIAM J EMBAR,OWNER,UNKNOWN HARRISBURG PA 0 -0 DAUPHIN,
MCNAIR ENTERPRISES,CORPORATION,PA,,,,PA,1215 E CRAWFORD AVE,CONNELLSVILLE,,2343136,MARIAN M MCNAIR,OWNER,1215 E CRAWFORD AVE CONNELLSVILLE PA 0 -0 FAYETTE,
MATCH-UPS,CORPORATION,PA,,,,PA 15102-0 ALLEGHENY,109 PINETTE ST,BETHEL PARK,,2343137,VALERIE LEE DUFF,OWNER,109 PINETTE ST BETHEL PARK PA 15102-0 ALLEGHENY,
MEADOWBROOK MINK FARM,CORPORATION,PA,,,,,,,,2343138,HENRY C LEARY,OWNER,R D 3 LANCASTER PA 0 -0 LANCASTER,
MADISON SQUARE CLEANERS,CORPORATION,PA,,,,PA,2401 MADISON SQUARE,PHILADELPHIA,,2343139,ANNIE F ROBINSON,OWNER,2401 MADISON SQUARE PHILADELPHIA PA 0 -0 PHILADELPHIA,
MERCALDO CEMENT PRODUCTS COMPANY,CORPORATION,PA,,,,,,,,2343140,,,UNKNOWN PHILADELPHIA PA 0 -0 PHILADELPHIA,
LEVY BROKERAGE CO.,CORPORATION,PA,,,,PA,23 SOUTH FRONT STREET,PHILADELPHIA,,2343141,AUGUSTA LEVY,OWNER,23 SOUTH FRONT STREET PHILADELPHIA PA 0 -0 PHILADELPHIA,
MELCO PRODUCTS,CORPORATION,PA,,,,,,,,2343142,ANTHONY M MELI,OWNER,UNKNOWN PHILADELPHIA PA 0 -0 PHILADELPHIA,
MCNALLY & ANDERSON,CORPORATION,PA,,,,,,,,2343143,EDWIN E ANDERSON,OWNER,UNKNOWN LATROBE PA 0 -0 WESTMORELAND,
MATCH POINT PRO SHOP,CORPORATION,PA,,,,PA 17013-0 CUMBERLAND,1700 HARRISBURG PIKE,CARLISLE,,2343144,PETER M VILLANO,OWNER,1700 HARRISBURG PIKE CARLISLE PA 17013-0 CUMBERLAND,
MEADOWBROOK LIFT TRUCK,CORPORATION,PA,,,,PA 15668-0 WESTMORELAND,3381 MAYER DR,MURRYSVILLE,,2343145,SAMUEL DEVEY JR,OWNER,3381 MAYER DR MURRYSVILLE PA 15668-0 WESTMORELAND,
THE MELTING POT,CORPORATION,PA,,,,PA,R D 3 ROUTE 118 LAKE,TOWNSHIP,,2343146,SIMON BORYS,OWNER,R D 3 ROUTE 118 LAKE TOWNSHIP PA 0 -0 LUZERNE,
THE MERCANTILE,CORPORATION,PA,,,,PA 17060-0 HUNTINGDON,STAR ROUTE BOX 632,MILL CREEK,,2343147,KATHLEEN CHASE,OWNER,STAR ROUTE BOX 632 MILL CREEK PA 17060-0 HUNTINGDON,
MADISON SWEET SHOPPE,CORPORATION,PA,,,,,,,,2343148,,,UNKNOWN ALLENTOWN PA 0 -0 LEHIGH,
MELCO RENT A CAR DIVISION,CORPORATION,PA,,,,PA,1724 N BROAD ST,PHILADELPHIA,,2343149,METROPOLITAN LEASING COMPANY,OWNER,1724 N BROAD ST PHILADELPHIA PA 0 -0 PHILADELPHIA,
MERCANTILE AUDITING COMPANY,CORPORATION,PA,,,,,,,,2343150,PAUL A DEVINE,OWNER,UNKNOWN ORELAND PA 0 -0 MONTGOMERY,
MEADOWLANDS NURSERY,CORPORATION,PA,,,,,,,,2343151,WILLIAM C YOUNT,OWNER,ARABIAN LANE WASHINGTON PA 0 -0 WASHINGTON,
MCMURRAY INSURANCE AGENCY,CORPORATION,PA,,,,PA,114 JOYCE DR,CANONSBURG,,2343152,DOROTHY WASIELESKI,OWNER,114 JOYCE DR CANONSBURG PA 0 -0 WASHINGTON,
MELTING POT TRADING CO.,CORPORATION,PA,,,,PA,215 S BROAD ST,PHILADELPHIA,,2343153,JONATHAN R BLACK ETAL,OWNER,215 S BROAD ST PHILADELPHIA PA 0 -0 PHILADELPHIA,
MATCH MATE,CORPORATION,PA,,,,PA 19143-0 PHILADELPHIA,5321 CATHERINE ST,PHILADELPHIA,,2343154,LILLIAN MORRIS,OWNER,5321 CATHERINE ST PHILADELPHIA PA 19143-0 PHILADELPHIA,
"NAOMI LAKE BOAT, BATHING AND AMUSEMENT COMPANY",CORPORATION,PA,,,,,,,,2343155,THOMAS T MILLER,OWNER,UNKNOWN POCONO PINES PA 0 -0 MONROE,
MADISON TAVERN,CORPORATION,PA,,,,,,,,2343156,,,UNKNOWN CHESTER PA 0 -0 DELAWARE,
MEADOWCREST AGENCY,CORPORATION,PA,,,,,,,,2343157,JAMES F HOSMER,OWNER,UNKNOWN PITTSBURGH PA 0 -0 ALLEGHENY,
MATCH & CO.,CORPORATION,PA,,,,PA 17540-0 LANCASTER,301 BRETHREN CHURCH RD,LEOLA,,2343158,DAVID H WARFEL,OWNER,301 BRETHREN CHURCH RD LEOLA PA 17540-0 LANCASTER,
MERCADO DE MEXICANO,CORPORATION,PA,,,,PA,13 INTERNATIONAL VILLAGE,GETTYSBURG,,2343159,TIMELESS TOWNS OF THE AMERICAS INC,OWNER,13 INTERNATIONAL VILLAGE GETTYSBURG PA 17325-0 ADAMS,
MCMURRAY NURSERY,CORPORATION,PA,,,,PA,211 THOMPSONVILLE RD,MCMURRAY,,2343160,PAULINE J MACDONALD,OWNER,211 THOMPSONVILLE RD MCMURRAY PA 0 -0 WASHINGTON,
MELDA DECORATORS,CORPORATION,PA,,,,PA,GATEWAY SHOPPING CENTER ROUTE 202 S AND E SWEDESFORD RD,TWP TREDYFFRIN,,2343161,MELDA INC,OWNER,GATEWAY SHOPPING CENTER ROUTE 202 S AND E SWEDESFORD RD TWP TREDYFFRIN PA 0 -0 CHESTER,
MADISON TEA ROOM,CORPORATION,PA,,,,,,,,2343162,,,UNKNOWN LEBANON PA 0 -0 LEBANON,
MEADOW LANE FARM,CORPORATION,PA,,,,PA,150 BROWNFIELD LANE,UNIONTOWN,,2343163,RUSSELL B CULLEN,OWNER,150 BROWNFIELD LANE UNIONTOWN PA 0 -0 FAYETTE,
MATCH-A-DATE,CORPORATION,PA,,,,PA,3153 MAPLE RD,HUNTINGDON VALLEY,,2343164,JOHN J GALLAGHER,OWNER,3153 MAPLE RD HUNTINGDON VALLEY PA 0 -0 MONTGOMERY,
MCMURRAY PHARMACY,CORPORATION,PA,,,,PA,550 N WASHINGTON RD,MCMURRAY,,2343165,ROBERT MELNYK,OWNER,550 N WASHINGTON RD MCMURRAY PA 0 -0 WASHINGTON,
MELTON-MOWBRAY COMPANY,CORPORATION,PA,,,,,,,,2343166,,,UNKNOWN PHILADELPHIA PA 0 -0 PHILADELPHIA,
MERCADO PAUL D. ASSOCIATES,CORPORATION,PA,,,,PA 19082-0 DELAWARE,414 SANSOM STREET,UPPER DARBY,,2343167,PAUL D MERCADO ETAL,OWNER,414 SANSOM STREET UPPER DARBY PA 19082-0 DELAWARE,
MADISON TOWNSHIP HUNT CLUB,CORPORATION,PA,,,,,,,,2343168,JOHN L MCDOWELL JR,OWNER,R D 1 BLOOMSBURG PA 0 -0 COLUMBIA,
MEADOWLANDS INN LIMITED PARTNERSHIP,CORPORATION,PA,,,,PA,3203 MARYLAND AVE,NORTH VERSAILLES,,2343169,PLAZA DEVELOPMENT CORPORATION,OWNER,3203 MARYLAND AVE NORTH VERSAILLES PA 0 -0 ALLEGHENY,
MCMURRAY INVESTMENT CO.,CORPORATION,PA,,,,PA,203 ROBINHOOD LANE,MCMURRAY,15317,2343170,WILLIAM E HOLT,OWNER,203 ROBINHOOD LANE MCMURRAY PA 15317 WASHINGTON,
MATANAH COMPANY,CORPORATION,PA,,,,PA,30 PINE ST,BLOOMSBURG,,2343171,MORDECAI TREBLOW,OWNER,30 PINE ST BLOOMSBURG PA 0 -0 COLUMBIA,
MERCANITLE BANKING COMPANY,CORPORATION,PA,,,,,,,,2343172,NEWTON KIESERMAN,OWNER,8232 FAIRVIEW ROAD ELKINS PARK PA 0 -0 MONTGOMERY,
MCMURRAY LEASING,CORPORATION,PA,,,,PA 15317-0 WASHINGTON,740 N WASHINGTON RD,MCMURRAY,,2343173,MCMURRAY LEASING INC,OWNER,740 N WASHINGTON RD MCMURRAY PA 15317-0 WASHINGTON,
MADISON WASH-A-MATIC COMPANY,CORPORATION,PA,,,,PA,1137 MADISON ST,CHESTER,,2343174,FRANK H KERR,OWNER,1137 MADISON ST CHESTER PA 0 -0 DELAWARE,
"MELTZER, C H & BRO",CORPORATION,PA,,,,,,,,2343175,DANIEL MELTZER ETAL,OWNER,UNKNOWN PHILADELPHIA PA 0 -0 PHILADELPHIA,
MERAS TV & APPLIANCES,CORPORATION,PA,,,,PA,950 MACDADE BLVD,COLLINGDALE,,2343176,W PHILIP DUCKWORTH,OWNER,950 MACDADE BLVD COLLINGDALE PA 0 -0 DELAWARE,
MEADOWLANDS FARM,CORPORATION,PA,,,,,,,,2343177,,,UNKNOWN PROSPECTVILLE PA 0 -0 MONTGOMERY,
MODERN ELECTRIC FIXTURE CO.,CORPORATION,PA,,,,PA,46 N 11TH STREET,PHILADELPHIA,,2343178,WILLIAM FREEDMAN,OWNER,46 N 11TH STREET PHILADELPHIA PA 0 -0 PHILADELPHIA,
MELDON ACCOUNTANTS,CORPORATION,PA,,,,,,,,2343179,JAMES L MELDON SR,OWNER,UNKNOWN ERIE PA 0 -0 ERIE,
"MELTZER, I & SON",CORPORATION,PA,,,,,,,,2343180,SONIA MELTZER,OWNER,UNKNOWN PHILADELPHIA PA 0 -0 PHILADELPHIA,
MATAMORIS MACHINERY & SUPPLY COMPANY,CORPORATION,PA,,,,,,,,2343181,SAMUEL H ROLLASON,OWNER,UNKNOWN HALIFAX PA 0 -0 DAUPHIN,
MERBEN-MAYFAIR ASSOCIATES,CORPORATION,PA,,,,,,,,2343182,MERTON SHAPIRO ETAL,OWNER,UNKNOWN PHILADELPHIA PA 0 -0 PHILADELPHIA,
MAD-LEY CONSTRUCTION,CORPORATION,PA,,,,PA 19104-0 PHILADELPHIA,3432 SANSOM ST,PHILADELPHIA,,2343183,TERENCE CROSLEY,OWNER,3432 SANSOM ST PHILADELPHIA PA 19104-0 PHILADELPHIA,
MELROSE RECORD AGENCY,CORPORATION,PA,,,,PA,8538 WILLIAMS AVE,PHILADELPHIA,,2343184,HERMAN KAPLAN,OWNER,8538 WILLIAMS AVE PHILADELPHIA PA 0 -0 PHILADELPHIA,
MEADOWLANDS BODY AND FRAME SHOP,CORPORATION,PA,,,,PA 15347-0 WASHINGTON,355 EWING ST,MEADOW LANDS,,2343185,THOMAS J ZAWATSKI,OWNER,355 EWING ST MEADOW LANDS PA 15347-0 WASHINGTON,
MODERN FIXTURE COMPANY,CORPORATION,PA,,,,PA,1423 GERMANTOWN AVENUE,PHILADELPHIA,,2343186,SAMUEL COBRIN,OWNER,1423 GERMANTOWN AVENUE PHILADELPHIA PA 0 -0 PHILADELPHIA,
MCMURRAY PARTNERSHIP,CORPORATION,PA,,,,PA 15901-0 CAMBRIA,131 MARKET ST,JOHNSTOWN,,2343187,CROWN AMERICAN CORPORATION,OWNER,131 MARKET ST JOHNSTOWN PA 15901-0 CAMBRIA,
MERBROOK PROPERTIES,CORPORATION,PA,,,,PA,100 N WASHINGTON ROAD,MCMURRAY,,2343188,CONSTRUCTION MANAGEMENT CORP,OWNER,100 N WASHINGTON ROAD MCMURRAY PA 0 -0 WASHINGTON,
MELROSE RESTAURANT AND SODA FOUNTAIN,CORPORATION,PA,,,,,,,,2343189,WILLIAM G STOLIS,OWNER,SUN VILLAGE CHESTER PA 0 -0 DELAWARE,
MEADOWLAND,CORPORATION,PA,,,,,,,,2343190,WILLIAM A GOLDMAN,OWNER,UNKNOWN PHILADELPHIA PA 0 -0 PHILADELPHIA,
MCMURRAY REALTY,CORPORATION,PA,,,,PA,518 N WASHINGTON RD,MCMURRAY,,2343191,REINHART J KREBS,OWNER,518 N WASHINGTON RD MCMURRAY PA 0 -0 WASHINGTON,
MELROSE SALES COMPANY,CORPORATION,PA,,,,,,,,2343192,THOMAS A CHMIELEWSKI,OWNER,UNKNOWN PHILADELPHIA PA 0 -0 PHILADELPHIA,
MATAMORAS BEVERAGE,CORPORATION,PA,,,,PA,107 AVENUE C,MATAMORAS,,2343193,GEORGE O CAMPBELL,OWNER,107 AVENUE C MATAMORAS PA 0 -0,
MADONNA'S AUTO BODY,CORPORATION,PA,,,,PA,7300 MILNER ST,PHILADELPHIA,,2343194,JEFFERY R MADONNA,OWNER,7300 MILNER ST PHILADELPHIA PA 0 -0 PHILADELPHIA,
THE MODERN HOME SUPPLY COMPANY,CORPORATION,PA,,,,PA,643 COURT 37TH STREET,PHILADELPHIA,,2343195,SAMUEL COOKLYN,OWNER,643 COURT 37TH STREET PHILADELPHIA PA 0 -0 PHILADELPHIA,
MERO & MANNI,CORPORATION,PA,,,,,,,,2343196,MICHAEL MERCATANTE,OWNER,UNKNOWN LEVITTOWN PA 0 -0 BUCKS,
MELDON MFG CO,CORPORATION,PA,,,,,,,,2343197,SOL SHAPIRO ETAL,OWNER,UNKNOWN PHILADELPHIA PA 0 -0 PHILADELPHIA,
MODERN IDEAL COMPANY,CORPORATION,PA,,,,PA,221 BRUSHTON AVE,PITTSBURGH,,2343198,A W VAUGH-SECTY ETAL,OWNER,221 BRUSHTON AVE PITTSBURGH PA 0 -0 ALLEGHENY,
MADONNA INGENUITIES OF AMERICA,CORPORATION,PA,,,,,,,,2343199,,,UNKNOWN PHILADELPHIA PA 0 -0 PHILADELPHIA,
"MELDRUM, ALEXANDER & SONS",CORPORATION,PA,,,,,,,,2343200,EARLE A MELDRUM,OWNER,UNKNOWN PHILADELPHIA PA 0 -0 PHILADELPHIA,
MERO AND JIM'S DRIVE IN,CORPORATION,PA,,,,,,,,2343201,LOUIS MERCADANTE JR,OWNER,R F D 2 SEWICKLEY PA 0 -0 ARMSTRONG,
MATALON FOOD PRODUCTS COMPANY,CORPORATION,PA,,,,,,,,2343202,,,GERMANTOWN PHILADELPHIA PA 0 -0 PHILADELPHIA,
MELROSE SHOPPING CENTER,CORPORATION,PA,,,,,,,,2343203,RALPH L WARREN ETAL,OWNER,CHELTENHAM AVE AT FRONT ST CHELTENHAM PA 0 -0 MONTGOMERY,
MEDICAL ANSWERING SERVICE,CORPORATION,PA,,,,,,,,2343205,MICHAEL F AVALLONE D O ETAL,OWNER,1519 FOULKROD ST 2ND FLOOR PHILADELPHIA PA 0 -0 PHILADELPHIA,
MATADOR INN,CORPORATION,PA,,,,PA 18103-0 NORTHAMPTON,117 WASHINGTON BLVD,BANGOR,,2343206,JANICE G HOWER,OWNER,117 WASHINGTON BLVD BANGOR PA 18103-0 NORTHAMPTON,
THE MADONNA SHOP,CORPORATION,PA,,,,,,,,2343207,SAMUEL J MCLOOTA,OWNER,UNKNOWN ALTOONA PA 0 -0 BLAIR,
MODERN MEAT MARKETS COMPANY,CORPORATION,PA,,,,PA,932 SOUTH 55TH STREETS,PHILADELPHIA,,2343208,FRANCIS S WILLIAMS,OWNER,932 SOUTH 55TH STREETS PHILADELPHIA PA 0 -0 PHILADELPHIA,
MELROSE SPECIALTY PRODUCTS,CORPORATION,PA,,,,PA,7301 OLD YORK ROAD,CHELTENHAM,,2343209,LEWIS B UDIS ETAL,OWNER,7301 OLD YORK ROAD CHELTENHAM PA 0 -0 MONTGOMERY,
THE MEADOWS,CORPORATION,PA,,,,,,,,2343210,JAMES GREENE,OWNER,UNKNOWN PERRYOPOLIS PA 0 -0 FAYETTE,
THE MATADOR,CORPORATION,PA,,,,PA,1044 MAIN ST,DICKSON CITY,,2343211,MARGARET CHMIL,OWNER,1044 MAIN ST DICKSON CITY PA 0 -0 LACKAWANNA,
MEDICAL ARTS BUILDING,CORPORATION,PA,,,,PA,3700 5TH AVE,PITTSBURGH,,2343212,ERNEST A STERN,OWNER,3700 5TH AVE PITTSBURGH PA 0 -0 ALLEGHENY,
MERBANK & COMPANY,CORPORATION,PA,,,,,,,,2343213,JOHN D BAINER,OWNER,UNKNOWN MEADVILLE PA 0 -0 CRAWFORD,
MELROSE SPECIALTY COMPANY,CORPORATION,PA,,,,,,,,2343214,,,UNKNOWN MELROSE PARK PA 0 -0 MONTGOMERY,
M A R I E 'S,CORPORATION,PA,,,,PA,1380 W COLUMBIA AVENUE,PHILADELPHIA,,2343215,MARIE K SCHUBERT,OWNER,1380 W COLUMBIA AVENUE PHILADELPHIA PA 0 -0 PHILADELPHIA,
MADRAS ENTERPRISES,CORPORATION,PA,,,,PA 19403-0 MONTGOMERY,3005 TAFT RD,NORRISTOWN,,2343216,SUNDAR VISWANATHAN,OWNER,3005 TAFT RD NORRISTOWN PA 19403-0 MONTGOMERY,
MELROSE SPORTSWEAR,CORPORATION,PA,,,,,,,,2343217,DAVID CHERRY,OWNER,UNKNOWN PHILADELPHIA PA 0 -0 PHILADELPHIA,
MAT TAXI,CORPORATION,PA,,,,PA 17057-0 DAUPHIN,117 E MAIN ST,MIDDLETOWN,,2343218,MIDDLETOWN TAXI COMPANY,OWNER,117 E MAIN ST MIDDLETOWN PA 17057-0 DAUPHIN,
MEADOWOOD COMPANY,CORPORATION,PA,,,,PA,759 WORTHINGTON DRIVE,WARMINSTER,,2343219,JOSEPH W JOLLY JR,OWNER,759 WORTHINGTON DRIVE WARMINSTER PA 0 -0 BUCKS,
GEORGE MEHRER & SON,CORPORATION,PA,,,,,,,,2343220,GEORGE MEHRER JR,OWNER,UNKNOWN PHILADELPHIA PA 0 -0 PHILADELPHIA,
MERBIN SPECIALTIES CO,CORPORATION,PA,,,,,,,,2343221,CHAS P DUBIN,OWNER,UNKNOWN PHILADELPHIA PA 0 -0 PHILADELPHIA,
MELROSE SUPPLY COMPANY,CORPORATION,PA,,,,,,,,2343222,,,UNKNOWN BRIDGEVILLE PA 0 -0 ALLEGHENY,
B. G. MELLINGER & SON,CORPORATION,PA,,,,,,,,2343223,J PARKS MELLINGER,OWNER,RFD 1 WILLOW STREET PA 0 -0 LANCASTER,
MELROSE TAVERN,CORPORATION,PA,,,,,,,,2343224,RONALD P RUSSETTO,OWNER,UNKNOWN PITTSBURGH PA 0 -0 ALLEGHENY,
MATCH-A-TONE,CORPORATION,PA,,,,PA,113 E 7TH ST,CHESTER,,2343225,DONLAR INC,OWNER,113 E 7TH ST CHESTER PA 0 -0 DELAWARE,
MEADOWOOD ASSOCIATES,CORPORATION,PA,,,,PA,1352 EASTON RD,WARRINGTON,,2343226,JOSEPH BARNESS & SON INC,OWNER,1352 EASTON RD WARRINGTON PA 0 -0 BUCKS,
MEHRING AND GUNNET,CORPORATION,PA,,,,,,,,2343227,WILLIAM H GUNNET,OWNER,R D 5 HANOVER PA 0 -0 YORK,
MERBROOK PROPERTIES,CORPORATION,PA,,,,PA,100 N WASHINGTON ROAD,MCMURRAY,,2343228,LOUIS SCARIOT ETAL,OWNER,100 N WASHINGTON ROAD MCMURRAY PA 0 -0 WASHINGTON,
THE MOORE HOTEL,CORPORATION,PA,,,,,,,,2343229,JOS H STERN,OWNER,PHILADELPHIA & EIGHTH STREETS INDIANA PA 0 -0 INDIANA,
MODEL RAILROAD NEWSLETTER,CORPORATION,PA,,,,PA,430 ANDOVER RD,FAIRLESS HILLS,,2343230,ROBERT N STOVER,OWNER,430 ANDOVER RD FAIRLESS HILLS PA 0 -0 BUCKS,
MELROSE THEATRE,CORPORATION,PA,,,,PA,1708 BROWNSVILLE RD,PITTSBURGH,,2343231,MARTIN WARREN ETAL,OWNER,1708 BROWNSVILLE RD PITTSBURGH PA 0 -0 ALLEGHENY,
MEHRLIN FABRICS,CORPORATION,PA,,,,,,,,2343232,ALBERT AARON LINDOW SR,OWNER,UNKNOWN PITTSBURGH PA 0 -0 ALLEGHENY,
THE MEADOWS THREE,CORPORATION,PA,,,,PA,90 BLACK MAT RD,DOUGLASSVILLE,,2343233,ERNEST R BASILE ETAL,OWNER,90 BLACK MAT RD DOUGLASSVILLE PA 0 -0 BERKS,
LONDON BROS. & OSTERNECK & SONS,CORPORATION,PA,,,,PA,43 N SECOND ST,PHILADELPHIA,,2343234,SAMUEL LONDON ET AL,OWNER,43 N SECOND ST PHILADELPHIA PA 0 -0 PHILADELPHIA,
MODEL RAILROAD SPECIALISTS,CORPORATION,PA,,,,,,,,2343235,GERALD S SEIDEL,OWNER,UNKNOWN NORRISTOWN PA 0 -0 MONTGOMERY,
THE MERBUCS INVESTMENT CLUB,CORPORATION,PA,,,,PA,2613 PITT AVE,EDGELY,,2343236,RENE E FRETZ,OWNER,2613 PITT AVE EDGELY PA 0 -0 BUCKS,
MELROSE RECORD AGENCY,CORPORATION,PA,,,,,,,,2343237,AMERICAN RECORD GUILD INC,OWNER,BUDMAN BUILDING SUITE 206 MELROSE PARK PA 0 -0 MONTGOMERY,
MADRAY'S,CORPORATION,PA,,,,,,,,2343238,EDWARD GUSSMAN,OWNER,UNKNOWN WHITEMARSH PA 0 -0 MONTGOMERY,
KENNETH R MEIER ENTERPRISES,CORPORATION,PA,,,,,,,,2343239,KENNETH R MEIER,OWNER,UNKNOWN BEAVER PA 0 -0 BEAVER,
MODERN DANCING STUDIO,CORPORATION,PA,,,,PA,52ND AND MARKET STREETS,PHILADELPHIA,,2343240,JOHN CHILDS GRASSO,OWNER,52ND AND MARKET STREETS PHILADELPHIA PA 0 -0 PHILADELPHIA,
MELROSE SALES,CORPORATION,PA,,,,,,,,2343241,JACK GLICKSTEIN,OWNER,914 STRATFORD AVE MELROSE PARK PA 0 -0 MONTGOMERY,
MODEL RAILROAD SPECIALISTS,CORPORATION,PA,,,,,,,,2343242,GERALD S SEIDEL,OWNER,UNKNOWN NORRISTOWN PA 0 -0 MONTGOMERY,
LOCUST INN,CORPORATION,PA,,,,PA,631 LOCUST ST,COLUMBIA,,2343243,MARY F TRAGESSER,OWNER,631 LOCUST ST COLUMBIA PA 0 -0 LANCASTER,
MEADOWS MUSIC COMPANY,CORPORATION,PA,,,,,,,,2343244,OLIVE JANE MILLER,OWNER,UNKNOWN PHILADELPHIA PA 0 -0 PHILADELPHIA,
MEIER STAMPING WORKS,CORPORATION,PA,,,,PA,208 SPRING ST,BUTLER,,2343245,PAUL R MEIER,OWNER,208 SPRING ST BUTLER PA 0 -0 BUTLER,
MELROSE SCOTCH EXPORTS & IMPORTS CO.,CORPORATION,PA,,,,PA,123 S BROAD ST,PHILADELPHIA,,2343246,SCHENLEY DISTILLERS INC,OWNER,123 S BROAD ST PHILADELPHIA PA 0 -0 PHILADELPHIA,
THE LOCUST PRESS,CORPORATION,PA,,,,PA,829 LOCUST ST,PHILADELPHIA,,2343247,MORRIS B SKAROFF,OWNER,829 LOCUST ST PHILADELPHIA PA 0 -0 PHILADELPHIA,
MODEL RESTAURANT,CORPORATION,PA,,,,,,,,2343248,,,UNKNOWN PHILADELPHIA PA 0 -0 PHILADELPHIA,
MERCADANTE CONSTRUCTION COMPANY,CORPORATION,PA,,,,,,,,2343249,THOMAS J MERCADANTE,OWNER,UNKNOWN CHESTER PA 0 -0 DELAWARE,
MEADVILLE CHINA AND GLASSWARE,CORPORATION,PA,,,,,,,,2343250,MICHAEL MATTEO,OWNER,UNKNOWN MEADVILLE PA 0 -0 CRAWFORD,
MEINEKE DISCOUNT MUFFLERS,CORPORATION,PA,,,,PA 15226-0 ALLEGHENY,1100 WEST LIBERTY AVE,PITTSBURGH,,2343251,ERWIN WALL,OWNER,1100 WEST LIBERTY AVE PITTSBURGH PA 15226-0 ALLEGHENY,
MADRAY'S DELICACIES,CORPORATION,PA,,,,,,,,2343252,WADSWORTH DELICATESSEN INC,OWNER,UNKNOWN DREXEL HILL PA 0 -0 DELAWARE,
MELROSE SPECIALTIES COMPANY,CORPORATION,PA,,,,,,,,2343253,EDWARD S SONDHEIM,OWNER,UNKNOWN PHILADELPHIA PA 0 -0 PHILADELPHIA,
MARIAN BILLIARD TABLE COMPANY,CORPORATION,PA,,,,PA,440 WOOD STREET,PITTSBURGH,,2343254,ALBERT MARIANO,OWNER,440 WOOD STREET PITTSBURGH PA 0 -0 ALLEGHENY,
LOGAN COLLECTION AGENCY,CORPORATION,PA,,,,PA,2027 CENTER AVE,PITTSBURGH,,2343255,ROBERT H LOGAN,OWNER,2027 CENTER AVE PITTSBURGH PA 0 -0 ALLEGHENY,
MEO & COMPANY,CORPORATION,PA,,,,,,,,2343256,ARMAND MEO,OWNER,UNKNOWN PHILADELPHIA PA 0 -0 PHILADELPHIA,
MODEL RUG COMPANY,CORPORATION,PA,,,,PA 17042-0 LEBANON,127 N 8TH ST,LEBANON,,2343257,SIMON YESPY,OWNER,127 N 8TH ST LEBANON PA 17042-0 LEBANON,
MELROSE SPECIALTY SUPPLY CO,CORPORATION,PA,,,,,,,,2343258,THOMAS CARDELUCCI,OWNER,UNKNOWN PHILADELPHIA PA 0 -0 PHILADELPHIA,
MER-CHEM MERCER CHEMICAL COMPANY,CORPORATION,PA,,,,,,,,2343259,MICHAEL J MAGNER,OWNER,UNKNOWN MERCER PA 0 -0 MERCER,
MARIAN REALTY COMPANY,CORPORATION,PA,,,,PA,2359 EAST ALLEGHENY AVENUE,PHILADELPHIA,,2343260,MARIAN PAJEWSKI,OWNER,2359 EAST ALLEGHENY AVENUE PHILADELPHIA PA 0 -0 PHILADELPHIA,
MODEL SAND CO,CORPORATION,PA,,,,,,,,2343261,,,UNKNOWN PITTSBURGH PA 0 -0 ALLEGHENY,
LOGAN OAKLAND COMPANY,CORPORATION,PA,,,,PA,4718-22 N BROAD ST,PHILADELPHIA,,2343262,JOSEPH FIDELIBUS,OWNER,4718-22 N BROAD ST PHILADELPHIA PA 0 -0 PHILADELPHIA,
MEMORY LABORATORY,CORPORATION,PA,,,,,,,,2343263,DEAN E VAUGHN,OWNER,R D 2 HILLTOP MANOR CARLISLE PA 0 -0 CUMBERLAND,
MEIL ELECTRIC MIXTURE MANUFACTURING COMPANY,CORPORATION,PA,,,,,,,,2343264,,,UNKNOWN PHILADELPHIA PA 0 -0 PHILADELPHIA,
MADRAY'S DELICATESSEN AND RESTAURANT,CORPORATION,PA,,,,,,,,2343265,ANSOMO INC,OWNER,UNKNOWN HAVERTOWN PA 0 -0 DELAWARE,
MODEL SCRAP IRON & METALS COMPANY,CORPORATION,PA,,,,PA,3068-72 N JANNEY ST,PHILADELPHIA,,2343266,FRANCIS P CICCITTO,OWNER,3068-72 N JANNEY ST PHILADELPHIA PA 0 -0 PHILADELPHIA,
MER-MIKE MARKETING ASSOCIATES,CORPORATION,PA,,,,PA,1029 SPRING GARDEN STREET,PHILADELPHIA,,2343267,PHILIP SPIVAK,OWNER,1029 SPRING GARDEN STREET PHILADELPHIA PA 0 -0 PHILADELPHIA,
MEMORY LANE APARTMENTS,CORPORATION,PA,,,,PA 17402-0 YORK,1350-60 MEMORY LANE,EXTENDED YORK,,2343268,PAUL F GROTHE ETAL,OWNER,1350-60 MEMORY LANE EXTENDED YORK PA 17402-0 YORK,
THE MARIANNE TOY SHOP,CORPORATION,PA,,,,PA,220 LOCUST STREET,HARRISBURG,,2343269,MARIAN B C WAT,OWNER,220 LOCUST STREET HARRISBURG PA 0 -0 DAUPHIN,
"MEILUTA, J. C. & CO.",CORPORATION,PA,,,,PA,HILLCREST AVE & EAGLE RD,HAVERTOWN,,2343270,J C MEILUTA,OWNER,HILLCREST AVE & EAGLE RD HAVERTOWN PA 0 -0 DELAWARE,
LINCOLN MARKET,CORPORATION,PA,,,,,,,,2343271,SAMUEL MARRARA,OWNER,UNKNOWN DU BOIS PA 0 -0 CLEARFIELD,
MEMORY LANE FURNITURE,CORPORATION,PA,,,,PA,1401 STATE ST,ERIE,,2343272,MARY LOU FAULKNER,OWNER,1401 STATE ST ERIE PA 16501-0 ERIE,
MODERN CIGAR COMPANY,CORPORATION,PA,,,,PA,10TH & FILBERT STREET,PHILADELPHIA,,2343273,HARRY GANDLEMAN,OWNER,10TH & FILBERT STREET PHILADELPHIA PA 0 -0 PHILADELPHIA,
THE MODEL SERVICE,CORPORATION,PA,,,,,,,,2343274,,,UNKNOWN WEST HAZLETON PA 0 -0 LUZERNE,
MERAL CONSTRUCTION CO,CORPORATION,PA,,,,,,,,2343275,MERILLE J JONES,OWNER,UNKNOWN GREENOCK PA 0 -0 ALLEGHENY,
MEINE FLORAL COMPANY,CORPORATION,PA,,,,,,,,2343276,KENNETH ROBERT MEINE,OWNER,R D 9 NEW CASTLE PA 0 -0 LAWRENCE,
MEMORY LANE,CORPORATION,PA,,,,,,,,2343278,,,UNKNOWN WILKINSBURG PA 0 -0 ALLEGHENY,
MODEL SERVICE CLEANERS,CORPORATION,PA,,,,,,,,2343279,SAM PROVENZANO,OWNER,UNKNOWN PITTSBURGH PA 0 -0 ALLEGHENY,
MEO I & CO,CORPORATION,PA,,,,,,,,2343280,,,UNKNOWN PHILADELPHIA PA 0 -0 PHILADELPHIA,
MEMORY LANE ANTIQUES,CORPORATION,PA,,,,PA,246 W UPSAL ST,PHILADELPHIA,,2343281,MIRIAM OCKMAN,OWNER,246 W UPSAL ST PHILADELPHIA PA 0 -0 PHILADELPHIA,
MODEL MART HOBBY EXCHANGE,CORPORATION,PA,,,,,,,,2343282,,,UNKNOWN PHILADELPHIA PA 0 -0 PHILADELPHIA,
MODERN GARAGE,CORPORATION,PA,,,,PA,1927 ATLANTIC STREET,PHILADELPHIA,,2343283,JACOB MARCUS,OWNER,1927 ATLANTIC STREET PHILADELPHIA PA 0 -0 PHILADELPHIA,
MEMORY LANE,CORPORATION,PA,,,,PA 15601-0 WESTMORELAND,23 W 2ND ST,GREENSBURG,,2343284,JAMES E ERRETT,OWNER,23 W 2ND ST GREENSBURG PA 15601-0 WESTMORELAND,
LINCOLN MARKET,CORPORATION,PA,,,,,,,,2343285,,,UNKNOWN MEADVILLE PA 0 -0 CRAWFORD,
MER-EL,CORPORATION,PA,,,,,,,,2343286,MERRILL Y LANDIS,OWNER,UNKNOWN TELFORD PA 0 -0 MONTGOMERY,
THE MADRID RESTAURANT,CORPORATION,PA,,,,,,,,2343287,,,UNKNOWN GALLITZIN PA 0 -0 CAMBRIA,
THE MODERN GARAGE,CORPORATION,PA,,,,PA,101 WEST GREENWICH STREET,READING,,2343289,WAYNE L SHEARER M D,OWNER,101 WEST GREENWICH STREET READING PA 0 -0 BERKS,
MEMORY LANE FIRESTONE TIRE CENTER,CORPORATION,PA,,,,PA 17402-0 YORK,MEMORY LANE 150 MEMORY LANE,YORK,,2343290,MEMORY LANE ENTERPRISES INC,OWNER,MEMORY LANE 150 MEMORY LANE YORK PA 17402-0 YORK,
MER-WOOD AGENCY,CORPORATION,PA,,,,PA 17201-0 FRANKLIN,935 S MAIN STREET,CHAMBERSBURG,,2343291,MERLE A FREY,OWNER,935 S MAIN STREET CHAMBERSBURG PA 17201-0 FRANKLIN,
LINCOLN MARKET,CORPORATION,PA,,,,,,,,2343292,,,UNKNOWN CHESTER PA 0 -0 DELAWARE,
MODERN EQUIPMENT COMPANY,CORPORATION,PA,,,,,,,,2343293,E S ENGLE,OWNER,OTTERMAN & WASHINGTON STREETS GREENSBURG PA 0 -0 WESTMORELAND,
HORACE B. MEININGER INSURANCE AGENCY,CORPORATION,PA,,,,PA,542 STREET RD 2ND FLOOR,SOUTHAMPTON,,2343294,MANFRED BARANOWSKI,OWNER,542 STREET RD 2ND FLOOR SOUTHAMPTON PA 18966-0 BUCKS,
MERANTI HOUSE,CORPORATION,PA,,,,PA 18501-0 LACKAWANNA,1122 MULBERRY STREET,SCRANTON,,2343295,JOSEPH R M ERA,OWNER,1122 MULBERRY STREET SCRANTON PA 18501-0 LACKAWANNA,
MODERN EQUIPMENT CO.,CORPORATION,PA,,,,PA,3300 KENSINGTON AVE,PHILADELPHIA,,2343296,ISAAC ASH,OWNER,3300 KENSINGTON AVE PHILADELPHIA PA 0 -0 PHILADELPHIA,
MENTZER MANUFACTURING CO,CORPORATION,PA,,,,,,,,2343297,FREDERICK M MENTZER,OWNER,UNKNOWN HARRISBURG PA 0 -0 DAUPHIN,
MODERN EQUIPMENT COMPANY,CORPORATION,PA,,,,,,,,2343298,,,UNKNOWN PHILADELPHIA PA 0 -0 PHILADELPHIA,
MEHOOPANY DAIRY BAR,CORPORATION,PA,,,,PA 18629-0 WYOMING,ROUTE 87,MEHOOPANY,,2343299,WILLIAM F DUNLAP,OWNER,ROUTE 87 MEHOOPANY PA 18629-0 WYOMING,
MODERN EQUIPMENT COMPANY,CORPORATION,PA,,,,,,,,2343300,,,UNKNOWN CHARLEROI PA 0 -0 WASHINGTON,
MENTZER-RUDOLPH COMPANY,CORPORATION,PA,,,,,,,,2343301,,,UNKNOWN WAYNESBORO PA 0 -0 FRANKLIN,
MEHRING'S DRUG STORE,CORPORATION,PA,,,,,,,,2343302,,,UNKNOWN HARRISBURG PA 0 -0 DAUPHIN,
MODERN DANCE STUDIO,CORPORATION,PA,,,,PA,1215 WALNUT STREET,PHILADELPHIA,,2343303,PEARL A STROUSE,OWNER,1215 WALNUT STREET PHILADELPHIA PA 0 -0 PHILADELPHIA,
MENTZER AND SPROW LOGGING CO.,CORPORATION,PA,,,,PA 17019-0 YORK,129 W HARRISBURG STREET,DILLSBURG,,2343304,MAURICE B MENTZER,OWNER,129 W HARRISBURG STREET DILLSBURG PA 17019-0 YORK,
MEYER D MEHRMAN,CORPORATION,PA,,,,,,,,2343305,,,UNKNOWN ALLENTOWN PA 0 -0 LEHIGH,
MODERN DANCE STUDIO,CORPORATION,PA,,,,PA,210 S 21ST STREET,PHILADELPHIA,,2343306,NAN M DAVIS,OWNER,210 S 21ST STREET PHILADELPHIA PA 0 -0 PHILADELPHIA,
SCOTTY MEIER AUTO WRECKING,CORPORATION,PA,,,,,,,,2343307,A L MEIER,OWNER,R D 4 SLIPPERY ROCK PA 0 -0 BUTLER,
MODERN DANCE STUDIO,CORPORATION,PA,,,,PA,210 S 12TH STREET,PHILADELPHIA,,2343308,FLORENCE E KORB,OWNER,210 S 12TH STREET PHILADELPHIA PA 0 -0 PHILADELPHIA,
MODERN DANCE STUDIO,CORPORATION,PA,,,,PA,2012 NORTH BROAD STREET,PHILADELPHIA,,2343309,PEARL A YOST,OWNER,2012 NORTH BROAD STREET PHILADELPHIA PA 0 -0 PHILADELPHIA,
"PEHL JEWELRY, INC.",CORPORATION,PA,1612 WENDY WAY,BOOTHWYN,,PA 19061-0 DELAWARE,1612 WENDY WAY,BOOTHWYN,,2343310,RANDA PEHL,TREASURER,1612 WENDY WAY BOOTHWYN PA 19061-0 DELAWARE,1612 WENDY WAY BOOTHWYN PA 19061-23
"PEHL CONSULTING, INC.",CORPORATION,PA,920 DROVERS LANE,CHESTER SPGS,,PA 19061-0 DELAWARE,1612 WENDY WAY,BOOTHWYN,,2343311,RANDA PEHL,TREASURER,1612 WENDY WAY BOOTHWYN PA 19061-0 DELAWARE,920 DROVERS LANE CHESTER SPGS PA 19425-15
"RAP SNACKS, INC.",CORPORATION,PA,STE 301 B 300 E LANCASTER AVE,WYNNEWOOD,,,,,,2343312,JAMES LINDSAY,TREASURER,% SUSAN E TAYLOR ESQ 4 PENN CENTER PLAZA PHILADELPHIA PA 19103-0 PHILADELPHIA,STE 301 B 300 E LANCASTER AVE WYNNEWOOD PA 19096-46
"SIMCO, INC.",CORPORATION,PA,1107 STOTHSBURY RD,C/O HARVEY SIMMENS GLENSIDE,,PA 19118-0 MONTGOMERY,1107 STOTESBURY RD,WYNDMOOR,,2343313,HARVEY SIMMENS,TREASURER,1107 STOTESBURY RD WYNDMOOR PA 19118-0 MONTGOMERY,1107 STOTHSBURY RD C/O HARVEY SIMMENS GLENSIDE PA 19038-46
"TZAFON TRADING ENTERPRISES, INC.",CORPORATION,PA,C/O SAM KARPENSHIF 1100 E HECTOR ST,CONSHOHOCKEN,,PA 19428-0 MONTGOMERY,% SAM KARPENSHIF 1100 EAST HECTOR ST,CONSHOHOCKEN,,2343314,SAM KARPENSHIF,TREASURER,% SAM KARPENSHIF 1100 EAST HECTOR ST CONSHOHOCKEN PA 19428-0 MONTGOMERY,C/O SAM KARPENSHIF 1100 E HECTOR ST CONSHOHOCKEN PA 19428-46
PEPPER BERRY PRIMITIVES,CORPORATION,PA,,,,PA,771 ELK AVE,ROCHESTER,15074-0,2343315,LYNN BAUGHER,OWNER,771 ELK AVE ROCHESTER PA 15074-0 BEAVER,
"TRAVELERS' CHIROPRACTIC CENTERS, INC.",CORPORATION,PA,ALMSHOUSE RD & TEMPERANCE LANE,RICHBORO,,PA,ALMSHOUSE RD & TEMPERANCE LANE,RICHBORO,,2343316,NEIL HOLLANDER,PRESIDENT,ALMSHOUSE RD & TEMPERANCE LANE RICHBORO PA 18954-0 BUCKS,ALMSHOUSE RD & TEMPERANCE LANE RICHBORO PA 18954-09
PHOENIX BUSINESS SERVICES,CORPORATION,PA,,,,PA 17201-0 FRANKLIN,1256 KENNEDY CT,CHAMBERSBURG,,2343317,DIANA HENNESSY,OWNER,1256 KENNEDY CT CHAMBERSBURG PA 17201-0 FRANKLIN,
CHAMBERSBURG SKIDS,CORPORATION,PA,,,,PA 17201-0 FRANKLIN,159 FALLING SPRING RD,CHAMBERSBURG,,2343319,RICHARD SCALIA,OWNER,159 FALLING SPRING RD CHAMBERSBURG PA 17201-0 FRANKLIN,
HOMEFRONT INFORMATION SYSTEMS,CORPORATION,PA,,,,PA 18837-0 BRADFORD,RR 3 BOX 3088,ROME,,2343320,R SCOTT ROSS,OWNER,RR 3 BOX 3088 ROME PA 18837-0 BRADFORD,
"T.F. KELLEY AND ASSOCIATES, INC.",CORPORATION,PA,26 KATIE DR,LANGHORNE,,,,,,2343321,THOMAS F KELLEY,PRESIDENT,%CORPORATION SERVICE COMPANY DAUPHIN,26 KATIE DR LANGHORNE PA 19047-09
WESTON FITNESS,CORPORATION,PA,,,,,,,,2343322,SANDY WESTON FITNESS COMPANY INC,OWNER,ONE BALA PLAZA BALA CYNWYD PA 19004-0 MONTGOMERY,
NETWORK MEDICAL,CORPORATION,PA,,,,PA 17602-0 LANCASTER,609 N CHERRY ST,LANCASTER,,2343323,NETWORK MEDICAL INC,OWNER,609 N CHERRY ST LANCASTER PA 17602-0 LANCASTER,
"DEKALB ASSOCIATES, INC.",CORPORATION,PA,C/O ABRAHAM A HOBSON 1609 DEKALB ST,NORRISTOWN,,PA 19301-0 CHESTER,125 EAST LANCASTER AVE,PAOLI,,2343324,SUE ANN HOBSON,TREASURER,125 EAST LANCASTER AVE PAOLI PA 19301-0 CHESTER,C/O ABRAHAM A HOBSON 1609 DEKALB ST NORRISTOWN PA 19401-46
MID-ATLANTIC HEALTH SYSTEM,CORPORATION,PA,,,,PA 17602-0 LANCASTER,609 N CHERRY ST,LANCASTER,,2343325,MID-ATLANTIC HEALTH SYSTEM INC,OWNER,609 N CHERRY ST LANCASTER PA 17602-0 LANCASTER,
HAIR TO PLEASE YOU,CORPORATION,PA,,,,PA 17602-0 LANCASTER,801 N QUEEN ST,LANCASTER,,2343326,MARY ALBRIGHT,OWNER,801 N QUEEN ST LANCASTER PA 17602-0 LANCASTER,
"MID-ATLANTIC HEALTH SYSTEM, INC.",CORPORATION,PA,C/O FRANCIS C MUSSO 609 N CHERRY ST,LANCASTER,,PA 17602-0 LANCASTER,609 N CHERRY ST,LANCASTER,,2343327,FRANCIS C MUSSO,TREASURER,609 N CHERRY ST LANCASTER PA 17602-0 LANCASTER,C/O FRANCIS C MUSSO 609 N CHERRY ST LANCASTER PA 17602-36
THE PENNY SAVED INVESTMENT CLUB,CORPORATION,PA,,,,,,,,2343328,SHARON KRASNOFF,OWNER,347 SWEETBRIAR RD KING OF PRUSSIA PA 19406-0 MONTGOMERY,
H. MACDONALD & SON,CORPORATION,PA,802 N MAIN ST,ATHENS,,PA 18810-0 BRADFORD,802 N MAIN ST,ATHENS,,2343329,"COOLEY TIOGA POINT CREMATION AND BURIAL OPTIONS, INC.",OWNER,802 N MAIN ST ATHENS PA 18810-0 BRADFORD,802 N MAIN ST ATHENS PA 18810-0
"NETWORK MEDICAL, INC.",CORPORATION,PA,1900 SPRUCE ST,PHILADELPHIA,,PA 17603-0 LANCASTER,2938 COLUMBIA AVE STE 701,LANCASTER,,2343330,FRANCIS C MUSSO,TREASURER,2938 COLUMBIA AVE STE 701 LANCASTER PA 17603-0 LANCASTER,1900 SPRUCE ST PHILADELPHIA PA 19103-6605
LIFELONG FITNESS CENTER,CORPORATION,PA,,,,PA 18201-0 LUZERNE,110 BUTLER DR,HAZLETON,,2343331,ROBERT J ECKER III,OWNER,110 BUTLER DR HAZLETON PA 18201-0 LUZERNE,
A CHILD'S HEART,CORPORATION,PA,,,,PA 15122-0 ALLEGHENY,4043 IRENE ST,WEST MIFFLIN,,2343333,LEONARD M CORLISS JR,OWNER,4043 IRENE ST WEST MIFFLIN PA 15122-0 ALLEGHENY,
D & B INVESTMENTS,CORPORATION,PA,,,,PA 17701-0 LYCOMING,437 HEPBURN ST,WILLIAMSPORT,,2343334,MICHAEL L DERR,OWNER,437 HEPBURN ST WILLIAMSPORT PA 17701-0 LYCOMING,
"THE REHAB GROUP, INC.",CORPORATION,PA,EXPRESS HOUSE 1ST FLR 3 STATION SQ,PITTSBURGH,,PA 15219-0 ALLEGHENY,EXPRESS HOUSE 1ST FL 3 STATION SQ,PITTSBURGH,,2343335,WILLIAM A MCCOY III,TREASURER,EXPRESS HOUSE 1ST FL 3 STATION SQ PITTSBURGH PA 15219-0 ALLEGHENY,EXPRESS HOUSE 1ST FLR 3 STATION SQ PITTSBURGH PA 15219-02
MARSH CREEK GRAPHICS,CORPORATION,PA,,,,PA 19372-0 CHESTER,9 INGLESIDE DR,THORNDALE,,2343336,MICHAEL P GIESCHEN,OWNER,9 INGLESIDE DR THORNDALE PA 19372-0 CHESTER,
ALTHOFF INTERIORS,CORPORATION,PA,,,,PA 17331-0 YORK,319 VEGAS DR,HANOVER,,2343337,CLARENCE M ALTHOFF,OWNER,319 VEGAS DR HANOVER PA 17331-0 YORK,
DOYLESTOWN POLICE SUPPLY,CORPORATION,PA,,,,PA,195 VICTORIA CT,DOYLESTOWN,,2343338,JENNIFER V METTIN,OWNER,195 VICTORIA CT DOYLESTOWN PA 18901-0 BUCKS,
"MAHONING VALLEY SPEEDWAY, INC.",CORPORATION,PA,2562 BLAKESLEE BLVD DR,LEHIGHTON,18229-0,PA,1588 CENTRE AVE,JIM THORPE,18229-0,2343339,MICHAEL J GARFIELD,TREASURER,1588 CENTRE AVE JIM THORPE PA 18229-0 CARBON,2562 BLAKESLEE BLVD DR LEHIGHTON PA 18235
C D TRADER,CORPORATION,PA,,,,PA,201 S CRAIG ST,PITTSBURGH,,2343340,GEORGE W SCHULTZ,OWNER,201 S CRAIG ST PITTSBURGH PA 0 -0 ALLEGHENY,
DELUXE ROOFING AND GENERAL CONTRACTOR INC.,CORPORATION,PA,912 BRIDGE ST,PHILADELPHIA,,PA 19124-0 PHILADELPHIA,912 BRIDGE ST,PHILADELPHIA,,2343341,TERESA M MCCAUSLAND,TREASURER,912 BRIDGE ST PHILADELPHIA PA 19124-0 PHILADELPHIA,912 BRIDGE ST PHILADELPHIA PA 19124-51
K-TIRE,CORPORATION,PA,,,,PA,369 ROCHESTER RD,PITTSBURGH,,2343342,KENNETH D PIKE SR,OWNER,369 ROCHESTER RD PITTSBURGH PA 0 -0 ALLEGHENY,
MCCAUSLAND ROOFING AND GENERAL CONTRACTOR INC,CORPORATION,PA,912 BRIDGE ST,PHILADELPHIA,,PA 19124-0 PHILADELPHIA,912 BRIDGE ST,PHILADELPHIA,,2343343,TERESA M MCCAUSLAND,TREASURER,912 BRIDGE ST PHILADELPHIA PA 19124-0 PHILADELPHIA,912 BRIDGE ST PHILADELPHIA PA 19124-51
RB'S PORTA POWER WASHING,CORPORATION,PA,,,,PA 15522-0 BEDFORD,RD 2 BOX 729,BEDFORD,,2343344,RANDY C BUTLER,OWNER,RD 2 BOX 729 BEDFORD PA 15522-0 BEDFORD,
PHILADELPHIA IMPORTS PLUS,CORPORATION,PA,,,,PA,3329 ELLA ST,PHILADELPHIA,,2343345,JOHN A HUGHES,OWNER,3329 ELLA ST PHILADELPHIA PA 0 -0 PHILADELPHIA,
"JMTM, INC.",CORPORATION,PA,893 CONCORD RD,ASTON,,PA 19014-0 DELAWARE,893 CONCORD RD,ASTON,,2343346,DEBORAH A MALLEY,TREASURER,893 CONCORD RD ASTON PA 19014-0 DELAWARE,893 CONCORD RD ASTON PA 19014-23
AUSSIE'S GIFT BASKETS,CORPORATION,PA,,,,PA 15668-0 WESTMORELAND,3443 N HILLS RD,MURRYSVILLE,,2343347,LISA WILKES PITTS,OWNER,3443 N HILLS RD MURRYSVILLE PA 15668-0 WESTMORELAND,
"SAM HOLDING, INC. (USA)",CORPORATION,DE,590 MADISON AVE 25TH FLOOR,NEW YORK,,,,,,2343348,PIERRE EDOUARD DELATOUR,TREASURER,C/O C T CORPORATION SYSTEM PA 0 -0 ALLEGHENY,590 MADISON AVE 25TH FLOOR NEW YORK NY 10022
SHERWOOD VENDING OF PA INC.,CORPORATION,PA,600 N THIRD STREET,PHILADELPHIA,,PA 19123-0 PHILADELPHIA,600 NORTH THIRD ST,PHILADELPHIA,,2343349,THOMAS W SHERWOOD,TREASURER,600 NORTH THIRD ST PHILADELPHIA PA 19123-0 PHILADELPHIA,600 N THIRD STREET PHILADELPHIA PA 19123-51
REALITY THERAPY & CONTOL THEORY MANAGEMENT ASSOCIATES,CORPORATION,PA,,,,PA,210 N 2ND ST,LEWISBURG,17837-1518,2343350,CHARLES E CONFER,OWNER,210 N 2ND ST LEWISBURG PA 17837-1518 UNION,
D.M.A CATALOG SALES,CORPORATION,PA,,,,PA 16101-0 LAWRENCE,1810 NEW BUTLER RD BOX 23,NEW CASTLE,,2343352,DAVID C FALBA,OWNER,1810 NEW BUTLER RD BOX 23 NEW CASTLE PA 16101-0 LAWRENCE,
Y.E.S. PROFESSIONAL STAFFING INC,CORPORATION,PA,C/O GORDON ROBBINS 804 TIMBER LN,DRESHER,,PA 19025-0 MONTGOMERY,804 TIMBER LANE,DRESHER,,2343353,YVONNE ELSEY,PRESIDENT,804 TIMBER LANE DRESHER PA 19025-0 MONTGOMERY,C/O GORDON ROBBINS 804 TIMBER LN DRESHER PA 19025-46
"LOWER AUGUSTA VOLUNTEER FIRE DEPARTMENT RELIEF ASSOCIATION, INC.",NONPROFIT,PA,,,,PA,1325 BOYLES RUN ROAD,SUNBURY,17801,2343354,,,1325 BOYLES RUN ROAD SUNBURY PA 17801 NORTHUMBERLAND,
FOX AVIATION,CORPORATION,PA,,,,PA 18064-0 NORTHAMPTON,566 S MAIN ST,NAZARETH,,2343355,TOM FOX JR,OWNER,566 S MAIN ST NAZARETH PA 18064-0 NORTHAMPTON,
RECOVERING CARE INCORPORATED,NONPROFIT,PA,,,,,,,,2343356,,,565 HANSEN DRIVE KING OF PRUSSIA PA 19406-0 MONTGOMERY,
"SPEICE ASSOCIATES, INC.",CORPORATION,PA,C/O PAUL F SPEICE 3211 OLD FRENCH RD,ERIE,,PA,3211 OLD FRENCH RD,ERIE,,2343357,PAUL F SPEICE,PRESIDENT,3211 OLD FRENCH RD ERIE PA 16504-0 ERIE,C/O PAUL F SPEICE 3211 OLD FRENCH RD ERIE PA 16504-25
DIVERSIFIED MARKETING CONCEPTS,CORPORATION,PA,,,,PA 17545-0 LANCASTER,2637 MOUNTAIN RD PO BOX 400,MANHEIM,,2343358,GREGORY A LEHMAN,OWNER,2637 MOUNTAIN RD PO BOX 400 MANHEIM PA 17545-0 LANCASTER,
BUCKS COUNTY COMMUNITY CHURCH,NONPROFIT,PA,,,,PA 19006-0 MONTGOMERY,19 BUCK RD,HUNTINGDON VALLEY,,2343359,,,19 BUCK RD HUNTINGDON VALLEY PA 19006-0 MONTGOMERY,
R & R SECRETARIAL SERVICES,CORPORATION,PA,,,,PA,529 WOODLAND RD,PITTSBURGH,,2343360,SUSAN TURNER,OWNER,529 WOODLAND RD PITTSBURGH PA 0 -0 ALLEGHENY,
"NANOTECH, INC.",CORPORATION,PA,1114 QUAIL ROOST,PITTSBURGH,,,,,,2343361,STEPHEN J GONGAWARE,SECRETARY,1114 QUAIL ROOST PITTSBURGH PA 15237-0 ALLEGHENY,1114 QUAIL ROOST PITTSBURGH PA 15237-02
HORIZON EAST L.T.D. ELECTRICAL CONTRACTING,CORPORATION,PA,,,,,,,,2343362,WM J WARNER,OWNER,"638 GREENWOOD ST. MAIL: P O BOX 201 WHITEHALL, PA 18052 ALLENTOWN PA 18103-0 LEHIGH",
"ALEX & GLADYS, INC.",CORPORATION,PA,5479 MORSE ST,PHILADELPHIA,,PA 19131-0 PHILADELPHIA,5479 MORSE ST,PHILADELPHIA,,2343363,ALEXANDER DUMAS,TREASURER,5479 MORSE ST PHILADELPHIA PA 19131-0 PHILADELPHIA,5479 MORSE ST PHILADELPHIA PA 19131-3131
APEX COLLECTIBLES,CORPORATION,PA,,,,PA 18420-0 LACKAWANNA,ROUTE 407 PO BOX 724,FLEETVILLE,,2343365,SPECTRUM HOLDINGS INC,OWNER,ROUTE 407 PO BOX 724 FLEETVILLE PA 18420-0 LACKAWANNA,
ALAIYO INVESTMENT CLUB,PARTNERSHIP,PA,,,,PA 15221-0 ALLEGHENY,2034 W KENDON DRIVE,PITTSBURGH,,2343366,DERRICK HOWARD,GENPARTNER,2034 W KENDON DRIVE PITTSBURGH PA 15221-0 ALLEGHENY,PA
WHITEHORSE COLLISION,CORPORATION,PA,,,,PA 19355-0 CHESTER,405-A REES RD,MALVERN,,2343367,JAMES R COULTER,OWNER,405-A REES RD MALVERN PA 19355-0 CHESTER,
"ALLIED MANUFACTURING GROUP PHILADELPHIA, INC.",CORPORATION,PA,UNIT I 2014 FORD RD,BRISTOL,,PA,UNIT I 2014 FORD RD,BRISTOL,,2343368,LING YU YAO,PRESIDENT,UNIT I 2014 FORD RD BRISTOL PA 19007-0 BUCKS,UNIT I 2014 FORD RD BRISTOL PA 19007-09
"BKT ASSOCIATES, INC. D/B/A FORTUNE PRACTICE MANAGEMENT",CORPORATION,PA,23 ROBIN HILL DRIVE,MCKEES ROCKS,,PA 15228-0 ALLEGHENY,344 TAMPA AVE,PITTSBURGH,,2343371,BEVERLEE K TURZAK,PRESIDENT,344 TAMPA AVE PITTSBURGH PA 15228-0 ALLEGHENY,23 ROBIN HILL DRIVE MCKEES ROCKS PA 15136-02
CITY PRIDE BAKERY,CORPORATION,PA,,,,PA 15401-0 FAYETTE,50 W MAIN ST,UNIONTOWN,,2343372,CITY PRIDE ACQUISITONS INC,OWNER,50 W MAIN ST UNIONTOWN PA 15401-0 FAYETTE,
CITY PRIDE,CORPORATION,PA,,,,PA 15401-0 FAYETTE,50 W MAIN ST,UNIONTOWN,,2343373,CITY PRIDE ACQUISITIONS INC,OWNER,50 W MAIN ST UNIONTOWN PA 15401-0 FAYETTE,
L & M PATTERN,CORPORATION,PA,,,,PA,10385 DRUMMOND RD,PHILADELPHIA,,2343374,MARK R GLENN,OWNER,10385 DRUMMOND RD PHILADELPHIA PA 0 -0 PHILADELPHIA,
"UNIVERSITY GASTROENTEROLOGY AND HEPATOLOGY ASSOCIATES, P.C.",CORPORATION,PA,5 OAK RIDGE CT,VOORHEES,,PA 19106-0 PHILADELPHIA,130 SPRUCE ST APT 32B,PHILADELPHIA,,2343375,LEO C KATZ,TREASURER,130 SPRUCE ST APT 32B PHILADELPHIA PA 19106-0 PHILADELPHIA,5 OAK RIDGE CT VOORHEES NJ 08043
SUNSHINE LAWN CARE,CORPORATION,PA,,,,PA 15637-0 WESTMORELAND,69 SUNSHINE RD,HERMINIE,,2343376,SHARON L SCHWINIAN,OWNER,69 SUNSHINE RD HERMINIE PA 15637-0 WESTMORELAND,
OAKRIDGE PERSONAL CARE HOME,CORPORATION,PA,,,,,,,,2343377,MARGARET A YOUNG,OWNER,RD 2 BOX B-195 MILL HALL PA 17751-0 CLINTON,
FRAT HOUSE FRATERNITY & SOROTITY ACCESSORY SELLS,CORPORATION,PA,,,,PA 19425-0 CHESTER,2405 BRIDGEWATER CT,CHESTER SPRINGS,,2343379,CORNELIUS STAFFORD,OWNER,2405 BRIDGEWATER CT CHESTER SPRINGS PA 19425-0 CHESTER,
GOODEN & BROWN FUNERAL HOME INC.,CORPORATION,PA,C/O GEORGE BYRON BROWN605 BRUSHTON AVE,PITTSBURGH,,PA 15208-0 ALLEGHENY,605 BRUSHTON AVE,PITTSBURGH,,2343380,GEORGE BYRON BROWN,TREASURER,605 BRUSHTON AVE PITTSBURGH PA 15208-0 ALLEGHENY,C/O GEORGE BYRON BROWN605 BRUSHTON AVE PITTSBURGH PA 15208-02
DATES REMEMBERED,CORPORATION,PA,,,,,,,,2343381,RUSSELL ZOLL,OWNER,267 S WINEBIDDLE AVE APT 32 PITTSBURGH PA 0 -0 ALLEGHENY,
A.M. CLEANING SERVICE,CORPORATION,PA,,,,PA 17602-0 LANCASTER,839 S DUKE ST,LANCASTER,,2343382,MARIA T LUCENA,OWNER,839 S DUKE ST LANCASTER PA 17602-0 LANCASTER,
"CAROLE F. KAFRISSEN, P.C.",CORPORATION,PA,STE 1801 1515 MARKET ST,PHILADELPHIA,,,,,,2343383,CAROLE F KAFRISSEN,TREASURER,520 TWO PENN CENTER PLAZA PHILADELPHIA PA 19102-0 PHILADELPHIA,STE 1801 1515 MARKET ST PHILADELPHIA PA 19102-51
PARADISE NAILS,CORPORATION,PA,,,,PA 17103-0 DAUPHIN,1303 MARKET ST #1,HARRISBURG,,2343384,HOANG QUANG,OWNER,1303 MARKET ST #1 HARRISBURG PA 17103-0 DAUPHIN,
"WILLOW GROVE INTERNAL MEDICINE, P.C.",CORPORATION,PA,3525 MORELAND RD,WILLOW GROVE,,PA 19090-0 MONTGOMERY,3525 MORELAND RD,WILLOW GROVE,,2343386,LENORE B ROBERTS,TREASURER,3525 MORELAND RD WILLOW GROVE PA 19090-0 MONTGOMERY,3525 MORELAND RD WILLOW GROVE PA 19090-46
PREMEIRE TAN,CORPORATION,PA,,,,PA 17109-0 DAUPHIN,4404 FRITCHEY ST,HARRISBURG,,2343387,LESLIE ANNE DIETZ,OWNER,4404 FRITCHEY ST HARRISBURG PA 17109-0 DAUPHIN,
C F P FINANCIAL SERVICES,CORPORATION,PA,,,,PA 19018-0 DELAWARE,66 N SYCAMORE,CLIFTON HEIGHTS,,2343388,RANDOLPH L CLAUS,OWNER,66 N SYCAMORE CLIFTON HEIGHTS PA 19018-0 DELAWARE,
OMNI BROKERAGE,CORPORATION,PA,,,,PA,600 N 12TH ST,READING,,2343389,EDIE P BROWN,OWNER,600 N 12TH ST READING PA 19604-0 BERKS,
D. M. HOME IMPROVEMENTS,CORPORATION,PA,,,,PA,600 N 12TH ST,READING,,2343390,EDDIE P BROWN,OWNER,600 N 12TH ST READING PA 19604-0 BERKS,
L-T FENCING,CORPORATION,PA,,,,PA 17315-0 YORK,4621 S SALEM CHURCH RD LOT 46,DOVER,,2343391,TODD PEQUIGNOT,OWNER,4621 S SALEM CHURCH RD LOT 46 DOVER PA 17315-0 YORK,
ENCORE RESTORATION,CORPORATION,PA,,,,PA,PO BOX 955 (10 KINGSBURY CT),BRADFORD,16701-0,2343392,KEVIN W GREENE,OWNER,PO BOX 955 (10 KINGSBURY CT) BRADFORD PA 16701-0 MCKEAN,
THE LINCOLN TRADING POST,CORPORATION,PA,,,,PA,1895-A YOUR RD,GETTYSBURG,,2343393,PATRICK REDDING,OWNER,1895-A YOUR RD GETTYSBURG PA 17325-0 ADAMS,
MAXIE'S PLACE,CORPORATION,PA,,,,PA,ROUTE 19 N RD 1,PORTERSVILLE,16051-0,2343394,MAXINE DRAKE,OWNER,ROUTE 19 N RD 1 PORTERSVILLE PA 16051-0 BUTLER,
KHEOPS FOREST PRODUCTS/USA,CORPORATION,PA,,,,PA 19382-0 CHESTER,619 W MINER ST,WEST CHESTER,,2343395,THE ADIRONDAK GROUP INC,OWNER,619 W MINER ST WEST CHESTER PA 19382-0 CHESTER,
ANDY'S LANDSCAPING,CORPORATION,PA,,,,PA,1050 J EVE DR,PITTSBURGH,,2343396,ANDY SAFIER,OWNER,1050 J EVE DR PITTSBURGH PA 0 -0 ALLEGHENY,
EMERGENCY CLINICIAN/CONSULTANTS,CORPORATION,PA,,,,PA 16323-0 VENANGO,PO BOX 849 OLD BELMAR DR,FRANKLIN,,2343398,LOIS L GARNER,OWNER,PO BOX 849 OLD BELMAR DR FRANKLIN PA 16323-0 VENANGO,
DAVID LEWIS & ASSOCIATES,CORPORATION,PA,,,,PA 15126-0 ALLEGHENY,7900 STEUBENVILLE PIKE STE 22,IMPERIAL,,2343399,SUCCESSFUL BUSINESS MANAGEMENT INC,OWNER,7900 STEUBENVILLE PIKE STE 22 IMPERIAL PA 15126-0 ALLEGHENY,
REPROCHROME,CORPORATION,PA,,,,PA,825 N 2ND ST,PHILADELPHIA,,2343400,STEPHEN MULLEN,OWNER,825 N 2ND ST PHILADELPHIA PA 0 -0 PHILADELPHIA,
OIL & GAS PLUGGERS OF AMERICA,CORPORATION,PA,,,,,,,,2343401,RICHARD PANZA,OWNER,RD#2 BOX 242B CHESWICK PA 15024-0 ALLEGHENY,
COUPONS GALORE,CORPORATION,PA,,,,PA,140 PINE LANE,PINEVILLE,,2343402,STEVEN SKOLODA,OWNER,140 PINE LANE PINEVILLE PA 18946-0 BUCKS,
BOB'S RIDGE DINER,CORPORATION,PA,,,,PA 19128-0 PHILADELPHIA,6053 RIDGE AVE,PHILADELPHIA,,2343403,JAMES L EVANS CORPORATION,OWNER,6053 RIDGE AVE PHILADELPHIA PA 19128-0 PHILADELPHIA,
BEDFORD MCDONALD'S,CORPORATION,PA,,,,PA 15537-0 BEDFORD,95 BEDFORD SQUARE PLAZA,EVERETT,,2343404,STEVEN DELAMATER,OWNER,95 BEDFORD SQUARE PLAZA EVERETT PA 15537-0 BEDFORD,
COMPUTER NERDS,CORPORATION,PA,,,,PA,208 N 4TH ST,EMMAUS,18049-0,2343405,MIKE A LONG,OWNER,208 N 4TH ST EMMAUS PA 18049-0 LEHIGH,
SCOTLAND MCDONALD'S,CORPORATION,PA,,,,PA 17201-0 FRANKLIN,3347 BLACK GAP RD,CHAMBERSBURG,,2343406,STEVEN DELAMATER,OWNER,3347 BLACK GAP RD CHAMBERSBURG PA 17201-0 FRANKLIN,
NORTHEASTERN WINDOW SYSTEMS,CORPORATION,PA,,,,PA 19135-0 PHILADELPHIA,7140 KEYSTONE ST,PHILADELPHIA,,2343407,MIKE ROSENELLO,OWNER,7140 KEYSTONE ST PHILADELPHIA PA 19135-0 PHILADELPHIA,
C & B RACING,CORPORATION,PA,,,,PA 19525-0 MONTGOMERY,1533 SWAMP PIKE,GILBERTSVILLE,,2343408,DAVID A FILLMAN,OWNER,1533 SWAMP PIKE GILBERTSVILLE PA 19525-0 MONTGOMERY,
BORDERLAND WOODCARVINGS,CORPORATION,PA,,,,PA 17032-0 DAUPHIN,1095 POWELLS VALLEY RD,HALIFAX,,2343409,RUTH M WERNER,OWNER,1095 POWELLS VALLEY RD HALIFAX PA 17032-0 DAUPHIN,
TASTY TWIST,CORPORATION,PA,,,,PA,12753 OLD LAKE RD,EAST SPRINGFIELD,,2343410,ANTHONAY ELMER THEIL,OWNER,12753 OLD LAKE RD EAST SPRINGFIELD PA 16411-0 ERIE,
REPUBLIC REALTY MORTGAGE CORPORATION,CORPORATION,IL,200 WITMER RD,HORSHAM,,,,,,2343411,MICHAEL E LUBY,PRESIDENT,%CT CORPORATION SYSTEM UNKNOWN,200 WITMER RD HORSHAM PA 19044-46
LEKONTEE,CORPORATION,PA,,,,PA 19139-0 PHILADELPHIA,5629 SPRUCE ST,PHILADELPHIA,,2343413,CIETTA B SIRLEAF,OWNER,5629 SPRUCE ST PHILADELPHIA PA 19139-0 PHILADELPHIA,
BREWSTER WALLPAPER CORP.,CORPORATION,MA,67 PACELLA PARK DR,RANDOLPH,,,,,,2343415,PAUL FEINSTEIN,TREASURER,"%THE PRENTICE-HALL CORPORATION SYSTEM, INC. DAUPHIN",67 PACELLA PARK DR RANDOLPH MA 02368-1755
CARING HEARTS,CORPORATION,PA,,,,PA,928 UNION BLVD,ALLENTOWN,18103-0,2343416,CATHOLIC SOCIAL AGENCY OF THE D,OWNER,928 UNION BLVD ALLENTOWN PA 18103-0 LEHIGH,
"WATKINS TERMINALS, INC.",CORPORATION,GA,P O BOX 1738,ATLANTA,,,,,,2343417,WILLIAM T HERRING,VICEPRESIDENT,%CT CORPORATION SYSTEM UNKNOWN,P O BOX 1738 ATLANTA GA 30301
"C & C CAKES, INC.",CORPORATION,PA,546 MAPLE AVE,HARLEYSVILLE,,PA 19438-0 MONTGOMERY,546 MAPLE AVE,HARLEYSVILLE,,2343418,UERMON BOWER,TREASURER,546 MAPLE AVE HARLEYSVILLE PA 19438-0 MONTGOMERY,546 MAPLE AVE HARLEYSVILLE PA 19438
"PAMTOM, INC.",CORPORATION,PA,105 ANTONIA STREET,JOHNSTOWN,,PA 15905-0 CAMBRIA,105 ANTONIA ST,JOHNSTOWN,,2343420,THOMAS R KIRBY,TREASURER,105 ANTONIA ST JOHNSTOWN PA 15905-0 CAMBRIA,105 ANTONIA STREET JOHNSTOWN PA 15905-11
"T & G AUTO SALES, INC.",CORPORATION,PA,ATTN GARY HALLIDAY 6350 BALTIMORE PIKE,LANSDOWNE,,PA 19050-0 DELAWARE,6350 BALTIMORE PIKE,FERNWOOD,,2343423,GARY DAVID HALLIDAY,PRESIDENT,6350 BALTIMORE PIKE FERNWOOD PA 19050-0 DELAWARE,ATTN GARY HALLIDAY 6350 BALTIMORE PIKE LANSDOWNE PA 19050-23
HOMESTEAD TRANSPORTATION,CORPORATION,PA,,,,PA 18603-0 COLUMBIA,1544 ORANGE ST,BERWICK,,2343424,MICHAEL BANNON,OWNER,1544 ORANGE ST BERWICK PA 18603-0 COLUMBIA,
S & J FOOD SERVICE CORP.,CORPORATION,PA,C/O STEVEN LAX 405 LAWNTON RD,WILLOW GROVE,,PA 19111-0 PHILADELPHIA,% STEVEN LAX 903 LONGSHORE AVE,PHILADELPHIA,,2343425,STEVEN LAX,TREASURER,% STEVEN LAX 903 LONGSHORE AVE PHILADELPHIA PA 19111-0 PHILADELPHIA,C/O STEVEN LAX 405 LAWNTON RD WILLOW GROVE PA 19090-46
SELVI TRADING CO.,CORPORATION,PA,,,,PA 19136-0 PHILADELPHIA,8312-18 STATE RD UNIT 1,PHILADELPHIA,,2343426,CENGIZ SELVI,OWNER,8312-18 STATE RD UNIT 1 PHILADELPHIA PA 19136-0 PHILADELPHIA,
"L & S SERVICE, INC-HOUSE & APARTMENT RENTALS",CORPORATION,PA,C/O LARRY ZUMOFF 1146 ARROTT ST APT 8,PHILADELPHIA,,PA 19124-0 PHILADELPHIA,1146 ARROTT ST APT 8,PHILADELPHIA,,2343427,SHEILA ZUMOFF,TREASURER,1146 ARROTT ST APT 8 PHILADELPHIA PA 19124-0 PHILADELPHIA,C/O LARRY ZUMOFF 1146 ARROTT ST APT 8 PHILADELPHIA PA 19124-51
BETTY'S FLOWERS AND CRAFTS,CORPORATION,PA,,,,PA 18707-0 LUZERNE,245 HEMLOCK TERRACE,MOUNTAINTOP,,2343428,BETTY R TABOR,OWNER,245 HEMLOCK TERRACE MOUNTAINTOP PA 18707-0 LUZERNE,
"MEDTRITION, INC.",CORPORATION,PA,PO BOX 5387,LANCASTER,17601,PA,2733 LITITZ PIKE,LANCASTER,17601,2343429,KEVIN M MCFADDEN,VICEPRESIDENT,2733 LITITZ PIKE LANCASTER PA 17601 LANCASTER,PO BOX 5387 LANCASTER PA 17606-5387
ENGINEMASTERS,CORPORATION,PA,,,,,,,,2343430,NORTHEAST SALVAGE COMPANY INC,OWNER,PA RT 512 EAST BANGOR PA 18013-0 NORTHAMPTON,
ELECTRONIC SAFETY INSTRUMENTS,CORPORATION,PA,,,,PA 15226-0 ALLEGHENY,809 BELLAIRE AVE,PITTSBURGH,,2343432,JOSEPH G MALEY,OWNER,809 BELLAIRE AVE PITTSBURGH PA 15226-0 ALLEGHENY,
TEXAS FROGS,PARTNERSHIP,PA,,,,PA 17109-0 DAUPHIN,616 ALTAVISTA AVE,HARRISBURG,,2343433,GEARY M BENGE,GENPARTNER,616 ALTAVISTA AVE HARRISBURG PA 17109-0 DAUPHIN,PA
"TREC, INC.",CORPORATION,PA,1101 VINE ST,WEST NEWTON,,PA 15601-0 WESTMORELAND,231 W PITTSBURGH ST,GREENSBURG,,2343434,JAMES A GABRIELSE,PRESIDENT,231 W PITTSBURGH ST GREENSBURG PA 15601-0 WESTMORELAND,1101 VINE ST WEST NEWTON PA 15089-65
CHAN'S EXPRESS,CORPORATION,PA,,,,PA 19120-0 PHILADELPHIA,113 EAST LOUDEN ST,PHILADELPHIA,,2343435,JASON HUY TRAN,OWNER,113 EAST LOUDEN ST PHILADELPHIA PA 19120-0 PHILADELPHIA,
TELECARRIER SERVICES INC.,CORPORATION,DE,75 S BROADWAY,WHITE PLAINS,,,,,,2343436,PAUL RISS,PRESIDENT,"%NATIONAL REGISTERED AGENTS, INC. DAUPHIN",75 S BROADWAY WHITE PLAINS NY 10601-4413
"BUILDING YOUNG ENTREPRENEURS, INC.",NONPROFIT,PA,C/O WENDY M QUICK 7806 CEDARBROOK AVE,PHILADELPHIA,,PA 19150-0 PHILADELPHIA,7806 CEDARBROOK AVE,PHILADELPHIA,,2343437,WENDY M QUICK,PRESIDENT,7806 CEDARBROOK AVE PHILADELPHIA PA 19150-0 PHILADELPHIA,C/O WENDY M QUICK 7806 CEDARBROOK AVE PHILADELPHIA PA 19150-51
REGOR COMPANY,CORPORATION,PA,,,,PA,1053 CHURCH ST,ABINGTON,,2343438,JOHN H REYNAR,OWNER,1053 CHURCH ST ABINGTON PA 0 -0 MONTGOMERY,
"808 BOTTOMS UP, INC.",CORPORATION,PA,808 810 N 40TH ST,PHILADELPHIA,,PA 19104-0 PHILADELPHIA,808-810 N 40TH ST,PHILADELPHIA,,2343439,REGINALD JOHNSON,TREASURER,808-810 N 40TH ST PHILADELPHIA PA 19104-0 PHILADELPHIA,808 810 N 40TH ST PHILADELPHIA PA 19104
TEKFAST ASSOCIATES,CORPORATION,PA,,,,PA 19380-0 CHESTER,1097 CAMBRIDGE CT,WEST CHESTER,,2343440,JOANNE M KUCHINSKY,OWNER,1097 CAMBRIDGE CT WEST CHESTER PA 19380-0 CHESTER,
"HAPPY HILL LEARNING CENTER, INC.",NONPROFIT,PA,7909 STENTON AVE,PHILADELPHIA,,PA 19150-0 PHILADELPHIA,7909 STENTON AVE,PHILADELPHIA,,2343441,BEATRICE SPEIGHT,TREASURER,7909 STENTON AVE PHILADELPHIA PA 19150-0 PHILADELPHIA,7909 STENTON AVE PHILADELPHIA PA 19150-51
"BARREL ACCESSORIES AND SUPPLY COMPANY, INC.",CORPORATION,IL,C/O EDWARD C RICHARD 55 E MONROE ST 3230,CHICAGO,,,,,,2343442,RICHARD S RUDY,TREASURER,100 PINE ST THE PRENTICE HALL CORP SYSTEM HARRISBURG PA 17108-0 DAUPHIN,C/O EDWARD C RICHARD 55 E MONROE ST 3230 CHICAGO IL 60603
C & C PAVING AND CONCRETE,CORPORATION,PA,,,,PA,514 CHADWYCK CIR,SELLERSVILLE,,2343443,MARK CAMPOLEI,OWNER,514 CHADWYCK CIR SELLERSVILLE PA 18960-0 BUCKS,
"JOSEPH E. LEHMAN FUNERAL HOME, INC.",CORPORATION,PA,403 BERWICK ST,WHITE HAVEN,,PA 18661-0 LUZERNE,403 BERWICK ST,WHITE HAVEN,,2343444,JOSEPH E LEHMAN,TREASURER,403 BERWICK ST WHITE HAVEN PA 18661-0 LUZERNE,403 BERWICK ST WHITE HAVEN PA 18661-1304
RAISE OF HOPE INC.,NONPROFIT,PA,,,,PA 19126-0 PHILADELPHIA,1807 68TH AVE,PHILADELPHIA,,2343445,,,1807 68TH AVE PHILADELPHIA PA 19126-0 PHILADELPHIA,
GATOR OIL,CORPORATION,PA,,,,PA 15044-0 ALLEGHENY,5351 HARDT RD,GIBSONIA,,2343446,NIKKI GRIEB,OWNER,5351 HARDT RD GIBSONIA PA 15044-0 ALLEGHENY,
"ADVANCE STEEL & PROCESSING, INC.",CORPORATION,PA,50 SKIPPACK PIKE,AMBLER,,PA 19320-0 CHESTER,MT AIRY RD,COATESVILLE,,2343447,KEVIN CLANCY,TREASURER,MT AIRY RD COATESVILLE PA 19320-0 CHESTER,50 SKIPPACK PIKE AMBLER PA 19002-46
THE VILLAGE SAMPLER,CORPORATION,PA,,,,PA 15632-0 WESTMORELAND,5885 WASHINGTON AVE,EXPORT,,2343448,WENDY MIHALCIK,OWNER,5885 WASHINGTON AVE EXPORT PA 15632-0 WESTMORELAND,
"RICHARD F. BLACK, D.M.D., M.P.H., P.C.",CORPORATION,PA,15 MEADE ST,WELLSBORO,,PA,15 MEADE ST,WELLSBORO,,2343450,RICHARD F BLACK,PRESIDENT,15 MEADE ST WELLSBORO PA 16901-0 TIOGA,15 MEADE ST WELLSBORO PA 16901-1813
"BELLEFONTE EDUCATIONAL FOUNDATION, INC.",NONPROFIT,PA,,,,PA,830 E BISHOP ST,BELLEFONTE,16823-0,2343451,,,830 E BISHOP ST BELLEFONTE PA 16823-0 CENTRE,
"CB TECHNOLOGIES, INC.",CORPORATION,PA,350 EAGLEVIEW BLVD,EXTON,,,,,,2343452,KELLY IRELAND,PRESIDENT,1487 DUNWOODY DR WEST CHESTER PA 19380-0 CHESTER,350 EAGLEVIEW BLVD EXTON PA 19341-15
SKIDZ FOR KIDZ,CORPORATION,PA,,,,PA 19127-0 PHILADELPHIA,4872 SMICK ST,PHILADELPHIA,,2343453,MARIA TANNER,OWNER,4872 SMICK ST PHILADELPHIA PA 19127-0 PHILADELPHIA,
SOFIS HOUSE,CORPORATION,PA,,,,PA 19104-0 PHILADELPHIA,3901 WALNUT ST,PHILADELPHIA,,2343454,GUS RAPTIS,OWNER,3901 WALNUT ST PHILADELPHIA PA 19104-0 PHILADELPHIA,
EXPRESS PRINTING,CORPORATION,PA,,,,PA 19061-0 DELAWARE,3826 W 9TH ST,TRAINER,,2343456,LOUIS A RICH,OWNER,3826 W 9TH ST TRAINER PA 19061-0 DELAWARE,
PROFESSIONAL COMPUTER CORPORATION,CORPORATION,PA,,,,PA,23 SUMMIT SQUARE CTR,LANGHORNE,,2343457,"PROFESSIONAL SOFTWARE TECHNOLOGY, INC",OWNER,23 SUMMIT SQUARE CTR LANGHORNE PA 19047-0 BUCKS,
PAINTER'S TOUCH,CORPORATION,PA,,,,PA,183 WASHINGTON ST,DOYLESTOWN,,2343458,MICHAEL JOSEPH,OWNER,183 WASHINGTON ST DOYLESTOWN PA 18901-0 BUCKS,
SUNBEAM DAY CARE,CORPORATION,PA,,,,PA 19120-0 PHILADELPHIA,5147 N FAIRHILL ST,PHILADELPHIA,,2343459,MRS FRANCES WILLIAMS,OWNER,5147 N FAIRHILL ST PHILADELPHIA PA 19120-0 PHILADELPHIA,
EAST-COAST DENTURE LAB,CORPORATION,PA,,,,PA 19135-0 PHILADELPHIA,6936 TORRESDALE AVE,PHILADELPHIA,,2343460,WILLIAM E GILBERT II,OWNER,6936 TORRESDALE AVE PHILADELPHIA PA 19135-0 PHILADELPHIA,
LOUIS FEDELE T/A LE'ZURE,CORPORATION,PA,,,,PA 15217-0 ALLEGHENY,1937 MURRAY AVE,PITTSBURGH,,2343461,LESLIE D SIMS,OWNER,1937 MURRAY AVE PITTSBURGH PA 15217-0 ALLEGHENY,
RICH JANITORIAL,CORPORATION,PA,,,,PA,248 COLLER DR,GEORGETOWN,15043-0,2343464,KENNETH FRIEND,OWNER,248 COLLER DR GEORGETOWN PA 15043-0 BEAVER,
SONYA MONE'T,CORPORATION,PA,,,,PA 19139-0 PHILADELPHIA,329 N 53RD ST,PHILADELPHIA,,2343466,SONYA A WEAVER,OWNER,329 N 53RD ST PHILADELPHIA PA 19139-0 PHILADELPHIA,
"MEERA-DEEP ENTERPRISES, INC.",CORPORATION,PA,216 KELLY BLVD,PLAZA ESTATES SLIPPERY ROCK,,PA 15146-0 ALLEGHENY,4141 OLD WILLIAM PENN HIGHWAY,MONROEVILLE,,2343467,SUZANNE J D WALIA,PRESIDENT,4141 OLD WILLIAM PENN HIGHWAY MONROEVILLE PA 15146-0 ALLEGHENY,216 KELLY BLVD PLAZA ESTATES SLIPPERY ROCK PA 16057-10
AFFORDABLE LANDSCAPING,CORPORATION,PA,,,,PA,653 W 18TH ST,ERIE,,2343468,LINDA A DEANGELO,OWNER,653 W 18TH ST ERIE PA 16512-0 ERIE,
"HARBOR RV SALES, INC.",CORPORATION,PA,,,,PA 16116-0 LAWRENCE,RD #1 RTE 422,WEST EDINBURG,,2343470,HARBOR MOBILE HOME VILLAG,OWNER,RD #1 RTE 422 WEST EDINBURG PA 16116-0 LAWRENCE,
PRO-WASH,CORPORATION,PA,,,,,,,,2343471,JOANNE ANGELLO,OWNER,46 ARROWHEAD CIRCLE COLLEGEVILLE PA 19426-0 MONTGOMERY,
ELIA FOOD CORPORATION,CORPORATION,PA,1008 LINDALE AVE,DREXEL HILL,,PA 19026-0 DELAWARE,1008 LINDALE AVE,DREXEL HILL,,2343472,GEORGE CANAVATI,VICEPRESIDENT,1008 LINDALE AVE DREXEL HILL PA 19026-0 DELAWARE,1008 LINDALE AVE DREXEL HILL PA 19026-3309
"DOUBLE DIAMOND CONSTRUCTION CO., INC.",CORPORATION,PA,435 BEBOUT ROAD,VENETIA,,PA 15301-0 WASHINGTON,500 CRILE RD,WASHINGTON,,2343473,ROBERT S MCCLURE,VICEPRESIDENT,500 CRILE RD WASHINGTON PA 15301-0 WASHINGTON,435 BEBOUT ROAD VENETIA PA 15367-63
"YOHO CARPET & CERAMIC, INTERIORS BY CINDY",CORPORATION,PA,,,,PA 16105-0 LAWRENCE,505 EAST ENGLEWOOD AVE,NEW CASTLE,,2343474,MARK A YOHO,OWNER,505 EAST ENGLEWOOD AVE NEW CASTLE PA 16105-0 LAWRENCE,
"JINA TRADING CO., INC.",CORPORATION,PA,4140 WHITAKER AVE,PHILADELPHIA,,PA 19149-0 PHILADELPHIA,6622 OAKLAND ST,PHILADELPHIA,,2343475,YOO DIN SONG,PRESIDENT,6622 OAKLAND ST PHILADELPHIA PA 19149-0 PHILADELPHIA,4140 WHITAKER AVE PHILADELPHIA PA 19124-4240
"MOTOR CARS UNLIMITED, INC.",CORPORATION,PA,,,,PA,31 JERICHO RD,HOLLAND,,2343476,JANET MARKS,TREASURER,31 JERICHO RD HOLLAND PA 18966-0 BUCKS,6018 ROUTE 130 C/O DRU MARKS DELRAN NJ 08075
EXPRESSO WEXFORD,CORPORATION,PA,,,,,,,,2343477,JOHN C MILLER,OWNER,WEXFORD PLAZA SHOPPING CTR MCCANDLESS PA 15090-0 ALLEGHENY,
"M.R.W. DEVELOPERS, INC.",CORPORATION,PA,1837 CARDINAL LAKE DR,CHERRY HILL,,PA,703 CECIL B MOORE AVE,PHILADELPHIA,,2343478,MARK MOGIL,PRESIDENT,703 CECIL B MOORE AVE PHILADELPHIA PA 0 -0 PHILADELPHIA,1837 CARDINAL LAKE DR CHERRY HILL NJ 08003
BUCKETS AND BOWS,CORPORATION,PA,,,,PA,84 JAMES RD,LEWISBURG,,2343479,MYRA L HAMILTON,OWNER,84 JAMES RD LEWISBURG PA 17837-0 UNION,
"KINGSWOOD MORTGAGE, INC.",CORPORATION,PA,CO THOMAS ANGELINI 50 HIDDEN TURN,NEWTOWN,18938,PA,410 GREENWICH COURT,NEW HOPE,18938,2343480,MADELYN M BROWN,PRESIDENT,410 GREENWICH COURT NEW HOPE PA 18938 BUCKS,CO THOMAS ANGELINI 50 HIDDEN TURN NEWTOWN PA 18940-09
IDEA DEVELOPMENT SYSTEMS,CORPORATION,PA,,,,PA 19117-0 MONTGOMERY,347 HARRISON AVE,ELKINS PARK,,2343481,JOHN M SCHMIDT,OWNER,347 HARRISON AVE ELKINS PARK PA 19117-0 MONTGOMERY,
KTM ENT. INC.,CORPORATION,PA,5000 OGONTZ AVE,PHILADELPHIA,,PA,5000 OGONTZ AVE,PHILADELPHIA,,2343482,KHAN A KHAN,PRESIDENT,5000 OGONTZ AVE PHILADELPHIA PA 0 -0 PHILADELPHIA,5000 OGONTZ AVE PHILADELPHIA PA 19141-51
"TREEHOUSE COMMUNICATIONS, INC.",CORPORATION,PA,1851 S BLACKHORSE PIKE,WILLIAMSTOWN,,PA,105 THUNDER CIRCLE,BENSALEM,,2343483,STACEY SNYDER,TREASURER,105 THUNDER CIRCLE BENSALEM PA 19020-0 BUCKS,1851 S BLACKHORSE PIKE WILLIAMSTOWN NJ 08094
CROGNALE FAMILY PARTNERSHIP,CORPORATION,PA,,,,PA 19151-0 PHILADELPHIA,647 KENMORE RD,PHILADELPHIA,,2343484,SARAH COGNALE,OWNER,647 KENMORE RD PHILADELPHIA PA 19151-0 PHILADELPHIA,
FAIRWAY ELEVATOR COMPANY,CORPORATION,PA,26 GLEN LOCH WAY,MALVERN,,PA 19137-0 PHILADELPHIA,5301 TACONY ST BOX 231,PHILA,,2343485,WILLIAM KILLION,SECRETARY,5301 TACONY ST BOX 231 PHILA PA 19137-0 PHILADELPHIA,26 GLEN LOCH WAY MALVERN PA 19355-15
CROWN PLUMBING AND HEATING INC.,CORPORATION,PA,2000 CHERRY ST,JEFFERSON HILLS,,PA 15120-0 ALLEGHENY,263 LARKSPUR ST,MUNHALL,,2343486,KATHLEEN A GONZALES,VICEPRESIDENT,263 LARKSPUR ST MUNHALL PA 15120-0 ALLEGHENY,2000 CHERRY ST JEFFERSON HILLS PA 15025-3175
"PKT TECHNOLOGIES, INC.",CORPORATION,PA,C/O KINOL SHARRIE LEYH3740 MT ROYAL BLVD,ALLISON PARK,,PA 15275-0 ALLEGHENY,111 TECHNOLOGY DR,PITTSBURGH,,2343488,IRWIN HIRSH,TREASURER,111 TECHNOLOGY DR PITTSBURGH PA 15275-0 ALLEGHENY,C/O KINOL SHARRIE LEYH3740 MT ROYAL BLVD ALLISON PARK PA 15101-02
LITTLE CRICKETT HAIR SALON,CORPORATION,PA,,,,PA 15146-0 ALLEGHENY,KENMAR BLDG 204 KENMAR DR,MONROEVILLE,,2343489,TRUDY L MILLIGAN,OWNER,KENMAR BLDG 204 KENMAR DR MONROEVILLE PA 15146-0 ALLEGHENY,
FORGE SUPPLY COMPANY,CORPORATION,PA,ATTN GLENN REXROTH PO BOX 297,DALLASTOWN,17313,PA,465 LOCUST ST. P.O. BOX 98,DALLASTOWN,17313,2343490,ROBERT A KINSLEY,PRESIDENT,465 LOCUST ST. P.O. BOX 98 DALLASTOWN PA 17313 YORK,ATTN GLENN REXROTH PO BOX 297 DALLASTOWN PA 17313-67
"VAK SOFTWARE, INC.",CORPORATION,PA,3129 WEST CHESTER PIKE,NEWTOWN SQUARE,,PA 19073-0 DELAWARE,3129 WESTCHESTER PIKE,NEWTOWN SQUARE,,2343492,VERONICA LIADIS,TREASURER,3129 WESTCHESTER PIKE NEWTOWN SQUARE PA 19073-0 DELAWARE,3129 WEST CHESTER PIKE NEWTOWN SQUARE PA 19073-23
"HAWBAKER MADDIGAN & PARTNERS, INC.",CORPORATION,PA,STE 260 1 OLIVER PLZ,PITTSBURGH,,,,,,2343495,JOHN M MADDIGAN,PRESIDENT,%CT CORPORATION SYSTEM ALLEGHENY,STE 260 1 OLIVER PLZ PITTSBURGH PA 15222-02
S. LYNNE ASSOCIATES,CORPORATION,PA,,,,PA 19026-0 DELAWARE,4410 TOWNSHIP LINE RD APT 0-2C,DREXEL HILL,,2343496,STEPHANIE RICHARDSON,OWNER,4410 TOWNSHIP LINE RD APT 0-2C DREXEL HILL PA 19026-0 DELAWARE,
"MERCY ANESTHESIA CONSULTANTS, P.C.",CORPORATION,PA,C/O RON FITSER 345 PIERCE ST,KINGSTON,,PA 18765-0 LUZERNE,DEPT OF ANESTHESIOLOGY MERCY HOSPITAL 25 CHURCH ST,WILKES-BARRE,,2343497,MARY L DOUGLAS,TREASURER,DEPT OF ANESTHESIOLOGY MERCY HOSPITAL 25 CHURCH ST WILKES-BARRE PA 18765-0 LUZERNE,C/O RON FITSER 345 PIERCE ST KINGSTON PA 18704-40
HAHN SERVICES,CORPORATION,PA,,,,PA 18064-0 NORTHAMPTON,114 N MAIN ST,NAZARETH,,2343498,KERRY T HAHN,OWNER,114 N MAIN ST NAZARETH PA 18064-0 NORTHAMPTON,
J T REED INC.,CORPORATION,PA,130 S JOHNSON ST,HARRISBURG,,PA 17112-0 DAUPHIN,130 S JOHNSON ST,HARRISBURG,,2343499,JOHN A REED,PRESIDENT,130 S JOHNSON ST HARRISBURG PA 17112-0 DAUPHIN,130 S JOHNSON ST HARRISBURG PA 17112-22
ANTHONY'S RESTAURANT,CORPORATION,PA,,,,PA 17112-0 DAUPHIN,2201 FISHING CREEK VALLEY RD,HARRISBURG,,2343501,A LA CARTE ENTERPRISES INC,OWNER,2201 FISHING CREEK VALLEY RD HARRISBURG PA 17112-0 DAUPHIN,
DINNERBELL RESTAURANT EQUIPMENT,CORPORATION,PA,,,,PA,368 DINNERBELL RD,BUTLER,16001-0,2343502,MICHALSKI REFRIGERATION INC,OWNER,368 DINNERBELL RD BUTLER PA 16001-0 BUTLER,
PARKWOOD MANOR APARTMENTS,CORPORATION,PA,,,,PA 19041-0 DELAWARE,PO BOX 444 190 GOLF HOUSE RD,HAVERFORD,,2343503,M C INVESTORS INC,OWNER,PO BOX 444 190 GOLF HOUSE RD HAVERFORD PA 19041-0 DELAWARE,
BOW SPORT,CORPORATION,PA,117 TREICHLER RD,ALBURTIS,18011-0,PA,117 TREICHLER RD,ALBURTIS,18011-0,2343504,JENNIFER K SAUERWALD,OWNER,117 TREICHLER RD ALBURTIS PA 18011-0 LEHIGH,117 TREICHLER RD ALBURTIS PA 18011
CLUB UROPA/CAFE UROPA,CORPORATION,PA,,,,,,,,2343505,UROPA INC,OWNER,3813-3819 WILLIAM PENN HIGHWAY MONROEVILLE PA 15146-0 ALLEGHENY,
HOLIDAY INN-PHILADELPHIA AIRPORT,CORPORATION,PA,,,,PA 19029-0 DELAWARE,45 INDUSTRIAL HIGHWAY,ESSINGTON,,2343506,ZETA PHILADELPHIA HOTEL INC,OWNER,45 INDUSTRIAL HIGHWAY ESSINGTON PA 19029-0 DELAWARE,
JHL LANDSCAPING,CORPORATION,PA,701 S FRANKLIN STREET,WEST CHESTER,19382,PA,701 S FRANKLIN STREET,WEST CHESTER,19382,2343507,WARNER PROPERTY MANAGEMENT LLC,OWNER,701 S FRANKLIN STREET WEST CHESTER PA 19382 DELAWARE,701 S FRANKLIN STREET WEST CHESTER PA 19382
NEIGHBORHOOD MARKET,CORPORATION,PA,,,,PA 15206-0 ALLEGHENY,276 PAULSON AVE,PITTSBURGH,,2343508,NORMA J MARTIN,OWNER,276 PAULSON AVE PITTSBURGH PA 15206-0 ALLEGHENY,
WING IT,CORPORATION,PA,,,,PA 19145-0 PHILADELPHIA,2101 SOUTH 22ND ST,PHILADELPHIA,,2343510,SNDDN INC,OWNER,2101 SOUTH 22ND ST PHILADELPHIA PA 19145-0 PHILADELPHIA,
AMERICAN PHOENIX CORPORATION,CORPORATION,PA,,,,PA 17401-0 YORK,18 S GEORGE ST STE 701,YORK,,2343511,POOR BOWEN BARTLETT & KENNEDY OF PA INC,OWNER,18 S GEORGE ST STE 701 YORK PA 17401-0 YORK,
YESTERDAY'S FINE TREASURES,CORPORATION,PA,,,,PA 15601-0 WESTMORELAND,200 SOUTH PENNSYLVANIA AVE,GREENSBURG,,2343512,JOANN T SUKAY,OWNER,200 SOUTH PENNSYLVANIA AVE GREENSBURG PA 15601-0 WESTMORELAND,
BILL NELSON'S AUTO BEAUTY PARLOR,CORPORATION,PA,,,,,,,,2343513,WALI AHMAD HARRY,OWNER,LANCASTER & CENTRAL AVES PAOLI PA 19301-0 CHESTER,
AMERICAN PHOENIX CORPORATION OF PHILADELPHIA,CORPORATION,PA,,,,PA 19087-0 DELAWARE,150 RADNOR CHESTER RD STE A-100,ST DAVIDS,,2343514,AMERICAN PHOENIX INSURANCE AGENCY,OWNER,150 RADNOR CHESTER RD STE A-100 ST DAVIDS PA 19087-0 DELAWARE,
C & J COMPUTER SERVICES,CORPORATION,PA,,,,,,,,2343515,JOHN GUNDLING,OWNER,RR #1 BOX 84 A SPRINGVILLE PA 18844-0 SUSQUEHANNA,
DTP PLUS,CORPORATION,PA,,,,PA,10 REED ST,PHILADELPHIA,19147-5520,2343516,TOPAK MARKETING INC,OWNER,10 REED ST PHILADELPHIA PA 19147-5520 PHILADELPHIA,
COUNTY WIDE HOME REPAIR & MAINTENANCE,CORPORATION,PA,,,,PA 18640-0 LUZERNE,1353 MAIN ST,PITTSTON,,2343517,MARK J LOFTUS,OWNER,1353 MAIN ST PITTSTON PA 18640-0 LUZERNE,
NEIBAUER ADVERTISING AGENCY,CORPORATION,PA,,,,PA,20 INDUSTRIAL DR,IVYLAND,,2343518,LOUIS NEIBAUER CO INC,OWNER,20 INDUSTRIAL DR IVYLAND PA 18974-0 BUCKS,
AMTEL SYSTEMS EAST,CORPORATION,PA,,,,PA 19425-0 CHESTER,840 BIRCHRUN RD,CHESTER SPRINGS,,2343519,JOHN E TAYMAN JR,OWNER,840 BIRCHRUN RD CHESTER SPRINGS PA 19425-0 CHESTER,
CLASSIC CHARTERS,CORPORATION,PA,,,,PA 15005-0 ALLEGHENY,1590 WARRENDALE-BAYNE RD,BADEN,,2343520,ROWLAND E MILLER,OWNER,1590 WARRENDALE-BAYNE RD BADEN PA 15005-0 ALLEGHENY,
HEATER HOUSE,CORPORATION,PA,,,,PA,2047 W 12TH ST,ERIE,,2343521,ROBERT C HILTON,OWNER,2047 W 12TH ST ERIE PA 16505-0 ERIE,
NEON CLOCK DISPLAY CO,CORPORATION,PA,,,,,,,,2343522,,,UNKNOWN SCRANTON PA 0 -0 LACKAWANNA,
BROBEIS MGMT,CORPORATION,PA,,,,PA 19477-0 MONTGOMERY,3 TIMBER FARE PO BOX 749,SPRING HOUSE,,2343523,HARRY BEISSER,OWNER,3 TIMBER FARE PO BOX 749 SPRING HOUSE PA 19477-0 MONTGOMERY,
ACCURATE BUILDING CO.,CORPORATION,PA,,,,PA 15401-0 FAYETTE,33 FORBES ST,UNIONTOWN,,2343524,CARL P CHILDS,OWNER,33 FORBES ST UNIONTOWN PA 15401-0 FAYETTE,
RIDGE RUNNER PUBLICATIONS,CORPORATION,PA,,,,PA 17724-0 BRADFORD,17 TROY ST,CANTON,,2343525,MICHAEL B DIEFFENBACH,OWNER,17 TROY ST CANTON PA 17724-0 BRADFORD,
STYLIZED RAPTORS,CORPORATION,PA,,,,PA,577 SUMMER MOUNTAIN RD,BERNVILLE,,2343526,FLORA W WESNER,OWNER,577 SUMMER MOUNTAIN RD BERNVILLE PA 19506-0 BERKS,
KIP'S GOLF SHOP,CORPORATION,PA,,,,,,,,2343527,KIP D BUCKS,OWNER,"RD 4 BOX 4122, RT 222 FLEETWOOD PA 19522-0 BERKS",
LEHIGH INFORMATION CENTER,CORPORATION,PA,,,,PA,1039 MANOR DR,ALLENTOWN,18103-0,2343528,RAYMOND S DILEO,OWNER,1039 MANOR DR ALLENTOWN PA 18103-0 LEHIGH,
CAMPBELL BUS SERVICE,CORPORATION,PA,,,,PA,1005 PENNSYLVANIA AVE,MATAMORAS,18336-0,2343529,MITCHELL BUCHER,OWNER,1005 PENNSYLVANIA AVE MATAMORAS PA 18336-0,
SUMMY DESIGN BUILDERS,CORPORATION,PA,,,,PA 15683-0 WESTMORELAND,RD 1 BOX 334,SCOTTDALE,,2343530,SUSAN E SUMMY,OWNER,RD 1 BOX 334 SCOTTDALE PA 15683-0 WESTMORELAND,
LIMERICK CLEANERS,CORPORATION,PA,,,,PA 19468-0 MONTGOMERY,9 WEST MAIN ST,LIMERICK,,2343531,SEUNG K PARK,OWNER,9 WEST MAIN ST LIMERICK PA 19468-0 MONTGOMERY,
HELI TECH,CORPORATION,PA,,,,PA 15239-0 ALLEGHENY,8095 SALTSBURGH RD,PITTSBURGH,,2343532,MARIO FRATANGELO,OWNER,8095 SALTSBURGH RD PITTSBURGH PA 15239-0 ALLEGHENY,
NEW YORK RESTAURANT,CORPORATION,PA,,,,PA,1109 ELEVENTH ST,ALTOONA,,2343534,JOHN THEODOREN,OWNER,1109 ELEVENTH ST ALTOONA PA 0 -0 BLAIR,
RFM DEVELOPMENT,CORPORATION,PA,,,,PA 19128-0 PHILADELPHIA,409 B SHAWMONT AVE,PHILADELPHIA,,2343535,ROBERT F MARINO,OWNER,409 B SHAWMONT AVE PHILADELPHIA PA 19128-0 PHILADELPHIA,
RT 119 AUTO CORRAL,CORPORATION,PA,,,,PA 15771-0 INDIANA,RD 1 BOX 84,ROCHESTER MILLS,,2343536,VICTOR BONACASSIO,OWNER,RD 1 BOX 84 ROCHESTER MILLS PA 15771-0 INDIANA,
NEW YORK RESTAURANT,CORPORATION,PA,,,,PA,431-433 PENN ST,READING,,2343537,WILLIAM PAZARAS,OWNER,431-433 PENN ST READING PA 0 -0 BERKS,
STONE CREST FARMS,CORPORATION,PA,,,,PA 15601-0 WESTMORELAND,RD #12 BOX 400,GREENSBURG,,2343538,ADAM J BATTISTELLA,OWNER,RD #12 BOX 400 GREENSBURG PA 15601-0 WESTMORELAND,
NEW YORK RESTAURANT,CORPORATION,PA,,,,PA,618 LAWRENCE AVE,ELLWOOD CITY,,2343539,ZAFERIS ANASTASION,OWNER,618 LAWRENCE AVE ELLWOOD CITY PA 0 -0 MCKEAN,
NEW YORK RESTAURANT,CORPORATION,PA,,,,PA,765 CUMBERLAND ST,LEBANON,,2343540,JOHN D GRIMES,OWNER,765 CUMBERLAND ST LEBANON PA 0 -0 LEBANON,
NEW YORK RESTAURANT,CORPORATION,PA,,,,PA,55 N MAIN ST,WASHINGTON,,2343542,M B CONTES,OWNER,55 N MAIN ST WASHINGTON PA 0 -0 WASHINGTON,
NEW YORK RESTAURANT,CORPORATION,PA,,,,PA,48 CENTRE SQUARE,EASTON,,2343544,JOHN JANOS,OWNER,48 CENTRE SQUARE EASTON PA 0 -0 NORTHAMPTON,
NEW YORK RESTAURANT,CORPORATION,PA,,,,PA,28 E 3RD ST,BETHLEHEM,,2343545,VASSILIOS VARDAS,OWNER,28 E 3RD ST BETHLEHEM PA 0 -0 NORTHAMPTON,
NEW YORK RESTAURANT,CORPORATION,PA,,,,PA,6313 FRANKSTOWN AVE,PITTSBURGH,,2343546,MIKE ELESER,OWNER,6313 FRANKSTOWN AVE PITTSBURGH PA 0 -0 ALLEGHENY,
NEW HORIZONS MINISTRIES,CORPORATION,PA,,,,PA 15622-0 FAYETTE,RD 1 BOX 427,CHAMPION,,2343547,INDIAN CREEK VALLEY CHRISTIA,OWNER,RD 1 BOX 427 CHAMPION PA 15622-0 FAYETTE,
HAPPY TAILS FARM,CORPORATION,PA,,,,,,,,2343548,KATHRYN I SACHS,OWNER,692 SOUTH MAIN RD DORRANCE TWP MOUNTAINTOP PA 18707-0 LUZERNE,
NEW YORK RESTAURANT,CORPORATION,PA,,,,PA,4930 WOODLAND AVE,PHILADELPHIA,,2343549,SPEREGIANIS HANOS,OWNER,4930 WOODLAND AVE PHILADELPHIA PA 0 -0 PHILADELPHIA,
SACKS TAILOR SHOP,CORPORATION,PA,127 S BLAKELY ST,DUNMORE,,PA 18512-0 LACKAWANNA,127 S BLAKELY ST,DUNMORE,,2343550,RICHARD A SABATO JR,OWNER,127 S BLAKELY ST DUNMORE PA 18512-0 LACKAWANNA,127 S BLAKELY ST DUNMORE PA 18512
NEW YORK RESTAURANT,CORPORATION,PA,,,,PA,55 N MAIN ST,WASHINGTON,,2343551,KLEANTHIS HEREVIS,OWNER,55 N MAIN ST WASHINGTON PA 0 -0 WASHINGTON,
NEW YORK RESTAURANT,CORPORATION,PA,,,,,,,,2343553,GEORGE PAKAS,OWNER,VEMOUR HOTEL SOMERSET PA 0 -0 SOMERSET,
EASY SOFTWARE PLUS,CORPORATION,PA,,,,PA 19018-0 DELAWARE,305 WEST WYNCLIFFE AVE,CLIFTON HEIGHTS,,2343554,PAUL CARABELLO,OWNER,305 WEST WYNCLIFFE AVE CLIFTON HEIGHTS PA 19018-0 DELAWARE,
T & E GIFTS & MORE,CORPORATION,PA,,,,PA,6610 SHADY AVE (PO BOX 1568,WASHINGTON,15301),2343555,TONI SUE V KUC,OWNER,6610 SHADY AVE (PO BOX 1568 WASHINGTON PA 15301) FINLEYVILLE PA 15332-0 WASHINGTON,
AIR CLINIC,CORPORATION,PA,,,,PA 19454-0 MONTGOMERY,414 SCHOOL ST,NORTH WALES,,2343556,SCHUYLKILL RIVER TOURS INC,OWNER,414 SCHOOL ST NORTH WALES PA 19454-0 MONTGOMERY,
HEALTHFUL TOUCH,CORPORATION,PA,,,,,,,,2343557,MARIA D MANN,OWNER,181 PENNWOOD AVE APT D EDGEWOOD PA 15218-0 ALLEGHENY,
JENAMY MUSIC,CORPORATION,PA,,,,,,,,2343558,JEANNETTE A AVILA,OWNER,3424 SUGAN RD RD 1 BOX 150-A NEW HOPE PA 18938-0 BUCKS,
HOOVER EQUIPMENT,CORPORATION,PA,,,,PA,RD #4 BOX 375,TYRONE,,2343559,JOHN S HOOVER JR,OWNER,RD #4 BOX 375 TYRONE PA 16686-0 BLAIR,
TOTAL AUTOMATION CONCEPTS,CORPORATION,PA,,,,PA 19350-0 CHESTER,3 FRANKLIN RD,LANDENBURG,,2343560,LAURIE KRAUSS KIERNAN,OWNER,3 FRANKLIN RD LANDENBURG PA 19350-0 CHESTER,
SOCIETY OF MYSTICS,CORPORATION,PA,,,,PA 17313-0 YORK,318 W MAIN ST,DALLASTOWN,,2343561,REV R N CHI,OWNER,318 W MAIN ST DALLASTOWN PA 17313-0 YORK,
TRI-STATE ENVIRONMENTAL PRODUCTS,CORPORATION,PA,,,,PA,24 MODERN LANE,OTTSVILLE,,2343562,MODERN CONCRETE SEPTIC TANK CO,OWNER,24 MODERN LANE OTTSVILLE PA 18942-0 BUCKS,
HILL-TOP COMMERCE PARK,CORPORATION,PA,,,,PA 15228-0 ALLEGHENY,421 COCHRAN RD STE 205,PITTSBURGH,,2343563,H L T INC,OWNER,421 COCHRAN RD STE 205 PITTSBURGH PA 15228-0 ALLEGHENY,
B & W JANITORIAL,CORPORATION,PA,,,,PA,WEIR LAKE RD RR 3 BOX 209,KRESGEVILLE,18333-0,2343564,WILLIAM HELMAN,OWNER,WEIR LAKE RD RR 3 BOX 209 KRESGEVILLE PA 18333-0 MONROE,
IMAGE IS EVERYTHING,CORPORATION,PA,,,,PA 15212-0 ALLEGHENY,3122 SHADELAND AVE,PITTSBURGH,,2343566,LAUREN L GOGAL,OWNER,3122 SHADELAND AVE PITTSBURGH PA 15212-0 ALLEGHENY,
LOVE-A-CHILD DAY CARE,CORPORATION,PA,,,,PA,5413 CHESTER AVE,PHILADELPHIA,,2343567,WILHELMINA DAVIS,OWNER,5413 CHESTER AVE PHILADELPHIA PA 0 -0 PHILADELPHIA,
PARADISE GROUP,CORPORATION,PA,,,,PA 17603-0 LANCASTER,336 W KING ST,LANCASTER,,2343568,PARADISE REALTY INC,OWNER,336 W KING ST LANCASTER PA 17603-0 LANCASTER,
DARLING PHOTOGRAPHY,CORPORATION,PA,,,,PA,10156 FERNDALE ST,PHILADELPHIA,19116,2343570,LARRY DARLING,OWNER,10156 FERNDALE ST PHILADELPHIA PA 19116 PHILADELPHIA,
MON-VALLEY PLASTIC,CORPORATION,PA,,,,PA 14517-0 FAYETTE,115 JEFFERSON PIKE,BROWNSVILLE,,2343571,RICHARD A KIEFER,OWNER,115 JEFFERSON PIKE BROWNSVILLE PA 14517-0 FAYETTE,
NATIONAL PRIVATE PENSION PLANS,CORPORATION,PA,,,,PA 19422-0 MONTGOMERY,74 HIGH GATE LANE,BLUE BELL,,2343572,BERT RUBENSTEIN,OWNER,74 HIGH GATE LANE BLUE BELL PA 19422-0 MONTGOMERY,
RT 19 ANTIQUE MALL,CORPORATION,PA,,,,PA 15317-0 WASHINGTON,RD 2 BOX 171-A WASHINGTON RD,CANONSBURG,,2343573,KATHRYNE GENTILE,OWNER,RD 2 BOX 171-A WASHINGTON RD CANONSBURG PA 15317-0 WASHINGTON,
DRP CONTRACTING,CORPORATION,PA,,,,PA 15301-0 WASHINGTON,RD 3 BOX 96,WASHINGTON,,2343574,DARREN R PUSHEY,OWNER,RD 3 BOX 96 WASHINGTON PA 15301-0 WASHINGTON,
"DOUBLE ""B"" HAULING & EXCAVATING",CORPORATION,PA,,,,PA 15563-0 SOMERSET,RD 3 BOX 61,STOYSTOWN,,2343576,SCOTT E BECKNER,OWNER,RD 3 BOX 61 STOYSTOWN PA 15563-0 SOMERSET,
SHEAR IMPRESSIONS,CORPORATION,PA,,,,PA,134 CENTER DR,CHICORA,16025-0,2343577,REBECCA ANN ELLIOTT,OWNER,134 CENTER DR CHICORA PA 16025-0 BUTLER,
GOLF CARTS UNLIMITED,CORPORATION,PA,,,,PA,324 NORTH ROAD,BUTLER,16001-0,2343578,JEFFERY A DIMIT,OWNER,324 NORTH ROAD BUTLER PA 16001-0 BUTLER,
NEHOC MEATS,CORPORATION,PA,,,,,,,,2343579,JOSEPH S COHEN,OWNER,UNKNOWN PHILADELPHIA PA 0 -0 PHILADELPHIA,
IMPERIAL CHEF'S,CORPORATION,PA,,,,PA,219 W BROAD ST,QUAKERTOWN,,2343580,THOMAS Y S LEE,OWNER,219 W BROAD ST QUAKERTOWN PA 18951-0 BUCKS,
"NEHI BOTTLING COMPANY OF MCKEESPORT, PENNSYLVANIA",CORPORATION,PA,,,,PA,514 PACIFIC AVE,MCKEESPORT,,2343581,ROYAL CROWN BOTTLING COMPANY OF WARRINGT,OWNER,514 PACIFIC AVE MCKEESPORT PA 0 -0 ALLEGHENY,
GEORGE NEIDERMYER CO,CORPORATION,PA,,,,,,,,2343582,GEORGE NEIDERMYER,OWNER,UNKNOWN MCKEESPORT PA 0 -0 ALLEGHENY,
EAGLE WASTE DISPOSAL,CORPORATION,PA,,,,PA,9 LOGAN BLVD,ALTOONA,,2343583,HORVATH SANITATION INC,OWNER,9 LOGAN BLVD ALTOONA PA 16602-0 BLAIR,
NEIBERT'S BARBER SHOP,CORPORATION,PA,,,,PA 17055-0 CUMBERLAND,12 N MARKET ST,MECHANICSBURG,,2343584,CHARLES CARL DUREKA JR,OWNER,12 N MARKET ST MECHANICSBURG PA 17055-0 CUMBERLAND,
NEID'S JEWELERS,CORPORATION,PA,,,,,,,,2343585,ROSE NEIDERMAN,OWNER,UNKNOWN PHILADELPHIA PA 0 -0 PHILADELPHIA,
NEIDERMYER'S BROASTED CHICKEN,CORPORATION,PA,,,,PA,241 LANCASTER PIKE WEST,SHILLINGTON,,2343586,THE NEIDERMYER CORPORATION,OWNER,241 LANCASTER PIKE WEST SHILLINGTON PA 19607-0 BERKS,
CASUAL CLOTHING,CORPORATION,PA,,,,PA,RTE 739 RR 1 BOX 86W,DINGMAN FERRY,18328-0,2343587,SHERRY LONGANO,OWNER,RTE 739 RR 1 BOX 86W DINGMAN FERRY PA 18328-0,
NEIBAUER PROPERTY ASSOCIATES,CORPORATION,PA,,,,PA,20 INDUSTRIAL DR,IVYLAND,,2343588,NATHAN NEIBAUER,OWNER,20 INDUSTRIAL DR IVYLAND PA 0 -0 BUCKS,
NEIDICK-OLD DUTCH COMPANY,CORPORATION,PA,,,,,,,,2343589,,,UNKNOWN PHILADELPHIA PA 0 -0 PHILADELPHIA,
NEIDIG'S OPTICIANS,CORPORATION,PA,,,,PA 17701-0 LYCOMING,151 EAST THIRD ST,WILLIAMSPORT,,2343590,JOSEPH A CAMPANS,OWNER,151 EAST THIRD ST WILLIAMSPORT PA 17701-0 LYCOMING,
NEIDERMYER'S PENN DUTCH POULTRY PRODUCTS,CORPORATION,PA,,,,,,,,2343591,FRED J NEIDERMYER,OWNER,RD1 LEOLA PA 17540-0 LANCASTER,
NEIDHART AUTO SALES,CORPORATION,PA,,,,,,,,2343592,JOSEPH M NEIDHARDT,OWNER,UNKNOWN EMSWORTH PA 0 -0 ALLEGHENY,
NEON MANUFACTURING COMPANY,CORPORATION,PA,,,,,,,,2343593,FREDERICK ANTON NIEPP JR,OWNER,UNKNOWN PITTSBURGH PA 0 -0 ALLEGHENY,
NEON REPAIR & SERVICE CO,CORPORATION,PA,,,,,,,,2343594,,,UNKNOWN PITTSBURGH PA 0 -0 ALLEGHENY,
NEIDIG'S STRAUSER HOME IMPROVEMENT CO,CORPORATION,PA,,,,,,,,2343595,WILLIAM C NEIDIG,OWNER,UNKNOWN NORTHUMBERLAND PA 0 -0 NORTHUMBERLAND,
"NEIBAUER PRESS, INC.",CORPORATION,PA,,,,PA,20 INDUSTRIAL DRIVE,IVYLAND,,2343596,LOUIS NEIBAUR CO INC,OWNER,20 INDUSTRIAL DRIVE IVYLAND PA 18974-0 BUCKS,
NEON SALES & SERVICE CO,CORPORATION,PA,,,,,,,,2343597,WILLIAM E STOUGH,OWNER,UNKNOWN CAMP HILL PA 0 -0 CUMBERLAND,
NEIDIG'S AMERICAN POWDER,CORPORATION,PA,,,,,,,,2343598,ARTHUR M NEIDIG,OWNER,UNKNOWN NORTHUMBERLAND PA 0 -0 NORTHUMBERLAND,
"NEIBERG, A L HARDWARE",CORPORATION,PA,,,,,,,,2343599,LORIS HOSTNICK,OWNER,UNKNOWN WEST NEWTON PA 0 -0 WESTMORELAND,
NEID'S JEWELERS,CORPORATION,PA,,,,,,,,2343600,SAMUEL NEIDERMAN,OWNER,UNKNOWN PHILADELPHIA PA 0 -0 PHILADELPHIA,
NEON SIGN COMPANY,CORPORATION,PA,,,,,,,,2343601,,,UNKNOWN PHILADELPHIA PA 0 -0 PHILADELPHIA,
NEON SIGN COMPANY,CORPORATION,PA,,,,,,,,2343602,,,UNKNOWN KULPMONT PA 0 -0 NORTHUMBERLAND,
NEHI BOTTLING COMPANY,CORPORATION,PA,,,,,,,,2343603,,,UNKNOWN WASHINGTON PA 0 -0 WASHINGTON,
NEON SIGN SERVICE & ANIMATION,CORPORATION,PA,,,,,,,,2343604,HARRY DRAGON,OWNER,UNKNOWN PHILADELPHIA PA 0 -0 PHILADELPHIA,
NEHI BOTTLING COMPANY,CORPORATION,PA,,,,,,,,2343605,,,UNKNOWN FARRELL PA 0 -0 MERCER,
THE NEON WERKS,CORPORATION,PA,,,,PA 15220-0 ALLEGHENY,1 NOBLESTOWN RD,PITTSBURGH,,2343606,FRED A NIEPP JR,OWNER,1 NOBLESTOWN RD PITTSBURGH PA 15220-0 ALLEGHENY,
NEIDICH AND LOVERIDGE CREDIT ADJUSTMENT SERVICE,CORPORATION,PA,,,,,,,,2343607,GUY H LOVERIDGE,OWNER,UNKNOWN OIL CITY PA 0 -0 VENANGO,
NELSON'S FLOOR AND RUG CARE,CORPORATION,PA,,,,,,,,2343608,NELSON E PELLICCIOTTI,OWNER,R D #1 DOUGLASSVILLE PA 0 -0 BERKS,
NEONATAL MANAGEMENT SERVICES,CORPORATION,PA,,,,PA,104 E 2ND ST,ERIE,,2343609,RONALD F ZIEZIULA MD,OWNER,104 E 2ND ST ERIE PA 16507-0 ERIE,
NEW WAY TRANSPORT CO.,CORPORATION,PA,,,,,,,,2343610,SIDNEY KABINOFF,OWNER,UNKNOWN PHILADELPHIA PA 0 -0 PHILADELPHIA,
NEOPOLITAN DELICATESSEN,CORPORATION,PA,,,,PA 19312-0 CHESTER,1022 LANCASTER AVE,BERWYN,,2343611,PHYLLIS M MOYER,OWNER,1022 LANCASTER AVE BERWYN PA 19312-0 CHESTER,
"NEIDHARDT, WILLIAM G.",CORPORATION,PA,,,,,,,,2343612,WILLIAM NEIDHARDT JR,OWNER,UNKNOWN PHILADELPHIA PA 0 -0 PHILADELPHIA,
NEPTUNE BAR & GRILL,CORPORATION,PA,,,,PA,138 E 8TH AVE,HOMESTEAD,,2343613,MILTON W JENKINS,OWNER,138 E 8TH AVE HOMESTEAD PA 0 -0 ALLEGHENY,
NELLIE-KELLY FRUIT STAND,CORPORATION,PA,,,,PA,226 BRADFORD ST,SOUTH WAVERLY,,2343615,FRANK J ANGELO,OWNER,226 BRADFORD ST SOUTH WAVERLY PA 0 -0 BRADFORD,
NEPP,CORPORATION,PA,,,,,,,,2343616,,,UNKNOWN PHILADELPHIA PA 0 -0 PHILADELPHIA,
NELLIE'S RESTAURANT,CORPORATION,PA,,,,,,,,2343617,WILSON THOMPSON,OWNER,R D #2 DOVER PA 0 -0 YORK,
NEPSA COMPANY,CORPORATION,PA,,,,,,,,2343618,,,UNKNOWN SCRANTON PA 0 -0 LACKAWANNA,
NEPTONE INDUSTRIES,CORPORATION,PA,,,,PA,6315 STENTON AVE,PHILADELPHIA,,2343619,KENNETH A NEUGENT,OWNER,6315 STENTON AVE PHILADELPHIA PA 0 -0 PHILADELPHIA,
NELLO'S LUNCH ROOM,CORPORATION,PA,,,,,,,,2343620,,,UNKNOWN COVERDALE PA 0 -0 ALLEGHENY,
NEIGHBORHOOD BAKERY,CORPORATION,PA,,,,,,,,2343621,,,UNKNOWN KULPMONT PA 0 -0 NORTHUMBERLAND,
NELLO'S RESTAURANT,CORPORATION,PA,,,,,,,,2343622,4-D LAND CO INC,OWNER,400 ISLAND AVENUE MCKEES ROCKS PA 0 -0 ALLEGHENY,
NEPTUNE ADVERTISING ASSOCIATES,CORPORATION,PA,,,,,,,,2343623,MICHAEL KOSMIN,OWNER,CEDARBROOK HILL APTS NO B-724 GREENWOOD & OGONTZ AVES WYNCOTE PA 0 -0 MONTGOMERY,
NELLY VICTOR,CORPORATION,PA,,,,,,,,2343624,,,UNKNOWN PHILADELPHIA PA 0 -0 PHILADELPHIA,
THE NEIGHBORHOOD ADVERTISER,CORPORATION,PA,,,,,,,,2343625,CLARENCE Z JACKSON,OWNER,UNKNOWN PHILADELPHIA PA 0 -0 PHILADELPHIA,
NEPTUNE CHEMICAL PUMP CO.,CORPORATION,PA,,,,PA,WELSH RD PO BOX 47,LANSDALE,,2343626,ROBERT F APTER,OWNER,WELSH RD PO BOX 47 LANSDALE PA 0 -0 MONTGOMERY,
NEOSPOND MEDICAL DESIGN,CORPORATION,PA,,,,PA 19063-0 DELAWARE,217 RIDGEWOOD RD,MEDIA,,2343627,MARLENE C CROCE,OWNER,217 RIDGEWOOD RD MEDIA PA 19063-0 DELAWARE,
NELMES & SONS,CORPORATION,PA,,,,,,,,2343628,,,UNKNOWN SALTSBURGH PA 0 -0 INDIANA,
NEIGHBOR'S HAIR STYLES,CORPORATION,PA,,,,PA 15085-0 WESTMORELAND,601C HARRISON CITY RD,TRAFFORD,,2343629,KIMBERLY A NAPOLITANO,OWNER,601C HARRISON CITY RD TRAFFORD PA 15085-0 WESTMORELAND,
NEP SHEET METAL CO.,CORPORATION,PA,,,,PA 18509-0 LACKAWANNA,611 GLENN ST,SCRANTON,,2343630,JEAN HARRINGTON,OWNER,611 GLENN ST SCRANTON PA 18509-0 LACKAWANNA,
NEPA PUBLISHING COMPANY,CORPORATION,PA,,,,,,,,2343631,GENE J COLEMAN,OWNER,UNKNOWN FACTORYVILLE PA 0 -0 WYOMING,
NEPAL ART IMPORTS,CORPORATION,PA,,,,,,,,2343632,ROBERT DEITCH,OWNER,289 NANDIAN PLACE PHILADELPHIA PA 0 -0 PHILADELPHIA,
NELMS MOTOR COMPANY,CORPORATION,PA,,,,,,,,2343633,JAMES H NELMS,OWNER,UNKNOWN THORNDALE PA 0 -0 CHESTER,
NEPENTHE RESTAURANT,CORPORATION,PA,,,,,,,,2343634,ROBERT D SHEPLER,OWNER,SKI SLOPE RD BEAR ROCKS ACME PA 15610-0 WESTMORELAND,
NEIGHBORHOOD ACTION BUREAU,CORPORATION,PA,,,,PA 19133-0 PHILADELPHIA,923 W STERNER ST,PHILADELPHIA,,2343635,JAMES F YOUNG,OWNER,923 W STERNER ST PHILADELPHIA PA 19133-0 PHILADELPHIA,
NELLIE FOX SPORT SHOP,CORPORATION,PA,,,,,,,,2343636,HAROLD L MCCLEARY,OWNER,R R 6 CHAMBERSBURG PA 0 -0 FRANKLIN,
NEOPOLITAN PIZZERIA,CORPORATION,PA,,,,PA,121 S MAIN ST,SHENANDOAH,,2343637,FRANK MALOCU,OWNER,121 S MAIN ST SHENANDOAH PA 0 -0 SCHUYLKILL,
NEIGHBORHOOD BEAUTY SHOP,CORPORATION,PA,,,,,,,,2343638,IRENE N COHN,OWNER,UNKNOWN EASTON PA 18042-0 NORTHAMPTON,
NEOVATIONS,CORPORATION,PA,,,,PA 19124-0 PHILADELPHIA,1665 DYRE ST,PHILADELPHIA,,2343639,ROSS L MICHELL,OWNER,1665 DYRE ST PHILADELPHIA PA 19124-0 PHILADELPHIA,
NELSON ALEXANDER LABORATORIES,CORPORATION,PA,,,,PA,BEECH TREE LANE,STRAFFORD,,2343640,,,BEECH TREE LANE STRAFFORD PA 0 -0 CHESTER,
NEIGHBORHOOD BEAUTY SHOP,CORPORATION,PA,,,,,,,,2343641,ANDREW E CIAMBRONE,OWNER,UNKNOWN EASTON PA 18042-0 NORTHAMPTON,
NEPA IMPORTS,CORPORATION,PA,,,,PA 19131-0 PHILADELPHIA,5106 WOODBINE AVE,PHILADELPHIA,,2343642,ROBERT A CURRY,OWNER,5106 WOODBINE AVE PHILADELPHIA PA 19131-0 PHILADELPHIA,
THE NELSON ACADEMY OF BEAUTY CULTURE,CORPORATION,PA,,,,,,,,2343643,,,UNKNOWN HUNTINGDON PA 0 -0 HUNTINGDON,
NEPACO INTERNATIONAL,CORPORATION,PA,,,,,,,,2343644,MICHELLE A THRESHMAN,OWNER,R R 1 BOX 172 HAWLEY PA 18428-0 WAYNE,
THE NELSON ACADEMY OF BEAUTY CULTURE,CORPORATION,PA,,,,,,,,2343645,,,UNKNOWN HUNTINGDON PA 0 -0 HUNTINGDON,
NEPCO ENTERPRISES,CORPORATION,PA,,,,PA,229 S PROSPECT ST,CONNELLSVILLE,,2343646,RICHARD F NERO,OWNER,229 S PROSPECT ST CONNELLSVILLE PA 0 -0 FAYETTE,
NEIGHBORHOOD-AD-SERVICE,CORPORATION,PA,,,,,,,,2343647,O PELL,OWNER,UNKNOWN PHILADELPHIA PA 0 -0 PHILADELPHIA,
NELSON'S BOUQUET SHOP,CORPORATION,PA,,,,,,,,2343648,ELIZABETH E NELSON,OWNER,UNKNOWN NEW CASTLE PA 0 -0 LAWRENCE,
NEON RAY SALES COMPANY,CORPORATION,PA,,,,,,,,2343649,,,UNKNOWN PHILADELPHIA PA 0 -0 PHILADELPHIA,
NEIGHBORHOOD CASH,CORPORATION,PA,,,,PA 19006-0 MONTGOMERY,3861 WHEATSHEAF RD,HUNTINGDON VALLEY,,2343650,ALLAN JASPAN,OWNER,3861 WHEATSHEAF RD HUNTINGDON VALLEY PA 19006-0 MONTGOMERY,
NEON REPAIR AND SERVICE COMPANY,CORPORATION,PA,,,,,,,,2343651,WILLIAM C BRATTON,OWNER,UNKNOWN PITTSBURGH PA 0 -0 ALLEGHENY,
THE NEON SHOP,CORPORATION,PA,,,,,,,,2343652,GEORGE M FLICKINGER,OWNER,UNKNOWN LEWISTOWN PA 0 -0 MIFFLIN,
NEIGHBORHOOD CHECK CASHING SERVICE,CORPORATION,PA,,,,,,,,2343653,YETTA D WEINSTOCK,OWNER,UNKNOWN PHILADELPHIA PA 0 -0 PHILADELPHIA,
NELSON'S,CORPORATION,PA,,,,PA,1920 MARSHALL ST,NORRISTOWN,,2343654,FIARMONT FOODS COMPANY,OWNER,1920 MARSHALL ST NORRISTOWN PA 0 -0 MONTGOMERY,
NEON SIGN SERVICE,CORPORATION,PA,,,,,,,,2343655,PAUL M TUBBS,OWNER,UNKNOWN GALETON PA 0 -0 POTTER,
NEIGHBORHOOD DAIRY,CORPORATION,PA,,,,,,,,2343656,HARRIET STANGER,OWNER,UNKNOWN FARRELL PA 0 -0 MERCER,
NEON SIGN AND SERVICE COMPANY,CORPORATION,PA,,,,,,,,2343657,,,UNKNOWN KULPMONT PA 0 -0 NORTHUMBERLAND,
NEIGHBORHOOD FINE CLEANERS,CORPORATION,PA,,,,,,,,2343658,TED R NICHOLS,OWNER,UNKNOWN PHILADELPHIA PA 0 -0 PHILADELPHIA,
NELSON'S,CORPORATION,PA,,,,,,,,2343659,SARA LUBER,OWNER,UNKNOWN PHILADELPHIA PA 0 -0 PHILADELPHIA,
NEON SIGN SUPPLY COMPANY,CORPORATION,PA,,,,,,,,2343660,,,UNKNOWN PHILADELPHIA PA 0 -0 PHILADELPHIA,
NEONATAL CONSULTANTS,CORPORATION,PA,,,,PA 19083-0 DELAWARE,504 WYNNE AVE,HAVERTOWN,,2343661,STEPHEN BAUMGART ETC,OWNER,504 WYNNE AVE HAVERTOWN PA 19083-0 DELAWARE,
NEIGHBORHOOD FUEL OIL,CORPORATION,PA,,,,PA,1501 W PARRISH ST,PHILADELPHIA,,2343662,JOHN H WILLIAMS,OWNER,1501 W PARRISH ST PHILADELPHIA PA 0 -0 PHILADELPHIA,
"THE ALBERT M. NELSON JR., GOLF PLAYING COMPANY",CORPORATION,PA,,,,,,,,2343663,WILLIAM R COSBY,OWNER,UNKNOWN PHILADELPHIA PA 0 -0 PHILADELPHIA,
NEONETTE DISPLAY CO,CORPORATION,PA,,,,,,,,2343664,,,UNKNOWN PHILADELPHIA PA 0 -0 PHILADELPHIA,
"NELSON-AMERICAN DEVELOPERS, LTD., A LIMITED PARTNERSHIP",CORPORATION,PA,,,,,,,,2343665,NNI CORP,OWNER,SUITE 960 1617 JOHN F KENNEDY BOULEVARD PHILADELPHIA PA 0 -0 PHILADELPHIA,
THE NEIGHBORHOOD GROCER,CORPORATION,PA,,,,PA 16666-0 CLEARFIELD,87 CURTIN ST,OSCEOLA MILLS,,2343666,DENNIS L YARGER,OWNER,87 CURTIN ST OSCEOLA MILLS PA 16666-0 CLEARFIELD,
NEOPOLITAN PASTRY SHOPPE,CORPORATION,PA,,,,PA,321 BRIDGE ST,PHOENIXVILLE,,2343667,SAMUEL M NAPLES,OWNER,321 BRIDGE ST PHOENIXVILLE PA 0 -0 CHESTER,
NELSCRAFT CO.,CORPORATION,PA,,,,PA,4940 N FRANKLIN ST,PHILADELPHIA,,2343668,JERRY NELSON,OWNER,4940 N FRANKLIN ST PHILADELPHIA PA 0 -0 PHILADELPHIA,
NEPTUNE MANUFACTURING COMPANY,CORPORATION,PA,,,,,,,,2343669,HELEN K DILKES,OWNER,UNKNOWN PHILADELPHIA PA 0 -0 PHILADELPHIA,
NELSON & ASSOCIATES,CORPORATION,PA,,,,PA 19106-0 PHILADELPHIA,320 WALNUT ST,PHILADELPHIA,,2343670,NELSON & ASSOCIATES INTERIOR DESIGN,OWNER,320 WALNUT ST PHILADELPHIA PA 19106-0 PHILADELPHIA,
NELSON'S AUTO SERVICE,CORPORATION,PA,,,,PA,1814 SWISSVALE AVE,PITTSBURGH,,2343671,PAUL D NELSON ET AL,OWNER,1814 SWISSVALE AVE PITTSBURGH PA 0 -0 ALLEGHENY,
MONTEREY ASSOCIATES,CORPORATION,PA,,,,PA 19143-0 PHILADELPHIA,904 SOUTH 46TH ST,PHILADELPHIA,,2343673,THOMAS CALLIS JR,OWNER,904 SOUTH 46TH ST PHILADELPHIA PA 19143-0 PHILADELPHIA,
MCCLURG AND BAGNALL,CORPORATION,PA,,,,PA,PATTON ST & WATKINS AVE,WILMERDING,,2343674,GEORGE L BAGNALL,OWNER,PATTON ST & WATKINS AVE WILMERDING PA 0 -0 ALLEGHENY,
B NELSON AND COMPANY,CORPORATION,PA,,,,,,,,2343675,,,UNKNOWN PHILADELPHIA PA 0 -0 PHILADELPHIA,
"NEIGER, H W MILLING COMPANY",CORPORATION,PA,,,,,,,,2343676,MARION M NEIGER,OWNER,UNKNOWN NORTH GIRARD PA 0 -0 ERIE,
MONTEREY TEA HOUSE,CORPORATION,PA,,,,,,,,2343677,ROSCOE C FITZ,OWNER,UNKNOWN BLUE RIDGE SUMMIT PA 0 -0 FRANKLIN,
BILL NELSON AUTOMOBILES,CORPORATION,PA,,,,PA,1202-1206 UNION BLVD,ALLENTOWN,18103-0,2343678,WILLIAM N CAWTHRAY,OWNER,1202-1206 UNION BLVD ALLENTOWN PA 18103-0 LEHIGH,
NELSON-BRYEN SALES COMPANY,CORPORATION,PA,,,,,,,,2343680,,,UNKNOWN PHILADELPHIA PA 0 -0 PHILADELPHIA,
THE MONTESSORI CENTRE ACADEMY,CORPORATION,PA,,,,PA 15116-0 ALLEGHENY,1014 WM. FLYNN HIGHWAY,GLENSHAW,,2343681,YOLANDA N SWEENIE,OWNER,1014 WM. FLYNN HIGHWAY GLENSHAW PA 15116-0 ALLEGHENY,
NEIGHBOR-MART,CORPORATION,PA,,,,PA,2259 N 6TH ST,HARRISBURG,,2343682,"PROGRESSIVE ENTERPRISES, INC.",OWNER,2259 N 6TH ST HARRISBURG PA 0 -0 DAUPHIN,
ARTHUR NELSON ENTERPRISES,CORPORATION,PA,,,,PA,520 MARCEL DR,HARRISBURG,,2343683,ARTHUR F NELSON JR ET AL,OWNER,520 MARCEL DR HARRISBURG PA 0 -0 DAUPHIN,
LIBERTY DRESS MFG. CO.,CORPORATION,PA,,,,,,,,2343684,NICKLOS PFURSICH,OWNER,823 PENN AVENUE 4TH FLOOR PITTSBURGH PA 0 -0 ALLEGHENY,
MONTEVERDE'S,CORPORATION,PA,,,,PA 15222-0 ALLEGHENY,219 FT. PITT BLVD,PITTSBURGH,,2343685,MONTEVERDE'S INC,OWNER,219 FT. PITT BLVD PITTSBURGH PA 15222-0 ALLEGHENY,
NELSON AUTO BROKERS,CORPORATION,PA,,,,PA,88 BAKER AVE,HERMITAGE,16148-0,2343686,VINCENT L NELSON,OWNER,88 BAKER AVE HERMITAGE PA 16148-0 MERCER,
MAIN STREET GARAGE COMPANY,CORPORATION,PA,,,,PA,34 & 26 E MAIN ST,GALETON,,2343687,G E OWEN,OWNER,34 & 26 E MAIN ST GALETON PA 0 -0 POTTER,
NEPTUNE INN,CORPORATION,PA,,,,,,,,2343688,THOMAS E DONAHUE,OWNER,UNKNOWN WILLOW GROVE PA 0 -0 MONTGOMERY,
LOEFFLER ELECTRIC STORE,CORPORATION,PA,,,,,,,,2343689,WILLIAM C LOEFFLER,OWNER,5904 PENN AVE EAST PITTSBURGH PA 0 -0 ALLEGHENY,
NEIGHBORHOOD GROCERY,CORPORATION,PA,,,,PA,315 CHERUNG ST,SAYRE,,2343690,HELEN B AMBS,OWNER,315 CHERUNG ST SAYRE PA 0 -0 BRADFORD,
NELSON'S AUTO & TRUCK CLINIC,CORPORATION,PA,,,,PA,429 E LINCOLN HIGHWAY,LANGHORNE,,2343691,NELSON A BUTLER,OWNER,429 E LINCOLN HIGHWAY LANGHORNE PA 0 -0 BUCKS,
NEPTUNE LABORATORIES,CORPORATION,PA,,,,,,,,2343692,JAMES R AGRAPHIOTIS A/K/A JAMES R,OWNER,UNKNOWN MOUNT LEBANON PA 0 -0 ALLEGHENY,
NEIGHBORHOOD FURNITURE CO.,CORPORATION,PA,,,,PA,1421 BREEZE AVE,PHILADELPHIA,,2343693,J.W. BASHA,OWNER,1421 BREEZE AVE PHILADELPHIA PA 0 -0 PHILADELPHIA,
LYKES-MILLER MOTOR MESSENGER SERVICE,CORPORATION,PA,,,,PA,50 N 10TH STREET,PHILADELPHIA,,2343695,IRA T LYKES,OWNER,50 N 10TH STREET PHILADELPHIA PA 0 -0 PHILADELPHIA,
NELSON BEER DISTRIBUTOR,CORPORATION,PA,,,,,,,,2343696,WILLIAM T LEWIS II,OWNER,2047 & 2101 E GRAND AVENUE REINERTON PA 0 -0 SCHUYLKILL,
LINDLEY MOTOR SALES,CORPORATION,PA,,,,PA,425 W DUNCANNON AVE,PHILADELPHIA,,2343697,E H SALTER,OWNER,425 W DUNCANNON AVE PHILADELPHIA PA 0 -0 PHILADELPHIA,
NEIGHBORHOOD FOOD CENTRE,CORPORATION,PA,,,,,,,,2343698,EDNA GALPERIN,OWNER,UNKNOWN PHILADELPHIA PA 0 -0 PHILADELPHIA,
NEPTUNE LAUNDRY,CORPORATION,PA,,,,,,,,2343699,MORRIS YANOWITZ,OWNER,UNKNOWN PHILADELPHIA PA 0 -0 PHILADELPHIA,
"MCCAULEY, J. D. & CO.",CORPORATION,PA,,,,,,,,2343700,J D MCCAULEY,OWNER,BOURSE BLDG PHILADELPHIA PA 0 -0 PHILADELPHIA,
BILL NELSON'S AUTO SIMONIZING,CORPORATION,PA,,,,,,,,2343701,BRUCE B DELANEY,OWNER,P O BOX 363 LANCASTER & CENTRAL AVES PAOLI PA 19301-0 CHESTER,
LEND BEVERAGE COMPANY,CORPORATION,PA,,,,PA,815 N SEVENTH STREET,HARRISBURG,,2343702,SAMUEL LEND,OWNER,815 N SEVENTH STREET HARRISBURG PA 0 -0 DAUPHIN,
LORRAINE DAYLITE BAKING COMPANY,CORPORATION,PA,,,,PA,2163 RIDGE AVE,PHILADELPHIA,,2343703,WILLIAM SHORE,OWNER,2163 RIDGE AVE PHILADELPHIA PA 0 -0 PHILADELPHIA,
LEKO ENGINEERING SERVICE,CORPORATION,PA,,,,PA,2021 SPENCER ST,PHILADELPHIA,,2343704,PAUL P KOPF,OWNER,2021 SPENCER ST PHILADELPHIA PA 0 -0 PHILADELPHIA,
LOMBARDO & COMPANY,CORPORATION,PA,,,,PA,38 W WALNUT ST,WASHINGTON,,2343705,JOE LOMBARDO,OWNER,38 W WALNUT ST WASHINGTON PA 0 -0 WASHINGTON,
MADRID INN,CORPORATION,PA,,,,PA,BRIDGEWATER RD AND CONCORD RD,ASTON,,2343706,C J & J INCORPORATED,OWNER,BRIDGEWATER RD AND CONCORD RD ASTON PA 0 -0 DELAWARE,
NEPTUNE DISTRIBUTING COMPANY,CORPORATION,PA,,,,,,,,2343707,SOLOMON KATZ,OWNER,UNKNOWN PHILADELPHIA PA 0 -0 PHILADELPHIA,
BILL NELSON'S MARINA,CORPORATION,PA,,,,PA,1202-1206 UNION BLVD,ALLENTOWN,18103-0,2343708,WILLIAM N CAWTHRAY,OWNER,1202-1206 UNION BLVD ALLENTOWN PA 18103-0 LEHIGH,
LANTERN INN,CORPORATION,PA,,,,PA,1029 SPRUCE STREET,PHILADELPHIA,,2343709,SARAH P LIPPINCOTT,OWNER,1029 SPRUCE STREET PHILADELPHIA PA 0 -0 PHILADELPHIA,
NEFF PAINT & GLASS CO.,CORPORATION,PA,,,,PA,318 E 8TH AVE,HOMESTEAD,,2343710,C J NEFF,OWNER,318 E 8TH AVE HOMESTEAD PA 0 -0 ALLEGHENY,
LLANERCH LUMBER COMPANY,CORPORATION,PA,,,,,,,,2343711,JOHN A YOUNG,OWNER,WEST CHESTER PIKE & PENNA RAILROAD UPPER DARBY PA 0 -0 DELAWARE,
NEPTUNE POOL ENTERPRISES,CORPORATION,PA,,,,,,,,2343712,MICHAEL A GIANNONE,OWNER,UNKNOWN PHILADELPHIA PA 0 -0 PHILADELPHIA,
C ANTHONY NELSON COMPANY,CORPORATION,PA,,,,,,,,2343713,,,UNKNOWN PHILADELPHIA PA 0 -0 PHILADELPHIA,
LOMBARD DECORATORS,CORPORATION,PA,,,,PA,617 LOMBARD ST,PHILADELPHIA,,2343714,S F PETERSON ET AL,OWNER,617 LOMBARD ST PHILADELPHIA PA 0 -0 PHILADELPHIA,
CARL W. NELSON BUILDER,CORPORATION,PA,,,,PA,4900 MILL CREEK RD,LEVITTOWN,,2343715,WAYNE H NELSON,OWNER,4900 MILL CREEK RD LEVITTOWN PA 19057-0 BUCKS,
M & R AUTO WRECKERS,CORPORATION,PA,,,,,,,,2343716,ANTHONY MAIMONE,OWNER,UNKNOWN MOLLENAUR PA 0 -0 ALLEGHENY,
M. LEHRFELD,CORPORATION,PA,,,,PA,3516 GERMANTOWN AVE,PHILADELPHIA,,2343717,MAX LEHRFELD,OWNER,3516 GERMANTOWN AVE PHILADELPHIA PA 0 -0 PHILADELPHIA,
NEPTUNE MARITIME SERVICES,CORPORATION,PA,,,,PA 19010-0 MONTGOMERY,404 BOXWOOD RD,ROSEMONT,,2343718,JON E BILHUBER,OWNER,404 BOXWOOD RD ROSEMONT PA 19010-0 MONTGOMERY,
"T & L MADER, SPECIALTY WHOLESALERS",CORPORATION,PA,,,,PA,724 ARDMORE BLVD,PITTSBURGH,,2343719,LONNIE K MADER,OWNER,724 ARDMORE BLVD PITTSBURGH PA 0 -0 ALLEGHENY,
NEW CASTLE PRODUCE COMPANY,CORPORATION,PA,,,,,,,,2343720,S P SMITH,OWNER,UNKNOWN NEW CASTLE PA 0 -0 LAWRENCE,
LIGHT BROTHERS,CORPORATION,PA,,,,PA,336 SOUTH 18TH STREET,READING,,2343721,RODERICK B LIGHT,OWNER,336 SOUTH 18TH STREET READING PA 0 -0 BERKS,
NELSON BROTHERS,CORPORATION,PA,,,,,,,,2343722,MORRIS J NELSON,OWNER,UNKNOWN WEST WYOMING PA 0 -0 LUZERNE,
THE S. S. MCCLELLAND CO.,CORPORATION,PA,,,,PA,824 N BROAD ST,PHILADELPHIA,,2343723,HUGH JOSEPH GRACE,OWNER,824 N BROAD ST PHILADELPHIA PA 0 -0 PHILADELPHIA,
NEPTUNE MANUFACTURING CO,CORPORATION,PA,,,,,,,,2343724,,,UNKNOWN PHILADELPHIA PA 0 -0 PHILADELPHIA,
LILLIAN FASHION SHOP,CORPORATION,PA,,,,PA,4647 FRANKFORD AVE,PHILADELPHIA,,2343725,HARRY ROTHSTEIN,OWNER,4647 FRANKFORD AVE PHILADELPHIA PA 0 -0 PHILADELPHIA,
LEBANON BATTERY SHOP,CORPORATION,PA,,,,PA,6512 LEBANON AVE,PHILADELPHIA,,2343726,DELIA KLING,OWNER,6512 LEBANON AVE PHILADELPHIA PA 0 -0 PHILADELPHIA,
LANARK GARAGE,CORPORATION,PA,,,,,,,,2343727,ROBERT J BEIDLER,OWNER,R D 1 EMMAUS PA 0 -0 LEHIGH,
C & J NELSON ASSOCIATES,CORPORATION,PA,,,,PA 19130-0 PHILADELPHIA,STE 17-B-14 2401 PENNSYLVANIA AVE,PHILADELPHIA,,2343728,JULES NELSON,OWNER,STE 17-B-14 2401 PENNSYLVANIA AVE PHILADELPHIA PA 19130-0 PHILADELPHIA,
MADEMOISELLE DRESS SHOPPE,CORPORATION,PA,,,,PA,1011 EDGMONT AVE,CHESTER,,2343729,MARGARET E ENGELMAN,OWNER,1011 EDGMONT AVE CHESTER PA 0 -0 DELAWARE,
NEW CENTENNIAL GARAGE,CORPORATION,PA,,,,PA,6324-28 ELMWOOD AVE,PHILADELPHIA,,2343730,NATHAN FOX,OWNER,6324-28 ELMWOOD AVE PHILADELPHIA PA 0 -0 PHILADELPHIA,
LIBERTY HAT CLEANING SHOP,CORPORATION,PA,,,,PA,6123 PENN AVE,PITTSBURGH,,2343731,NICK CHIRIGOS,OWNER,6123 PENN AVE PITTSBURGH PA 0 -0 ALLEGHENY,
THE NEIGHBORHOOD NURSERY SCHOOL,CORPORATION,PA,,,,PA,SIXTH ST,DONORA,,2343732,ANN GAYDOS,OWNER,SIXTH ST DONORA PA 0 -0 WASHINGTON,
NEPTUNE SHIPS LAUNDRY CO.,CORPORATION,PA,,,,,,,,2343733,THEODOSIOS HALDAS,OWNER,PEMBROKE AVE AND CHURCH LANE EAST LANSDOWNE PA 0 -0 DELAWARE,
NELSON DAIRIES,CORPORATION,PA,,,,PA,1920 MARSHALL ST,NORRISTOWN,,2343734,FAIRMONT FOODS COMPANY,OWNER,1920 MARSHALL ST NORRISTOWN PA 0 -0 MONTGOMERY,
LEHIGH FUEL COMPANY OF PENNSYLVANIA,CORPORATION,PA,,,,PA,3509 HAVERFORD AVE,PHILADELPHIA,,2343735,HARRY PASKMAN,OWNER,3509 HAVERFORD AVE PHILADELPHIA PA 0 -0 PHILADELPHIA,
NEIGHBORHOOD GROCERY STORE,CORPORATION,PA,,,,PA,4058 GIRARD AVE,PHILADELPHIA,,2343736,EARLINE D HO,OWNER,4058 GIRARD AVE PHILADELPHIA PA 0 -0 PHILADELPHIA,
MADEMOISELLE BOUTIQUE,CORPORATION,PA,,,,,,,,2343737,R L MICHAELS LTD,OWNER,R D 2 GETTYSBURG PA 0 -0 ADAMS,
NER-O'S SUNDRY STORES,CORPORATION,PA,,,,,,,,2343738,WILLIAM NERENBERG,OWNER,UNKNOWN PHILADELPHIA PA 0 -0 PHILADELPHIA,
NEW CENTENNIAL GARAGE,CORPORATION,PA,,,,PA,NE COR 23RD & SOUTH STS 2307 SOUTH,ST PHILADELPHIA,,2343739,EDITH M WALLS,OWNER,NE COR 23RD & SOUTH STS 2307 SOUTH ST PHILADELPHIA PA 0 -0 PHILADELPHIA,
LEWIS CATERING SERVICE,CORPORATION,PA,,,,,,,,2343740,DAVID S LEWIS,OWNER,UNKNOWN PITTSBURGH PA 0 -0 ALLEGHENY,
NESHAMINY SERVICE,CORPORATION,PA,,,,,,,,2343741,WAYNE K KRAMER,OWNER,RD #3 LANGHORNE PA 0 -0 BUCKS,
DALE E. NELSON COMPANY,CORPORATION,PA,,,,,,,,2343742,DALE E NELSON,OWNER,649 E HENDERSON RD KING OF PRUSSIA PA 19406-0 MONTGOMERY,
THE NEW CHINA,CORPORATION,PA,,,,PA,806 STATE STREET,ERIE,,2343743,Y C SHEW,OWNER,806 STATE STREET ERIE PA 0 -0 ERIE,
"MARDIN, GEORGE B.",CORPORATION,PA,,,,PA,1336 N 52ND ST,PHILADELPHIA,,2343744,WILLIAM MEREDITH,OWNER,1336 N 52ND ST PHILADELPHIA PA 0 -0 PHILADELPHIA,
NEIGHBORHOOD INCOME TAX CLINIC,CORPORATION,PA,,,,,,,,2343745,EUGENE P BOTEL,OWNER,UNKNOWN PHILADELPHIA PA 0 -0 PHILADELPHIA,
NERCO,CORPORATION,PA,,,,PA,235 E GAY ST,WEST CHESTER,,2343746,NEW ERA RIBBON & CARBON CO INC,OWNER,235 E GAY ST WEST CHESTER PA 0 -0 CHESTER,
NELSON DEVELOPMENT COMPANY,CORPORATION,PA,,,,,,,,2343747,ALVIN N SHAPIRO,OWNER,UNKNOWN PHILADELPHIA PA 0 -0 PHILADELPHIA,
NEW ECONOMY SILK SHOP,CORPORATION,PA,,,,PA,115 S MAIN ST,WILKES-BARRE,,2343748,MORRIS LIDZ,OWNER,115 S MAIN ST WILKES-BARRE PA 0 -0 LUZERNE,
LEHIGH AUTO REPAIR SHOP,CORPORATION,PA,,,,PA,512-14 LEHIGH ST,ALLENTOWN,,2343749,CLAYTON J EBERT,OWNER,512-14 LEHIGH ST ALLENTOWN PA 0 -0 LEHIGH,
MADEMOISELLE BEAUTY & WIG SALON,CORPORATION,PA,,,,PA,2023 PENN AVE,WEST LAWN,,2343750,STUART G ELLIOTT,OWNER,2023 PENN AVE WEST LAWN PA 0 -0 BERKS,
NELSON ENGINEERING SALES COMPANY,CORPORATION,PA,,,,,,,,2343751,ROLAND E NELSON,OWNER,UNKNOWN PITTSBURGH PA 0 -0 ALLEGHENY,
MCCOLLUM & FOSTER,CORPORATION,PA,,,,,,,,2343752,W A MCCOLLUM,OWNER,134 GRANT ST TURTLE CREEK PA 0 -0 ALLEGHENY,
THE KUTEX COMPANY,CORPORATION,PA,,,,PA,5226 PARKSIDE AVE,PHILADELPHIA,,2343753,PHILIP SWEDOSH,OWNER,5226 PARKSIDE AVE PHILADELPHIA PA 0 -0 PHILADELPHIA,
LORRAINE BAKING COMPANY,CORPORATION,PA,,,,PA,212 N DARIEN STREET,PHILADELPHIA,,2343754,PETER TACHI ETAL,OWNER,212 N DARIEN STREET PHILADELPHIA PA 0 -0 PHILADELPHIA,
LOCOMOBILE COMPANY OF WILKES-BARRE,CORPORATION,PA,,,,,,,,2343755,RUFUS WILLIAMS,OWNER,UNKNOWN WILKES-BARRE PA 0 -0 LUZERNE,
NERI CUSTOM UPHOLSTERING,CORPORATION,PA,,,,,,,,2343756,MICHAEL A NERI,OWNER,UNKNOWN PHILADELPHIA PA 0 -0 PHILADELPHIA,
MORGAN DRUG COMPANY,CORPORATION,PA,,,,PA,1519 12TH AVE,ALTOONA,,2343757,JOSEPH A MORGAN,OWNER,1519 12TH AVE ALTOONA PA 0 -0 BLAIR,
NELLY MOTOR CAR COMPANY,CORPORATION,PA,,,,PA,208 N BROADWAY,SCOTTDALE,,2343758,F J NELLY,OWNER,208 N BROADWAY SCOTTDALE PA 0 -0 WESTMORELAND,
NEIGHBORHOOD LAUNDRY SERVICE,CORPORATION,PA,,,,,,,,2343759,,,UNKNOWN WYOMING PA 0 -0 LUZERNE,
F E NELSON DAIRY,CORPORATION,PA,,,,,,,,2343760,GERALDINE M YOUNT,OWNER,UNKNOWN BRADFORD PA 0 -0 MCKEAN,
NEPTUNE PRESS,CORPORATION,PA,,,,,,,,2343761,THOMAS M WILSON JR,OWNER,UNKNOWN PHILADELPHIA PA 0 -0 PHILADELPHIA,
THE NEW FISH MARKET,CORPORATION,PA,,,,PA,513 WEST SIXTEENTH STREET,ERIE,,2343762,CATERINA LOBELLO,OWNER,513 WEST SIXTEENTH STREET ERIE PA 0 -0 ERIE,
NESHAMINY VALLEY AUTO BODY,CORPORATION,PA,,,,PA,951 FRANKLIN ST,CORNWELLS HEIGHTS,,2343763,NICHOLAS STANISH,OWNER,951 FRANKLIN ST CORNWELLS HEIGHTS PA 19020-0 BUCKS,
NELSON CHEMICAL COMPANY,CORPORATION,PA,,,,,,,,2343764,GEORGE N ACKLEY,OWNER,UNKNOWN PHILADELPHIA PA 0 -0 PHILADELPHIA,
MELON BODY AND MOTOR CO.,CORPORATION,PA,,,,PA,1509 MELON STREET,PHILADELPHIA,,2343765,MANTELL SKINNER,OWNER,1509 MELON STREET PHILADELPHIA PA 0 -0 PHILADELPHIA,
NATIONAL GRINDING COMPANY,CORPORATION,PA,,,,PA,344 W 12TH ST,ERIE,,2343766,LAKE ERIE WELDING AND SPRING COMPANY,OWNER,344 W 12TH ST ERIE PA 0 -0 ERIE,
MIRIAM GARMENT COMPANY,CORPORATION,PA,,,,PA,61 N 7TH ST,PHILADELPHIA,,2343767,LOUIS HERMAN,OWNER,61 N 7TH ST PHILADELPHIA PA 0 -0 PHILADELPHIA,
LAHR BROS. PRINTING CO.,CORPORATION,PA,,,,PA,261 HAZLE ST,WILKES-BARRE,,2343768,HOWARD E LAHR ETAL,OWNER,261 HAZLE ST WILKES-BARRE PA 0 -0 LUZERNE,
NEW ENGLAND SCHOOL OF VIOLIN,CORPORATION,PA,,,,,,,,2343769,MARGARET SHROFF,OWNER,UNKNOWN JOHNSTOWN PA 0 -0 CAMBRIA,
NEPTUNE SEAFOOD COMPANY,CORPORATION,PA,,,,PA,39 WEST ST,GETTYSBURG,,2343770,NEPTUNE SEAFOOD & SON INC,OWNER,39 WEST ST GETTYSBURG PA 17325-0 ADAMS,
NELSON & CO,CORPORATION,PA,,,,,,,,2343771,JEANETTE JUDAS,OWNER,UNKNOWN ALLENTOWN PA 0 -0 LEHIGH,
THE NANTICOKE GARAGE,CORPORATION,PA,,,,PA,SHEA STREET,NANTICOKE,,2343772,WILLIAM DOWNS,OWNER,SHEA STREET NANTICOKE PA 0 -0 LUZERNE,
MELROSE AND COMPANY,CORPORATION,PA,,,,,,,,2343773,SCHENLEY DISTILLERS INC,OWNER,UNKNOWN ALADDIN PA 0 -0 ARMSTRONG,
KIRWAN TAXI COMPANY,CORPORATION,PA,,,,PA,216 MAIN STREET,TOWANDA,,2343774,G GWIN JOHNSTON,OWNER,216 MAIN STREET TOWANDA PA 0 -0 BRADFORD,
G. T. MCNULTY CO.,CORPORATION,PA,,,,PA,214 SOUTH 43RD ST,PHILADELPHIA,,2343775,,,214 SOUTH 43RD ST PHILADELPHIA PA 0 -0 PHILADELPHIA,
"NELSON DAIRIES, DIVISION OF ABBOTTS DAIRIES",CORPORATION,PA,,,,PA,1920 MARSHALL ST,NORRISTOWN,,2343776,FAIRMONT FOODS COMPANY,OWNER,1920 MARSHALL ST NORRISTOWN PA 0 -0 MONTGOMERY,
NEW ALLIES GARAGE,CORPORATION,PA,,,,PA,3131 BOULEVARD OF THE ALLIES,PITTSBURGH,,2343777,M D LUTERMAN,OWNER,3131 BOULEVARD OF THE ALLIES PITTSBURGH PA 0 -0 ALLEGHENY,
NAR SAR MAR CHEMICAL CO,CORPORATION,PA,,,,PA,247 PENN AVE,READING,,2343778,THEODORE C AUMAN,OWNER,247 PENN AVE READING PA 0 -0 BERKS,
NEPTUNE SHIP SUPPLY & LAUNDRY,CORPORATION,PA,,,,,,,,2343779,THEODOSIOS HALDAS,OWNER,PEMBROKE AVE AND CHURCH LANE EAST LANSDOWNE PA 0 -0 DELAWARE,
THE NEVILLE ISLAND PHARMACY,CORPORATION,PA,,,,,,,,2343780,PAUL T SQUITIERI,OWNER,5008 GRAND AVENUE NEVILLE ISLAND PA 0 -0 ALLEGHENY,
"MCCRACKEN, S. A. & SON",CORPORATION,PA,,,,PA,112 EAST WASHINGTON ST,NEW CASTLE,,2343781,S A MCCRACKEN,OWNER,112 EAST WASHINGTON ST NEW CASTLE PA 0 -0 LAWRENCE,
LANCASTER SPRINKLER EQUIPMENT CO,CORPORATION,PA,,,,PA,358 N QUEEN ST,LANCASTER,,2343782,ALBERT A DEBLOCK,OWNER,358 N QUEEN ST LANCASTER PA 0 -0 LANCASTER,
NELSON AND DELLERT,CORPORATION,PA,,,,,,,,2343783,VIOLET B DELLERT,OWNER,UNKNOWN LACKAWAXEN PA 0 -0,
"NEPPS, CHAS F & SON",CORPORATION,PA,,,,PA,NE COR 24TH & BERKS ST,PHILADELPHIA,,2343784,HORACE B NEPPS,OWNER,NE COR 24TH & BERKS ST PHILADELPHIA PA 0 -0 PHILADELPHIA,
MCADOO ELECTRICAL SUPPLY COMPANY,CORPORATION,PA,,,,,,,,2343785,SAMUEL H ON,OWNER,UNKNOWN HALIFAX PA 0 -0 DAUPHIN,
MATAMORAS BEVERAGE,CORPORATION,PA,,,,PA,107 AVENUE C,MATAMORAS,,2343786,,,107 AVENUE C MATAMORAS PA 0 -0,
NEPTUNE SUPPLY COMPANY,CORPORATION,PA,,,,,,,,2343787,,,UNKNOWN LEBANON PA 0 -0 LEBANON,
NEIGHBORHOOD LOTTERY,CORPORATION,PA,,,,PA 19131-0 PHILADELPHIA,1200 N 52ND ST,PHILADELPHIA,,2343788,OHANIAN & HO INC,OWNER,1200 N 52ND ST PHILADELPHIA PA 19131-0 PHILADELPHIA,
KIRWAN TAXI COMPANY,CORPORATION,PA,,,,PA,216 MAIN STREET,TOWANDA,,2343789,G GWIN JOHNSTON,OWNER,216 MAIN STREET TOWANDA PA 0 -0 BRADFORD,
MELROSE BUILDERS AND MELROSE SECURITY SYSTEMS,CORPORATION,PA,,,,,,,,2343790,MELROSE ELECTRIC INC,OWNER,1008 STRATFORD AVENUE MELROSE PARK PA 0 -0 MONTGOMERY,
NANTICOKE CREAMERY,CORPORATION,PA,,,,PA,253 STATE ST,REAR NANTICOKE,,2343791,DAVID J DAVIS,OWNER,253 STATE ST REAR NANTICOKE PA 0 -0 LUZERNE,
NER-NEW-BOUTIQUE,CORPORATION,PA,,,,PA 17407-0 YORK,26 N MAIN ST,JACOBUS,,2343792,HELEN L ROSSEY,OWNER,26 N MAIN ST JACOBUS PA 17407-0 YORK,
NEW CASTLE MIRROR & GLASS COMPANY,CORPORATION,PA,,,,PA,25 APPLE ALLEY,NEW CASTLE,,2343793,JOHN W PATTCH,OWNER,25 APPLE ALLEY NEW CASTLE PA 0 -0 LAWRENCE,
NEIGHBORHOOD MARKET,CORPORATION,PA,,,,,,,,2343794,THORA T HAMER,OWNER,RD BELLE VERNON PA 0 -0 FAYETTE,
R. A. NEFF & CO.,CORPORATION,PA,,,,,,,,2343795,RALPH A NEFF,OWNER,UNKNOWN ERIE PA 0 -0 ERIE,
NERCESIAN MOTORS,CORPORATION,PA,,,,PA,235 CLIFTON AVE,COLLINGDALE,,2343796,NERCESIAN PLYMOUTH INC,OWNER,235 CLIFTON AVE COLLINGDALE PA 0 -0 DELAWARE,
NELSON DISTRIBUTING,CORPORATION,PA,,,,PA 15017-0 WASHINGTON,2896 WASHINGTON RD,PETERS TOWNSHIP,,2343797,PHYLLIS J NELSON,OWNER,2896 WASHINGTON RD PETERS TOWNSHIP PA 15017-0 WASHINGTON,
NESTLER RUBBER WELDING SYNDICATE,CORPORATION,PA,,,,PA,986 FRANKLIN ST,JOHNSTOWN,,2343798,R L BAER,OWNER,986 FRANKLIN ST JOHNSTOWN PA 0 -0 CAMBRIA,
NEIGHBORHOOD CENTER OF THE UNITED METHODIST CHURCH,CORPORATION,PA,,,,PA,610 MACLAY ST,HARRISBURG,,2343799,THE WOMAN'S SOCIETY OF CHRISTIAN SERVICE,OWNER,610 MACLAY ST HARRISBURG PA 0 -0 DAUPHIN,
LIGHT'S GARAGE,CORPORATION,PA,,,,PA,N RAILROAD STREET,PALMYRA,,2343800,ROY K LIGHT,OWNER,N RAILROAD STREET PALMYRA PA 0 -0 LEBANON,
MELROSE BOWLING ALLEYS,CORPORATION,PA,,,,,,,,2343801,,,CARRICK PITTSBURGH PA 0 -0 ALLEGHENY,
"NERI, A A PRECISIONED MACHINE PRODUCTS COMPANY",CORPORATION,PA,,,,,,,,2343802,ARMAND A NERI,OWNER,UNKNOWN PHILADELPHIA PA 0 -0 PHILADELPHIA,
LEHIGH OIL & COLOR CO,CORPORATION,PA,,,,PA,793 WASHINGTON AVE,BETHLEHEM,,2343803,LOUIS G TORBORG,OWNER,793 WASHINGTON AVE BETHLEHEM PA 0 -0 NORTHUMBERLAND,
NEGLEY RADIO COMPANY,CORPORATION,PA,,,,PA,5536 PENN AVE,PITTSBURGH,,2343804,HOWARD V CUNNINGHAM,OWNER,5536 PENN AVE PITTSBURGH PA 0 -0 ALLEGHENY,
THE LACKAWANNA PRODUCE COMPANY,CORPORATION,PA,,,,PA,11 LACKAWANNA AVE,SCRANTON,,2343805,LOUIS STRAUSS,OWNER,11 LACKAWANNA AVE SCRANTON PA 0 -0 LACKAWANNA,
NELSON'S DRY CLEANERS,CORPORATION,PA,,,,PA 19124-0 PHILADELPHIA,1050-52 E LYCOMING ST,PHILADELPHIA,,2343806,OHYUNG KWON,OWNER,1050-52 E LYCOMING ST PHILADELPHIA PA 19124-0 PHILADELPHIA,
LOEB BROS. CO.,CORPORATION,PA,,,,PA,WOOD ST AND FIRST AVE,PITTSBURGH,,2343807,HOWARD M LOEB,OWNER,WOOD ST AND FIRST AVE PITTSBURGH PA 0 -0 ALLEGHENY,
NEIGHBORHOOD COMPUTER CENTER,CORPORATION,PA,,,,PA,741,LEVITTOWN,,2343808,MARGARET DURKIN,OWNER,741 LEVITTOWN CENTER LEVITTOWN PA 19055-0 BUCKS,
R. C. MAHER COAL CO.,CORPORATION,PA,,,,,,,,2343809,ROBERT CAMPBELL MAHER,OWNER,UNKNOWN LEECHBURG PA 0 -0 ARMSTRONG,
LIBERTY CAB COMPANY,CORPORATION,PA,,,,,,,,2343810,FREDERICK LEON,OWNER,UNKNOWN PITTSBURGH PA 0 -0 ALLEGHENY,
THE NEW CRYSTAL LUNCH ROOM & RESTAURANT,CORPORATION,PA,,,,PA,601 N 7TH STREET,ALLENTOWN,,2343811,JOHN DUCAS,OWNER,601 N 7TH STREET ALLENTOWN PA 0 -0 LEHIGH,
NEW CASTLE SAUSAGE COMPANY,CORPORATION,PA,,,,PA,224 DIAMOND WAY,NEW CASTLE,,2343812,PAUL HARTMAN,OWNER,224 DIAMOND WAY NEW CASTLE PA 0 -0 LAWRENCE,
MCCOY MOTOR CAR COMPANY,CORPORATION,PA,,,,PA,116-118 N MERCER ST,NEW CASTLE,,2343813,A C MCCOY,OWNER,116-118 N MERCER ST NEW CASTLE PA 0 -0 LAWRENCE,
NELSON ELECTRIC,CORPORATION,PA,,,,PA,TEVEBAUGH HOLLOW RD,BADEN,15005-0,2343814,NELSON S SHULTZ,OWNER,TEVEBAUGH HOLLOW RD BADEN PA 15005-0 BEAVER,
NEPTUNE DISTRIBUTORS,CORPORATION,PA,,,,,,,,2343815,JAMES A MCGOWAN,OWNER,B-808 251 W DEKALB PIKE KING OF PRUSSIA PA 19406-0 MONTGOMERY,
LOESER'S DANCING ACADEMY,CORPORATION,PA,,,,PA,34 S 52ND ST,PHILADELPHIA,,2343816,SAMUEL R RUSSEL,OWNER,34 S 52ND ST PHILADELPHIA PA 0 -0 PHILADELPHIA,
LAUREL HILL BUILDERS SUPPLY CO,CORPORATION,PA,,,,PA,814 S BLAKELY STREET,DUNMORE,,2343817,ELMER G RIES,OWNER,814 S BLAKELY STREET DUNMORE PA 0 -0 LACKAWANNA,
NEIGHBORHOOD REALTY GROUP U.S.A./HEARTHSIDE,CORPORATION,PA,,,,PA 19090-0 MONTGOMERY,228 DAVISVILLE RD,WILLOW GROVE,,2343818,"HEARTHSIDE REALTY GROUP, INC.",OWNER,228 DAVISVILLE RD WILLOW GROVE PA 19090-0 MONTGOMERY,
F D NELSON CO,CORPORATION,PA,,,,,,,,2343819,FREDERICK D NELSON,OWNER,UNKNOWN PHILADELPHIA PA 0 -0 PHILADELPHIA,
MELROSE BEAUTY SALON,CORPORATION,PA,,,,PA,420 S 21ST ST,HARRISBURG,,2343820,DORIS L FEGLEY,OWNER,420 S 21ST ST HARRISBURG PA 0 -0 DAUPHIN,
NEPTUNE INDUSTRIES,CORPORATION,PA,,,,PA 15206-0 ALLEGHENY,530 N EUCLID AVE,PITTSBURGH,,2343821,THOMAS E KELLNER,OWNER,530 N EUCLID AVE PITTSBURGH PA 15206-0 ALLEGHENY,
NEVERFAIL SHEET METAL WORKS,CORPORATION,PA,,,,PA,2573 AMBER ST,PHILADELPHIA,,2343822,ARON ABRAMS,OWNER,2573 AMBER ST PHILADELPHIA PA 0 -0 PHILADELPHIA,
MINKOFF LEAF TOBACCO CO,CORPORATION,PA,,,,PA,210 W GRANT ST,LANCASTER,,2343823,JACOB M MINKOFF,OWNER,210 W GRANT ST LANCASTER PA 0 -0 LANCASTER,
NEW FREEDOM GARAGE,CORPORATION,PA,,,,,,,,2343824,THOMAS H JESSOP,OWNER,UNKNOWN NEW FREEDOM PA 0 -0 YORK,
NEPTUNE INTERNATIONAL TRAVEL CLUB,CORPORATION,PA,,,,PA 19082-0 DELAWARE,6932 MARKET ST,UPPER DARBY,,2343825,APOLLO TOURS INC,OWNER,6932 MARKET ST UPPER DARBY PA 19082-0 DELAWARE,
LYLE HARDWARE,CORPORATION,PA,,,,PA,239 WEST CHESTNUT STREET,WASHINGTON,,2343826,ARTHUR L LYLE,OWNER,239 WEST CHESTNUT STREET WASHINGTON PA 0 -0 WASHINGTON,
NEIGHBORHOOD REMODELERS,CORPORATION,PA,,,,PA 15210-0 ALLEGHENY,258 E WARRINGTON AVE,PITTSBURGH,,2343827,MARKUS PRITCHARD,OWNER,258 E WARRINGTON AVE PITTSBURGH PA 15210-0 ALLEGHENY,
NELSON'S FEED AND SUPPLY COMPANY,CORPORATION,PA,,,,,,,,2343828,ROBERT NELSON,OWNER,UNKNOWN LACKAWAXEN PA 0 -0,
NATIONAL MACHINE COMPANY,CORPORATION,PA,,,,PA,2021-2023 S CHADWICK ST,PHILADELPHIA,,2343829,ROBERT S CRANSTON,OWNER,2021-2023 S CHADWICK ST PHILADELPHIA PA 0 -0 PHILADELPHIA,
NESHAMINY MALL,CORPORATION,PA,,,,PA,INTERSECTION OF U.S. RT 1 BRISTOL RD & TREVOSE RD,BENSALEM TWP,,2343830,LOCUST HOLDING CO,OWNER,INTERSECTION OF U.S. RT 1 BRISTOL RD & TREVOSE RD BENSALEM TWP PA 0 -0 BUCKS,
NERISSA,CORPORATION,PA,,,,PA,1208 S GARNER ST,STATE COLLEGE,16801-0,2343831,ROGER R ARMSTRONG ETC,OWNER,1208 S GARNER ST STATE COLLEGE PA 16801-0 CENTRE,
NEVIN HOSIERY COMPANY,CORPORATION,PA,,,,,,,,2343832,JOSEPH WILLIAM NEVIN,OWNER,"ROOM 609, DOLLAR SAVINGS & TRUST BLDG PITTSBURGH PA 0 -0 ALLEGHENY",
MELROSE ATHLETIC DISTRIBUTORS,CORPORATION,PA,,,,,,,,2343833,MADELINE GREENBURG,OWNER,UNKNOWN PHILADELPHIA PA 0 -0 PHILADELPHIA,
NELSON CONTRACTING COMPANY,CORPORATION,PA,,,,,,,,2343834,FREDERICK E NELSON,OWNER,UNKNOWN PITTSBURGH PA 0 -0 ALLEGHENY,
KUSHEL SUPPLY,CORPORATION,PA,,,,PA,927 N 3RD ST,HARRISBURG,,2343835,FANNIE C KUSHEL,OWNER,927 N 3RD ST HARRISBURG PA 0 -0 DAUPHIN,
NEOLITHIC FLOORING CO.,CORPORATION,PA,,,,,,,,2343836,ROSARIO C LUSSIER,OWNER,6424 OAKLEY ST FOX CHANSE PHILADELPHIA PA 0 -0 PHILADELPHIA,
NEIGHBORHOOD HOME HEALTH SERVICES,CORPORATION,PA,,,,PA 19145-0 PHILADELPHIA,1634 S 20TH ST,PHILADELPHIA,,2343837,HOME HEALTH SERVICES OF SOUTH PHILADEPHI,OWNER,1634 S 20TH ST PHILADELPHIA PA 19145-0 PHILADELPHIA,
LEGAL INDEMNITY BUREAU,CORPORATION,PA,,,,,,,,2343838,MARK J MCLAUGHLIN,OWNER,1211 CHESTNUT STREET ROOM 1004 PHILADELPHIA PA 0 -0 PHILADELPHIA,
NERO'S PIZZERIA,CORPORATION,PA,,,,PA 19136-0 PHILADELPHIA,3126 WILLETS RD,PHILADELPHIA,,2343839,JOHN J HUNT,OWNER,3126 WILLETS RD PHILADELPHIA PA 19136-0 PHILADELPHIA,
LAURIE & HAWKINS,CORPORATION,PA,,,,,,,,2343840,FRANK LAURIE,OWNER,UNKNOWN CORRY PA 0 -0 ERIE,
FRANK NELSON'S SONS,CORPORATION,PA,,,,,,,,2343841,,,UNKNOWN PHILADELPHIA PA 0 -0 PHILADELPHIA,
NEW GARIBALDI RESTAURANT,CORPORATION,PA,,,,PA,SECOND FLOOR 507 SIXTH AVENUE,PITTSBURGH,,2343842,NICOLO MARAZZI,OWNER,SECOND FLOOR 507 SIXTH AVENUE PITTSBURGH PA 0 -0 ALLEGHENY,
GEO. D. LESSIG & SON,CORPORATION,PA,,,,,,,,2343843,SADIE M LESSIG ETAL,OWNER,R F D 1 TEMPLE PA 0 -0 BERKS,
"LEE, M. G. FLORIDA LAND COMPANY",CORPORATION,PA,,,,,,,,2343844,M G LEE,OWNER,1304 REAL ESTATE TRUST BLDG PHILADELPHIA PA 0 -0 PHILADELPHIA,
NATIONAL HIGHWAY FUEL COMPANY,CORPORATION,PA,,,,PA,P O BOX 736,SOUTH BROWNSVILLE,,2343845,HOMER WOLFORD ETAL,OWNER,P O BOX 736 SOUTH BROWNSVILLE PA 0 -0 FAYETTE,
NEOLITHIC FLOORING CO.,CORPORATION,PA,,,,PA,3610 KENSINGTON AVE,PHILADELPHIA,,2343846,ROSARIO C LUSSIER,OWNER,3610 KENSINGTON AVE PHILADELPHIA PA 0 -0 PHILADELPHIA,
NERO'S SANDWICH SHOP,CORPORATION,PA,,,,PA,879 FRITZTOWN RD,SINKING SPRING,,2343847,MARY ALICE BORTZ,OWNER,879 FRITZTOWN RD SINKING SPRING PA 0 -0 BERKS,
NEIGHBORHOOD INN,CORPORATION,PA,,,,,,,,2343848,,,UNKNOWN ARDMORE PA 0 -0 DELAWARE,
LITH-ART POSTER CO.,CORPORATION,PA,,,,PA,251 N 13TH STREET,PHILADELPHIA,,2343849,CHARLES T ROSSNER,OWNER,251 N 13TH STREET PHILADELPHIA PA 0 -0 PHILADELPHIA,
THE MELROSE COMPANY,CORPORATION,PA,,,,,,,,2343850,LEONARD STEIN ETAL,OWNER,MELROSE PARK 7500 FOURTH AVE PHILADELPHIA PA 0 -0 PHILADELPHIA,
L. W. MCCONNELL AND COMPANY,CORPORATION,PA,,,,,,,,2343851,J H MCCONNELL,OWNER,UNKNOWN JACKSON CENTRE PA 0 -0 MERCER,
LANG MOTOR COMPANY,CORPORATION,PA,,,,PA,1515 5TH AVE,MCKEESPORT,,2343852,FRED R LANG,OWNER,1515 5TH AVE MCKEESPORT PA 0 -0 ALLEGHENY,
NESHAMINY MOTOR INN,CORPORATION,PA,,,,PA,4331 OLD LINCOLN HIGHWAY,TREVOSE,,2343853,MICHAEL T ETZRODT,OWNER,4331 OLD LINCOLN HIGHWAY TREVOSE PA 19047-0 BUCKS,
LEE GUY COMPANY,CORPORATION,PA,,,,PA,328 N 3RD STREET,PHILADELPHIA,,2343854,GUY LEE,OWNER,328 N 3RD STREET PHILADELPHIA PA 0 -0 PHILADELPHIA,
LESTER BUILDING AND CONTRACTING COMPANY,CORPORATION,PA,,,,PA,215 CHIPPEWA ST,LESTER,,2343855,EDWARD C WASCH,OWNER,215 CHIPPEWA ST LESTER PA 0 -0 DELAWARE,
NERTHLING HEATING & AIR CONDITIONING CO,CORPORATION,PA,,,,,,,,2343856,CARL H NERTHLING,OWNER,UNKNOWN ERIE PA 0 -0 ERIE,
NEW BRUNSWICK BILLIARD PARLOR,CORPORATION,PA,,,,PA,222 FIFTH AVE,MCKEESPORT,,2343857,LOUIS LAMPROPOLOS,OWNER,222 FIFTH AVE MCKEESPORT PA 0 -0 ALLEGHENY,
NEW HAVEN MOTOR COMPANY,CORPORATION,PA,,,,,,,,2343858,NEW HAVEN MOTOR COMPANY,OWNER,1017 WEST CRAWFORD AVENUE CONNELLSVILLE PA 0 -0 FAYETTE,
NEIGHBORHOOD INN,CORPORATION,PA,,,,,,,,2343859,,,HAVERTOWN TWP ARDMORE PA 0 -0 DELAWARE,
NELSON'S FURS,CORPORATION,PA,,,,,,,,2343860,,,UNKNOWN ALLENTOWN PA 0 -0 LEHIGH,
THE MASTER PHARMACY,CORPORATION,PA,,,,PA,5453 MASTER ST,PHILADELPHIA,,2343861,MEYER GOLDBERG,OWNER,5453 MASTER ST PHILADELPHIA PA 0 -0 PHILADELPHIA,
MELROSE BAR,CORPORATION,PA,,,,,,,,2343862,ISIDORE KLEIN,OWNER,UNKNOWN PHILADELPHIA PA 0 -0 PHILADELPHIA,
LANG MOTOR COMPANY,CORPORATION,PA,,,,PA,1515 5TH AVE,MCKEESPORT,,2343863,JENNIE C LANG,OWNER,1515 5TH AVE MCKEESPORT PA 0 -0 ALLEGHENY,
LEHIGH VALLEY AUTO INSURANCE AGENCY,CORPORATION,PA,,,,,,,,2343864,W M GOODWIN,OWNER,308 WILBUR TRUST BUILDING BETHLEHEM PA 0 -0 NORTHAMPTON,
LEEDOM CHARLES LABORATORY,CORPORATION,PA,,,,PA,1937 MARKET STREET,PHILADELPHIA,,2343865,FRANK J HOWLEY,OWNER,1937 MARKET STREET PHILADELPHIA PA 0 -0 PHILADELPHIA,
NEVELSTEIN AND SHERBY,CORPORATION,PA,,,,PA,2201 N 4TH ST,PHILADELPHIA,,2343866,S SHERBY,OWNER,2201 N 4TH ST PHILADELPHIA PA 0 -0 PHILADELPHIA,
A. B. MARCUS COMPANY,CORPORATION,PA,,,,PA,48 18TH ST,PITTSBURGH,,2343867,M HOLTZMAN,OWNER,48 18TH ST PITTSBURGH PA 0 -0 ALLEGHENY,
LOGAN ELECTRIC DAMP WASH LAUNDRY,CORPORATION,PA,,,,PA,1525-1527 BELFIELD AVE,PHILADELPHIA,,2343868,E C HOFFMAN,OWNER,1525-1527 BELFIELD AVE PHILADELPHIA PA 0 -0 PHILADELPHIA,
NELSON HALL BEAUTY SALON,CORPORATION,PA,,,,,,,,2343869,S MABEL HASSLER,OWNER,UNKNOWN CHAMBERSBURG PA 0 -0 FRANKLIN,
MILDRED NERZ GROCERY,CORPORATION,PA,,,,,,,,2343870,MILDRED DITZLER,OWNER,53 SAVORY ST PAOL ALTO POTTSVILLE PA 17901-0 SCHUYLKILL,
NAVARRO COMPANY,CORPORATION,PA,,,,PA,6439 ANNETTA ST,PITTSBURGH,,2343871,DOMINIC NAVARRO,OWNER,6439 ANNETTA ST PITTSBURGH PA 0 -0 ALLEGHENY,
NELSON-HENRY FURS,CORPORATION,PA,,,,,,,,2343872,SOL HORDOF,OWNER,UNKNOWN LEWISTOWN PA 0 -0 MIFFLIN,
LOSH & PAINTER,CORPORATION,PA,,,,PA,72 E MAIN ST,UNIONTOWN,,2343873,SARAH L LOSH,OWNER,72 E MAIN ST UNIONTOWN PA 0 -0 FAYETTE,
MARTIN & LYLE,CORPORATION,PA,,,,,,,,2343874,C COLLIS LYLE,OWNER,209-12 PENFIELD BLDG PHILADELPHIA PA 0 -0 PHILADELPHIA,
THE THE NEIGHBORHOOD LEAGUE,CORPORATION,PA,,,,PA 19087-0 DELAWARE,119 W,WAYNE,,2343875,HOME HEALTH SERVICES OF CHESTER COUNTY A,OWNER,119 W WAYNE AVE WAYNE PA 19087-0 DELAWARE,
NEW AND COMPANY,CORPORATION,PA,,,,PA,5485 HAYS ST,PITTSBURGH,,2343876,THOMAS STEVENS,OWNER,5485 HAYS ST PITTSBURGH PA 0 -0 ALLEGHENY,
NERI'S PLACE,CORPORATION,PA,,,,PA,RTE 19,WARRENDALE,,2343877,NICK F PISHNERY,OWNER,RTE 19 WARRENDALE PA 0 -0 ALLEGHENY,
THE LANG MOTOR COMPANY,CORPORATION,PA,,,,PA,1515 5TH AVE,MCKEESPORT,,2343878,FRED R LANG,OWNER,1515 5TH AVE MCKEESPORT PA 0 -0 ALLEGHENY,
MELROSE AUTO SUPPLY,CORPORATION,PA,,,,,,,,2343879,SOL JAFFE,OWNER,UNKNOWN PHILADELPHIA PA 0 -0 PHILADELPHIA,
LEHIGH VALLEY SPECIALITIES COMPANY,CORPORATION,PA,,,,,,,,2343880,PAUL M THOMAS,OWNER,EASTON TRUST BLDG OFFICE 202 EASTON PA 0 -0 NORTHAMPTON,
THE NEW CASTLE FLUID CHEMICAL CO.,CORPORATION,PA,,,,,,,,2343881,NELLIE FRASCHETTI,OWNER,REAR 424 1/2 EAST LONG AVENUE NEW CASTLE PA 0 -0 LAWRENCE,
"MAGARGAL, SAMUEL H.",CORPORATION,PA,,,,PA,319 MONTROSE ST,PHILADELPHIA,,2343882,SAMUEL H MAGARGAL,OWNER,319 MONTROSE ST PHILADELPHIA PA 0 -0 PHILADELPHIA,
NEPTUNE SURVEY & APPRAISALS BUREAU,CORPORATION,PA,,,,PA,220 S 4TH ST,PHILADELPHIA,,2343883,ADAM C WARFEL,OWNER,220 S 4TH ST PHILADELPHIA PA 0 -0 PHILADELPHIA,
NERLITE CANDLE SHOPPE,CORPORATION,PA,,,,,,,,2343884,MRS E D KNE,OWNER,UNKNOWN COOPERSBURG PA 0 -0 LEHIGH,
NELSON HOUSE HOTEL & BAR,CORPORATION,PA,,,,PA,123 N MAIN ST,DUBOIS,,2343885,MARLENE C SIKORA,OWNER,123 N MAIN ST DUBOIS PA 0 -0 CLEARFIELD,
NELSON'S,CORPORATION,PA,,,,PA,106 W CRAWFORD ST,CONNELLSVILLE,,2343886,NELSON A ELSASSER,OWNER,106 W CRAWFORD ST CONNELLSVILLE PA 0 -0 FAYETTE,
NERO'S PIZZERIA,CORPORATION,PA,,,,PA,3126 WILLITS RD,PHILADELPHIA,,2343887,PURSUIT LTD,OWNER,3126 WILLITS RD PHILADELPHIA PA 0 -0 PHILADELPHIA,
SAMUEL LESSNER & CO,CORPORATION,PA,,,,PA,32 S THIRD STREET,PHILADELPHIA,,2343888,SAMUEL LESSNER,OWNER,32 S THIRD STREET PHILADELPHIA PA 0 -0 PHILADELPHIA,
NEW FAIRMOUNT GARAGE,CORPORATION,PA,,,,PA,320-26 WEST FAIRMOUNT AVENUE,PHILADELPHIA,,2343889,R REISER,OWNER,320-26 WEST FAIRMOUNT AVENUE PHILADELPHIA PA 0 -0 PHILADELPHIA,
THE NEIGHBORHOOD WORKSHOP,CORPORATION,PA,,,,PA,273 HENLEY RD,PENN WYNNE,19151-0,2343890,KAREN LAVINE,OWNER,273 HENLEY RD PENN WYNNE PA 19151-0,
LE GOWN SHOPPE,CORPORATION,PA,,,,PA,16 MARKET ST,BROWNSVILLE,,2343891,JANIE MAE BLUE,OWNER,16 MARKET ST BROWNSVILLE PA 0 -0 FAYETTE,
HUGH NELSON CARPET MILLS,CORPORATION,PA,,,,PA 19133-0 PHILADELPHIA,2501 N THIRD ST,PHILADELPHIA,,2343892,EMERY CORP,OWNER,2501 N THIRD ST PHILADELPHIA PA 19133-0 PHILADELPHIA,
NERT AUTO BROKERS,CORPORATION,PA,,,,PA 15951-0 CAMBRIA,901 MARKET ST,ST MICHAEL,,2343893,KENNETH E MCNERTNEY,OWNER,901 MARKET ST ST MICHAEL PA 15951-0 CAMBRIA,
NEW CASTLE ELECTRIC CONSTRUCTION COMPANY,CORPORATION,PA,,,,PA,1026 ADAMS ST 703 CROTON AVE,NEW CASTLE,,2343894,R E SHAW,OWNER,1026 ADAMS ST 703 CROTON AVE NEW CASTLE PA 0 -0 LAWRENCE,
"NELSON, HUGHES CO.",CORPORATION,PA,,,,,,,,2343895,ROY L HUGHES,OWNER,1934 ARCH ST 3RD FL PHILADELPHIA PA 0 -0 PHILADELPHIA,
NEW COLONY GARAGE,CORPORATION,PA,,,,,,,,2343896,GEORGE C MILL,OWNER,UNKNOWN PHILADELPHIA PA 0 -0 PHILADELPHIA,
WARREN J MCNABB OIL CO,CORPORATION,PA,,,,PA,105 MAIN STREET,CEMENTON,,2343897,WARREN J MCNABB,OWNER,105 MAIN STREET CEMENTON PA 0 -0 LEHIGH,
NERREA,CORPORATION,PA,,,,,,,,2343898,CLIFFORD D IHRIG,OWNER,15 N MILL ST NORTH EAST PA 16428-0 ERIE,
NEFF FURNITURE CO.,CORPORATION,PA,,,,PA,415 HAMILTON ST,ALLENTOWN,,2343899,S A HEMIROFSKY,OWNER,415 HAMILTON ST ALLENTOWN PA 0 -0 LEHIGH,
MELROSE ASSOCIATES,CORPORATION,PA,,,,PA,617 FERNE BLVD,DREXEL HILL,,2343900,SAMUEL DI SEBASTIAN,OWNER,617 FERNE BLVD DREXEL HILL PA 0 -0 DELAWARE,
LEHIGH THEATRE COMPANY,CORPORATION,PA,,,,PA,425-429 TILGHMAN STREET,ALLENTOWN,,2343901,L W MAGNERS,OWNER,425-429 TILGHMAN STREET ALLENTOWN PA 0 -0 LEHIGH,
NELSON FUR SHOP,CORPORATION,PA,,,,,,,,2343902,,,UNKNOWN YORK PA 0 -0 YORK,
NEPTUNE PUMP COMPANY,CORPORATION,PA,,,,PA,WELSH RD (PO BOX 247),LANSDALE,,2343903,ROBERT F APTER,OWNER,WELSH RD (PO BOX 247) LANSDALE PA 0 -0 MONTGOMERY,
NEW FASHION KNITTING MILLS,CORPORATION,PA,,,,PA,439 LOMBARD ST,PHILADELPHIA,,2343904,SAMUEL WENOGRAD,OWNER,439 LOMBARD ST PHILADELPHIA PA 0 -0 PHILADELPHIA,
LEFFMANN - TRUMPER CLINICAL LABORATORY,CORPORATION,PA,,,,PA,MEDICAL ARTS BLDG 1601,WALNUT ST PHILADELPHIA,,2343905,MAX TRUMPER,OWNER,MEDICAL ARTS BLDG 1601 WALNUT ST PHILADELPHIA PA 0 -0 PHILADELPHIA,
NESHAMINY NURSERY SCHOOL,CORPORATION,PA,,,,PA,BRISTOL ROAD,HARTSVILLE,,2343906,MARILYN M KRAPF,OWNER,BRISTOL ROAD HARTSVILLE PA 18974-0 BUCKS,
THE J. W. LYNCH CO.,CORPORATION,PA,,,,PA,108 E HIGH STREET,TAYLOR,,2343907,JOHN W LYNCH,OWNER,108 E HIGH STREET TAYLOR PA 0 -0 LACKAWANNA,
NEPTUNE 77 ASSOCIATES,CORPORATION,PA,,,,,,,,2343908,SAWARAN SINGH BAMBRAH ET AL,OWNER,STE 650 1 ALLEGHENY CENTER PITTSBURGH PA 15212-0 ALLEGHENY,
NEIL ASSOCIATES,CORPORATION,PA,,,,,,,,2343909,SYDNEY ROSEMAN,OWNER,UNKNOWN PHILADELPHIA PA 0 -0 PHILADELPHIA,
MELROSE DISTRIBUTING CO,CORPORATION,PA,,,,PA,100 E,GLENSIDE,,2343910,BERLIN AUTO SUPPLY COMPANY,OWNER,100 E GLENSIDE AVE GLENSIDE PA 0 -0 MONTGOMERY,
GLENN ERIC NELSON SALES ASSOCIATES,CORPORATION,PA,,,,PA 15301-0 WASHINGTON,502 HUNTING CREEK DR,CANONSBURG,,2343911,GLENN ERIC NELSON,OWNER,502 HUNTING CREEK DR CANONSBURG PA 15301-0 WASHINGTON,
LEE SHIRT COMPANY,CORPORATION,PA,,,,PA,1127 MERLYN RD,PHILADELPHIA,,2343912,ELIZABETH M LEE,OWNER,1127 MERLYN RD PHILADELPHIA PA 0 -0 PHILADELPHIA,
A NEVINS & COMPANY,CORPORATION,PA,,,,PA,NO. 910 LIBERTY AVE,PITTSBURGH,,2343913,DAVID ROSENTHAL,OWNER,NO. 910 LIBERTY AVE PITTSBURGH PA 0 -0 ALLEGHENY,
MAY - COL - BES - MACHINE CO.,CORPORATION,PA,,,,PA,707 BUTTONWOOD ST,PHILADELPHIA,,2343914,J W COLLINS ET AL,OWNER,707 BUTTONWOOD ST PHILADELPHIA PA 0 -0 PHILADELPHIA,
LARSON'S TAXI,CORPORATION,PA,,,,,,,,2343915,ANDREW E LARSON,OWNER,UNKNOWN CALIFORNIA PA 0 -0 WASHINGTON,
NEIGHBORHOOD SHOPPE,CORPORATION,PA,,,,PA 15120-0 ALLEGHENY,611 13TH AVE,PITTSBURGH,,2343916,MITZL H POSIPANK,OWNER,611 13TH AVE PITTSBURGH PA 15120-0 ALLEGHENY,
LISTIE VARIETY STORE,CORPORATION,PA,,,,,,,,2343917,PAUL E WOLFORD,OWNER,SOMERSET TOWNSHIP LISTIE PA 0 -0 SOMERSET,
NELSON'S HARDWARE STORE,CORPORATION,PA,,,,PA,MAIN ST,CLAYSBURG,,2343918,RANDY S WHETSTONE,OWNER,MAIN ST CLAYSBURG PA 16625-0 BLAIR,
NEW ALPINE BAKERY,CORPORATION,PA,,,,PA,ROSE & 3RD STS,WILLIAMSPORT,,2343919,ISRAEL GUTTERMAN,OWNER,ROSE & 3RD STS WILLIAMSPORT PA 0 -0 LYCOMING,
S. LYONS & CO.,CORPORATION,PA,,,,PA,,UNKNOWN FOREST CITY,,2343920,SAMUEL LYONS,OWNER,UNKNOWN FOREST CITY PA 0 -0 SUSQUEHANNA,
L & K TIRE COMPANY,CORPORATION,PA,,,,PA,308 NINTH STREET,NEW KENSINGTON,,2343921,A N LEVINE,OWNER,308 NINTH STREET NEW KENSINGTON PA 0 -0 WESTMORELAND,
LEE COMPANY,CORPORATION,PA,,,,PA,939 MARKET ST,PHILADELPHIA,,2343922,LYNWIN CORPORATION,OWNER,939 MARKET ST PHILADELPHIA PA 0 -0 PHILADELPHIA,
NEIGHBORHOOD STORE,CORPORATION,PA,,,,,,,,2343923,PAUL A KEEFER,OWNER,UNKNOWN NORTHUMBERLAND PA 0 -0 NORTHUMBERLAND,
NESBITS' TAXI,CORPORATION,PA,,,,PA 15714-0 CAMBRIA,2107 CHESTNUT AVE,BARNESBORO,,2343924,RUTH NESBIT,OWNER,2107 CHESTNUT AVE BARNESBORO PA 15714-0 CAMBRIA,
NELSON HOUSE,CORPORATION,PA,,,,PA,530 CYPRESS ST,PHILADELPHIA,,2343925,MURIEL H NELSON,OWNER,530 CYPRESS ST PHILADELPHIA PA 0 -0 PHILADELPHIA,
LINCOLN HIGHWAY WELDING SERVICE,CORPORATION,PA,,,,PA,1903 CHATEAU ST,PITTSBURGH,,2343926,WILLIAM G FOLEY SR,OWNER,1903 CHATEAU ST PITTSBURGH PA 0 -0 ALLEGHENY,
L & H. REALTY COMPANY,CORPORATION,PA,,,,PA,48 EAST NORTHAMPTON ST,WILKES-BARRE,,2343927,JEROME G HAUSER,OWNER,48 EAST NORTHAMPTON ST WILKES-BARRE PA 0 -0 LUZERNE,
MING TOY CHINESE RESTAURANT,CORPORATION,PA,,,,PA,17 NORTH 6TH ST,READING,,2343928,JOSEPH M COHEN,OWNER,17 NORTH 6TH ST READING PA 0 -0 BERKS,
NESBITT BOTTLING CO,CORPORATION,PA,,,,,,,,2343929,JOHN MONTGOMERY,OWNER,UNKNOWN PHILADELPHIA PA 0 -0 PHILADELPHIA,
"HUGH NELSON - COLUMBIA CARPET MILLS, INC.",CORPORATION,PA,,,,PA 19133-0 PHILADELPHIA,2501 N THIRD ST,PHILADELPHIA,,2343930,EMERY CORP,OWNER,2501 N THIRD ST PHILADELPHIA PA 19133-0 PHILADELPHIA,
LIBERTY ART STUDIO,CORPORATION,PA,,,,,,,,2343931,G H BOUGHTON,OWNER,309 WASHINGTON TRUST BUILDING 927 5TH AVENUE PITTSBURGH PA 0 -0 ALLEGHENY,
LINCOLN LIMOUSINE SERVICE,CORPORATION,PA,,,,PA,1412 W GIRARD AVE,PHILADELPHIA,,2343932,CALDWELL J MCCLINTOCK,OWNER,1412 W GIRARD AVE PHILADELPHIA PA 0 -0 PHILADELPHIA,
MAIN ELECTRIC COMPANY,CORPORATION,PA,,,,PA,4122 MAIN ST,PITTSBURGH,,2343933,WILBUR E FLEMING,OWNER,4122 MAIN ST PITTSBURGH PA 0 -0 ALLEGHENY,
LEE COMPANY,CORPORATION,PA,,,,,,,,2343934,,,UNKNOWN PITTSBURGH PA 0 -0 ALLEGHENY,
L & P BAKERY,CORPORATION,PA,,,,,,,,2343935,ROBERT LEVY,OWNER,DAWSON AND REYNOLDS STREETS KANE PA 0 -0 MCKEAN,
MCMULLEN PROGRAM - PHASE II,CORPORATION,PA,,,,,,,,2343937,GEODYNAMICS OIL AND GAS INC,OWNER,329 BENJAMIN FOX PAVILION JENKINTOWN PA 19046-0 MONTGOMERY,
LEADCLAD PRODUCTS COMPANY,CORPORATION,PA,,,,,,,,2343938,NORDMAN & CALLERY COMPANY,OWNER,MAGEE BUILDING PITTSBURGH PA 0 -0 ALLEGHENY,
THE NEIGHBORHOOD STORE,CORPORATION,PA,,,,,,,,2343939,NICHOLAS LAZARKO,OWNER,UNKNOWN HEIDELBERG PA 0 -0,
NESHAMINY PARK MANAGEMENT COMPANY,CORPORATION,PA,,,,,,,,2343940,CONTINENTAL THOROUGHBRED RACING ASSOC,OWNER,UNKNOWN BENSALEM PA 0 -0 BUCKS,
NEW BRIDGE CIGAR STORE,CORPORATION,PA,,,,PA,529 VINE ST,PHILADELPHIA,,2343941,CECELIA SCHIFF,OWNER,529 VINE ST PHILADELPHIA PA 0 -0 PHILADELPHIA,
NESBIT RECORD SHOP,CORPORATION,PA,,,,PA,205 S 56TH ST,PHILADELPHIA,,2343942,CHARLES NESBIT,OWNER,205 S 56TH ST PHILADELPHIA PA 0 -0 PHILADELPHIA,
FRANK NELSON'S SONS,CORPORATION,PA,,,,,,,,2343943,HOWARD B NELSON,OWNER,UNKNOWN PHILADELPHIA PA 0 -0 PHILADELPHIA,
MELROSE DAY CAMP & SUMMER SCHOOL,CORPORATION,PA,,,,,,,,2343944,,,UNKNOWN OAK LANE PA 0 -0 PHILADELPHIA,
LOGAN PASTRY SHOPPE,CORPORATION,PA,,,,,,,,2343945,HERMAN G FREED,OWNER,1339-41 W ROCKLAND ST LOGAN PHILADELPHIA PA 0 -0 PHILADELPHIA,
W. F. NEFF CO.,CORPORATION,PA,,,,PA,1245 GORDON ST,ALLENTOWN,,2343946,WILLIAM F NEFF,OWNER,1245 GORDON ST ALLENTOWN PA 0 -0 LEHIGH,
LEEFSON CONSERVATORY OF MUSIC,CORPORATION,PA,,,,PA,WEIGHTMAN BUILDING 1524 CHESTNUT STREET,PHILADELPHIA,,2343947,JULIUS LEEFSON,OWNER,WEIGHTMAN BUILDING 1524 CHESTNUT STREET PHILADELPHIA PA 0 -0 PHILADELPHIA,
LEGRAND MINE DRILL WORKS,CORPORATION,PA,,,,PA,66-68 PLYMOUTH ST,KINGSTON,,2343948,BENJAMIN F JAMES SR,OWNER,66-68 PLYMOUTH ST KINGSTON PA 0 -0 LUZERNE,
LACKAWANNA CAB COMPANY,CORPORATION,PA,,,,,,,,2343949,RICHARD O BEVILL ETAL,OWNER,49 CRYSTAL ST EAST STROUDSBURG PA 0 -0 MONROE,
NESBIT NEON SIGN CO,CORPORATION,PA,,,,,,,,2343950,MATTHEW J NESBIT,OWNER,UNKNOWN LANCASTER PA 0 -0 LANCASTER,
"MCCLEAN, W. S. & COMPANY",CORPORATION,PA,,,,PA,1309 WALNUT ST,PHILADELPHIA,,2343951,WILBUR S MCCLEAN,OWNER,1309 WALNUT ST PHILADELPHIA PA 0 -0 PHILADELPHIA,
KYLERS GARAGE,CORPORATION,PA,,,,,,,,2343952,FRED C KYLER,OWNER,BAKERS SUMMIT BEDFORD PA 0 -0 BEDFORD,
NEIGHBORHOOD WHOLESALES DISTRIBUTORS,CORPORATION,PA,,,,PA,831 19TH ST,ALTOONA,,2343953,SCOTT A WELTEROTH,OWNER,831 19TH ST ALTOONA PA 16602-0 BLAIR,
LAVINSKY'S ANTIQUE SHOPS,CORPORATION,PA,,,,PA,1128-30 PINE STREET,PHILADELPHIA,,2343954,MORRIS LAVINSKY,OWNER,1128-30 PINE STREET PHILADELPHIA PA 0 -0 PHILADELPHIA,
NESHAMINY RACE TRACK,CORPORATION,PA,,,,,,,,2343955,EAGLE DOWNS RACING ASSOCIATION,OWNER,UNKNOWN BENSALEM TWP PA 0 -0 BUCKS,
NES-CON PAINTING CONTRACTING COMPANY,CORPORATION,PA,,,,,,,,2343956,,,UNKNOWN PHILADELPHIA PA 0 -0 PHILADELPHIA,
LATROBE NEWS COMPANY,CORPORATION,PA,,,,PA,815 LIGONIER STREET,LATROBE,,2343957,JOSEPH A ERNY,OWNER,815 LIGONIER STREET LATROBE PA 0 -0 WESTMORELAND,
NEIGUT ASSOCIATES,CORPORATION,PA,,,,PA,5046 WAYNE AVE,PHILADELPHIA,,2343958,STANLEY J NEIGUT,OWNER,5046 WAYNE AVE PHILADELPHIA PA 0 -0 PHILADELPHIA,
MELROSE COURT APARTMENTS,CORPORATION,PA,,,,,,,,2343959,,,UNKNOWN MELROSE PARK PA 0 -0 MONTGOMERY,
NATIONAL IMPORTING COMPANY,CORPORATION,PA,,,,,,,,2343960,DAVID SCHOENBERGER,OWNER,230 5TH AVE ROOM 202 PITTSBURGH PA 0 -0 ALLEGHENY,
LEBANON - ATWATER - KENT RADIO AGENCY,CORPORATION,PA,,,,PA,143 NORTH EIGHTH ST,LEBANON,,2343961,PAUL B TICE,OWNER,143 NORTH EIGHTH ST LEBANON PA 0 -0 LEBANON,
THE LOFT,CORPORATION,PA,,,,PA,FAYETTE AND HIGH ST,WEST CHESTER,,2343962,JULIA T DARLINGTON,OWNER,FAYETTE AND HIGH ST WEST CHESTER PA 0 -0 CHESTER,
NEW ACCOUNTS CO.,CORPORATION,PA,,,,,,,,2343963,WILLIAM B WYLIE,OWNER,609 RENSHAW BLDG PITTSBURGH PA 0 -0 ALLEGHENY,
LENARD'S,CORPORATION,PA,,,,PA,16 N CHURCH STREET,WEST CHESTER,,2343964,LENA APFELBAUM,OWNER,16 N CHURCH STREET WEST CHESTER PA 0 -0 CHESTER,
LEROY CLEANERS AND DYERS,CORPORATION,PA,,,,PA,276 E MAIN ST,NORRISTOWN,,2343965,LEROY F KAMP,OWNER,276 E MAIN ST NORRISTOWN PA 0 -0 MONTGOMERY,
NEW ALDINE,CORPORATION,PA,,,,PA,1708 SANSOM ST,PHILADELPHIA,,2343966,BENJAMIN H NELSON,OWNER,1708 SANSOM ST PHILADELPHIA PA 0 -0 PHILADELPHIA,
LIBERTY TRADING COMPANY,CORPORATION,PA,,,,PA,2837 HUNTINGDON ST,PHILADELPHIA,,2343967,HENRY KAPLAN,OWNER,2837 HUNTINGDON ST PHILADELPHIA PA 0 -0 PHILADELPHIA,
NESBITT BOTTLING COMPANY,CORPORATION,PA,,,,,,,,2343968,,,UNKNOWN CARLISLE PA 0 -0 CUMBERLAND,
LADIES BEAUTY PARLOR,CORPORATION,PA,,,,PA,7 EAST MAIN ST,NANTICOKE,,2343969,MARY WALLER,OWNER,7 EAST MAIN ST NANTICOKE PA 0 -0 LUZERNE,
"MELLOTT, PITNEY, ROWAN & CO.",CORPORATION,PA,,,,,,,,2343970,M K MELLOTT COMPANY,OWNER,UNKNOWN PITTSBURGH PA 0 -0 ALLEGHENY,
LESLIE CANDY CO,CORPORATION,PA,,,,PA,508 CEDAR AVE,PITTSBURGH,,2343971,BERT LESLIE,OWNER,508 CEDAR AVE PITTSBURGH PA 0 -0 ALLEGHENY,
NESBITT ASSOCIATES,CORPORATION,PA,,,,PA 19312-0 CHESTER,119 CHERRY LANE,BERWYN,,2343972,JAMES K NESBITT,OWNER,119 CHERRY LANE BERWYN PA 19312-0 CHESTER,
LIPPY'S CLOTHES SHOP,CORPORATION,PA,,,,,,,,2343973,MINNIE H LIPOWITZ,OWNER,EIGHTH AND SOUTH STS PHILADELPHIA PA 0 -0 PHILADELPHIA,
NEIGHBORHOOD READERS SERVICE,CORPORATION,PA,,,,,,,,2343974,MAGAZINE SERVICE OF ERIE INC,OWNER,904 PALACE BLDG ERIE PA 0 -0 ERIE,
LIPOVITZER MUTUAL ASSOCIATION,CORPORATION,PA,,,,PA,410 TASKER ST,PHILADELPHIA,,2343975,AARON KELNER,OWNER,410 TASKER ST PHILADELPHIA PA 0 -0 PHILADELPHIA,
NEW GREEN FAN,CORPORATION,PA,,,,PA,RFD #2,IRWIN,,2343976,PAUL DELVITTO JR,OWNER,RFD #2 IRWIN PA 0 -0 WESTMORELAND,
NESHAMINY REALTY COMPANY,CORPORATION,PA,,,,,,,,2343977,DAVID H MOSKOWITZ,OWNER,3600 STREET ROAD CORNWELLS HEIGHTS PA 0 -0 BUCKS,
LEITER BROTHERS,CORPORATION,PA,,,,PA,54 SOUTH MAIN STREET,CHAMBERSBURG,,2343978,FRED LEITER,OWNER,54 SOUTH MAIN STREET CHAMBERSBURG PA 0 -0 FRANKLIN,
WM NESBIT CO,CORPORATION,PA,,,,,,,,2343979,,,UNKNOWN PITTSBURGH PA 0 -0 ALLEGHENY,
NATIONAL HEATING COMPANY,CORPORATION,PA,,,,PA,944 DEELY ST,PITTSBURGH,,2343980,JAMES J OWENS,OWNER,944 DEELY ST PITTSBURGH PA 0 -0 ALLEGHENY,
NEGIN CONSTRUCTION CO.,CORPORATION,PA,,,,PA,1809 SOUTH FOURTH STREET,PHILADELPHIA,,2343981,A NEGIN,OWNER,1809 SOUTH FOURTH STREET PHILADELPHIA PA 0 -0 PHILADELPHIA,
LEHIGHTON HARDWARE COMPANY,CORPORATION,PA,,,,PA,321 N FIRST ST,LEHIGHTON,,2343982,WILLIAM F HAMILTON,OWNER,321 N FIRST ST LEHIGHTON PA 0 -0 CARBON,
NESBIT'S SERVICENTER,CORPORATION,PA,,,,PA,3501 LEECHBURG RD,PITTSBURGH,,2343983,KENNETH CRUMLEY ET AL,OWNER,3501 LEECHBURG RD PITTSBURGH PA 0 -0 ALLEGHENY,
"NEIGHBORHOOD REALTY GROUP, U.S.A.",CORPORATION,PA,,,,PA,7909 OGONTZ AVE,PHILADELPHIA,,2343984,"BALL REAL ESTATE, INC.",OWNER,7909 OGONTZ AVE PHILADELPHIA PA 0 -0 PHILADELPHIA,
LATROBE AUTO WRECKERS,CORPORATION,PA,,,,PA,LLOYD AVE,LATROBE,,2343985,ARTHUR A NESSLER,OWNER,LLOYD AVE LATROBE PA 0 -0 WESTMORELAND,
LITTLELL-GUNCHEON CO,CORPORATION,PA,,,,PA,1223 BRADDOCK AVE,EDGEWOOD,,2343986,D H LITTELL,OWNER,1223 BRADDOCK AVE EDGEWOOD PA 0 -0 ALLEGHENY,
NELSON MOTOR SALES,CORPORATION,PA,,,,PA,1000 MARKET STREET,MEADVILLE,,2343987,JOHN D NELSON,OWNER,1000 MARKET STREET MEADVILLE PA 0 -0 CRAWFORD,
NELLO CONSTRUCTION COMPANY,CORPORATION,PA,,,,PA,230 EAST MAIN STREET,CARNEGIE,15106,2343988,GITO INC,OWNER,230 EAST MAIN STREET CARNEGIE PA 15106 ALLEGHENY,
NEW CASTLE COAL MINING COMPANY,CORPORATION,PA,,,,,,,,2343989,SAM DICARLO,OWNER,UNKNOWN NEW CASTLE PA 0 -0 LAWRENCE,
M. K. MELLOTT COMPANY,CORPORATION,PA,,,,PA,WOODLAND MANOR APTS 5903 FIFTH AVE,PITTSBURGH,,2343990,M K MELLOTT,OWNER,WOODLAND MANOR APTS 5903 FIFTH AVE PITTSBURGH PA 0 -0 ALLEGHENY,
LINN - REPUBLIC SALES COMPANY,CORPORATION,PA,,,,PA,26TH & MOORE STREETS,PHILADELPHIA,,2343991,CHAS. L BOWLER,OWNER,26TH & MOORE STREETS PHILADELPHIA PA 0 -0 PHILADELPHIA,
LEIDIG MOTOR SALES,CORPORATION,PA,,,,PA,1303 BROADWAY,BETHLEHEM,,2343992,ED LEIDIG,OWNER,1303 BROADWAY BETHLEHEM PA 0 -0 NORTHAMPTON,
FRANK S. NELSON COMPANY,CORPORATION,PA,,,,,,,,2343993,UNITED INDUSTRIAL SYNDICATE INC,OWNER,FOUNTAIN ST & CANAL BANK PHILADELPHIA PA 0 -0 PHILADELPHIA,
NATIONAL HEATING COMPANY,CORPORATION,PA,,,,PA,730 WHARTON ST,PHILADELPHIA,,2343994,FRANK GIAMPETRO,OWNER,730 WHARTON ST PHILADELPHIA PA 0 -0 PHILADELPHIA,
LEADER SUPPLY COMPANY,CORPORATION,PA,,,,PA,5190 LANCASTER AVE,PHILADELPHIA,,2343995,ABRAHAM K COHEN,OWNER,5190 LANCASTER AVE PHILADELPHIA PA 0 -0 PHILADELPHIA,
"NEIGHBORHOOD REALTY GROUP, U.S.A., JORDAN, INC.",CORPORATION,PA,,,,PA 19372-0 CHESTER,3905 E LINCOLN HWY,THORNDALE,,2343996,BRAIN A JORDAN INC.,OWNER,3905 E LINCOLN HWY THORNDALE PA 19372-0 CHESTER,
NESBIT NEON SIGN CO,CORPORATION,PA,,,,,,,,2343997,MATTHEW J NESBIT,OWNER,UNKNOWN LANCASTER PA 0 -0 LANCASTER,
NESHAMINY STAMP AND COIN,CORPORATION,PA,,,,,,,,2343998,ALAN FADEN,OWNER,"NESHAMINY MALL, STORE #110 CORNWELLS HEIGHTS PA 0 -0 BUCKS",
LILY HATS,CORPORATION,PA,,,,PA,1914 S SEVENTH STREET,PHILADELPHIA,,2343999,LEON BERNSTEIN,OWNER,1914 S SEVENTH STREET PHILADELPHIA PA 0 -0 PHILADELPHIA,
"LINCOLN CLEANING, DYEING AND TAILORING COMPANY",CORPORATION,PA,,,,PA,1917 N 4TH ST,PHILADELPHIA,,2344000,HARRY LEVIT,OWNER,1917 N 4TH ST PHILADELPHIA PA 0 -0 PHILADELPHIA,
NELSON FUR CRAFT,CORPORATION,PA,,,,,,,,2344001,ROBERG B MESSER,OWNER,UNKNOWN YORK PA 0 -0 YORK,
LIEBEL & APPELMAN,CORPORATION,PA,,,,PA,2502 SASSAFRAS ST,ERIE,,2344002,JOSEPH LIEBEL,OWNER,2502 SASSAFRAS ST ERIE PA 0 -0 ERIE,
NATIONAL HEATING COMPANY,CORPORATION,PA,,,,,,,,2344003,,,UNKNOWN PHILADELPHIA PA 0 -0 PHILADELPHIA,
G J MELLOTT TRANSFER CO,CORPORATION,PA,,,,,,,,2344004,,,UNKNOWN PITTSBURGH PA 0 -0 ALLEGHENY,
NEVEMAR SHOPS,CORPORATION,PA,,,,,,,,2344005,NEVIN MAURER,OWNER,UNKNOWN NEW BERLIN PA 0 -0 UNION,
NESBIT MEAT MARKET,CORPORATION,PA,,,,,,,,2344006,,,UNKNOWN NEW CASTLE PA 0 -0 LAWRENCE,
LATROBE GASOLINE & SUPPLY COMPANY,CORPORATION,PA,,,,,,,,2344007,M A YINGLING,OWNER,UNKNOWN LATROBE PA 0 -0 WESTMORELAND,
NEIGHBORHOOD REMODELERS & ACCEPTANCE CO.,CORPORATION,PA,,,,PA 15146-0 ALLEGHENY,100 OXFORD DR,MONROEVILLE,,2344008,RAYMOND F MELANI,OWNER,100 OXFORD DR MONROEVILLE PA 15146-0 ALLEGHENY,
NEON SIGN SERVICE COMPANY OF PITTSBURGH,CORPORATION,PA,,,,PA,322 COLLINS AVENUE,PITTSBURGH,,2344009,H S WILLIAMS JR,OWNER,322 COLLINS AVENUE PITTSBURGH PA 0 -0 ALLEGHENY,
NELSON FLYING SERVICE,CORPORATION,PA,,,,,,,,2344010,MARGARET C NELSON,OWNER,UNKNOWN SWIFTWATER PA 0 -0 MONROE,
LEMAR SHOE CO,CORPORATION,PA,,,,PA,2232 S 7TH ST,PHILADELPHIA,,2344011,ESTHER GOTTFRIED,OWNER,2232 S 7TH ST PHILADELPHIA PA 0 -0 PHILADELPHIA,
NEIGHBORHOOD SHOP,CORPORATION,PA,,,,PA,110 S FARRAGUT TERRACE,PHILADELPHIA,,2344012,EMMA WEBSTER HOOPER,OWNER,110 S FARRAGUT TERRACE PHILADELPHIA PA 0 -0 PHILADELPHIA,
LOGAN PHARMACY,CORPORATION,PA,,,,PA,59 LOGAN ST,PITTSBURGH,,2344013,SAUL WEINBERGER,OWNER,59 LOGAN ST PITTSBURGH PA 0 -0 ALLEGHENY,
RICHARD N. NESE. SECURITY SPECIALISTS,CORPORATION,PA,,,,PA 15235-0 ALLEGHENY,223 THOMPSON RUN RD,PITTSBURGH,,2344014,RICHARD N NESE,OWNER,223 THOMPSON RUN RD PITTSBURGH PA 15235-0 ALLEGHENY,
NESHAMINY MALL,CORPORATION,PA,,,,PA,INTERSECTION OF U.S. RT 1 BRISTOL RD & TREVOSE RD,BENSALEM,,2344015,THE MUTUAL LIFE INSURANCE CO OF N.Y.,OWNER,INTERSECTION OF U.S. RT 1 BRISTOL RD & TREVOSE RD BENSALEM PA 0 -0 BUCKS,
THE NEIGHBORHOOD SHOP,CORPORATION,PA,,,,PA 17543-0 LANCASTER,RD3 BOX 231,LITITZ,,2344016,KENT J KRAUSE,OWNER,RD3 BOX 231 LITITZ PA 17543-0 LANCASTER,
LATIN REALTY COMPANY,CORPORATION,PA,,,,PA,4958 MASTER ST,PHILADELPHIA,,2344017,RAYMOND RECCHIUTI,OWNER,4958 MASTER ST PHILADELPHIA PA 0 -0 PHILADELPHIA,
FRANK NELSON'S SONS,CORPORATION,PA,,,,,,,,2344018,HOWARD B NELSON ET AL,OWNER,UNKNOWN PHILADELPHIA PA 0 -0 PHILADELPHIA,
LIBERTY PEANUT BUTTER PRODUCTS COMPANY,CORPORATION,PA,,,,PA,323 W BERKS STREETS,PHILADELPHIA,,2344019,ABRAHAM ADELMAN,OWNER,323 W BERKS STREETS PHILADELPHIA PA 0 -0 PHILADELPHIA,
MELLOTT'S CUSTOM FLOORS,CORPORATION,PA,,,,,,,,2344020,RODGER K CORNELIUS,OWNER,503 LINCOLN WAY EAST MCCONNELLSBURG PA 0 -0 FULTON,
L'ARGENT,CORPORATION,PA,,,,PA,21 N 11TH ST,PHILADELPHIA,,2344021,ADOLPH ITSKOWITZ,OWNER,21 N 11TH ST PHILADELPHIA PA 0 -0 PHILADELPHIA,
NESCOR AUTOMATIC MERCHANDISING CO,CORPORATION,PA,,,,,,,,2344022,LEONARD A FISH,OWNER,UNKNOWN PHILADELPHIA PA 0 -0 PHILADELPHIA,
NEIGHBORHOOD SHOP,CORPORATION,PA,,,,PA,1640 N 6TH ST,HARRISBURG,,2344023,LOUIS PLATT,OWNER,1640 N 6TH ST HARRISBURG PA 0 -0 DAUPHIN,
NESTI BROTHERS BAKERY,CORPORATION,PA,,,,PA,326 MAIN STREET,MONONGAHELA,,2344024,NELLO NESTI,OWNER,326 MAIN STREET MONONGAHELA PA 0 -0 WASHINGTON,
NEIGHBORHOOD QUALITEE DRY CLEANERS,CORPORATION,PA,,,,,,,,2344025,CHARLES T CUNNINGHAM,OWNER,UNKNOWN PITTSBURGH PA 0 -0 ALLEGHENY,
NELSON METAL FABRICATING,CORPORATION,PA,,,,,,,,2344026,ROBERT E CASHDOLLAR SR,OWNER,R D #1 PORTERSVILLE PA 0 -0 BUTLER,
LINCOLN SHOE REPAIRING AND HAT CLEANING SHOP,CORPORATION,PA,,,,PA,220 MARKET STREET,PHILADELPHIA,,2344027,GUISEPPE GIUNTA,OWNER,220 MARKET STREET PHILADELPHIA PA 0 -0 PHILADELPHIA,
NEW BON TON HAT SHOP,CORPORATION,PA,,,,PA,2ND FL 212 CENTER ST,OIL CITY,,2344028,IRENE BRANT,OWNER,2ND FL 212 CENTER ST OIL CITY PA 0 -0 VENANGO,
NESCOPECK CANOE CAMP,CORPORATION,PA,,,,PA,LARACK ROAD,SUGARLOAF,,2344029,GEORGE DAVIES,OWNER,LARACK ROAD SUGARLOAF PA 0 -0 LUZERNE,
LIBERTY SILK DYE WORKS,CORPORATION,PA,,,,PA,135 WEST OXFORD ST,PHILADELPHIA,,2344030,WM. F BENGEL,OWNER,135 WEST OXFORD ST PHILADELPHIA PA 0 -0 PHILADELPHIA,
LAFAYETTE EATING HOUSE,CORPORATION,PA,,,,PA,469 NORTHAMPTON ST,EASTON,,2344031,STEVE KRETEKOS,OWNER,469 NORTHAMPTON ST EASTON PA 0 -0 NORTHAMPTON,
LANSDALE HEATING SUPPLIES COMPANY,CORPORATION,PA,,,,,,,,2344032,LEWIS T TROSTER,OWNER,UNKNOWN LANSDALE PA 0 -0 MONTGOMERY,
MODERN DAIRY,CORPORATION,PA,,,,,,,,2344033,JOHN EDWARD HAY,OWNER,UNKNOWN BERLIN PA 0 -0 SOMERSET,
NEIGHBORHOOD REALTY,CORPORATION,PA,,,,PA 15146-0 ALLEGHENY,4401 OLD WILLIAM PENN HWY,MONROEVILLE,,2344034,GERALD P IRWIN,OWNER,4401 OLD WILLIAM PENN HWY MONROEVILLE PA 15146-0 ALLEGHENY,
NESCO LOOSE LEAF COMPANY,CORPORATION,PA,,,,,,,,2344035,PAUL FRANKEL,OWNER,UNKNOWN PHILADELPHIA PA 0 -0 PHILADELPHIA,
NELSON IMPORT SERVICE,CORPORATION,PA,,,,PA 15213-0 ALLEGHENY,3415 FORBES AVE,PITTSBURGH,,2344036,JAMES NELSON,OWNER,3415 FORBES AVE PITTSBURGH PA 15213-0 ALLEGHENY,
"MELLWIG, JOSEPH J.",CORPORATION,PA,,,,PA,4428 FRANKFORD AVE,PHILADELPHIA,,2344037,MARY C MELLWIG,OWNER,4428 FRANKFORD AVE PHILADELPHIA PA 0 -0 PHILADELPHIA,
LIBERTY LIQUIDATING COMPANY,CORPORATION,PA,,,,,,,,2344038,W H SHIRK,OWNER,EIGHTH AND SCULL STREETS LEBANON PA 0 -0 LEBANON,
J. CHARLES NEURATH,CORPORATION,PA,,,,PA,3536-3538 N. 8TH STREET,PHILADELPHIA,,2344039,JAMES CARROLL,OWNER,3536-3538 N. 8TH STREET PHILADELPHIA PA 0 -0 PHILADELPHIA,
J. NELSON AND ASSOCIATES,CORPORATION,PA,,,,PA 17110-0 DAUPHIN,1405 MONTFORT DR,HARRISBURG,,2344040,JOHN NELSON,OWNER,1405 MONTFORT DR HARRISBURG PA 17110-0 DAUPHIN,
NEIGHBORHOOD VIDEO CENTER,CORPORATION,PA,,,,PA,5542 TORRESDALE AVE,PHILADELPHIA,,2344041,FRANCIS J MCINTYRE ETAL,OWNER,5542 TORRESDALE AVE PHILADELPHIA PA 0 -0 PHILADELPHIA,
NESCO COAL COMPANY,CORPORATION,PA,,,,,,,,2344042,,,UNKNOWN HAZLETON PA 0 -0 LUZERNE,
LANGMAN'S,CORPORATION,PA,,,,PA,406 MARKET ST,HARRISBURG,,2344043,MAX LANGMAN,OWNER,406 MARKET ST HARRISBURG PA 0 -0 DAUPHIN,
LA-BAR STEEL PRODUCTS,CORPORATION,PA,,,,PA,204 MARINE BLDG DELAWARE AVE & SOUTH ST,PHILADELPHIA,,2344044,CARL M STEWART,OWNER,204 MARINE BLDG DELAWARE AVE & SOUTH ST PHILADELPHIA PA 0 -0 PHILADELPHIA,
LAWRENCE NELSON DESIGNS,CORPORATION,PA,,,,PA 19083-0 DELAWARE,2110 DARBY RD,HAVERTOWN,,2344045,LAWRENCE NELSON,OWNER,2110 DARBY RD HAVERTOWN PA 19083-0 DELAWARE,
"MELLOY'S, JOHN M SONS",CORPORATION,PA,,,,,,,,2344046,,,UNKNOWN PHILADELPHIA PA 0 -0 PHILADELPHIA,
NEIL'S AUTO PARTS,CORPORATION,PA,,,,,,,,2344047,NEIL CHIRICO,OWNER,UNKNOWN PHILADELPHIA PA 0 -0 PHILADELPHIA,
NESCO & CO.,CORPORATION,PA,,,,PA,219 W 4TH ST,WILLIAMSPORT,,2344048,ARTHUR A NESTLERODE ET AL,OWNER,219 W 4TH ST WILLIAMSPORT PA 0 -0 LYCOMING,
LANG BROTHERS COMPANY,CORPORATION,PA,,,,PA,801 MAIN ST,SHARPSBURG,,2344049,THEO J LANG,OWNER,801 MAIN ST SHARPSBURG PA 0 -0 ALLEGHENY,
LEWISTOWN MANUFACTURING COMPANY,CORPORATION,PA,,,,,,,,2344050,LESTER ALBERT NIGHTHART,OWNER,UNKNOWN LEWISTOWN PA 0 -0 MIFFLIN,
NEHI BOTTLING CO. OF COATESVILLE,CORPORATION,PA,,,,PA,233 HARMONY STREET,COATESVILLE,,2344051,OSCAR RODLINE,OWNER,233 HARMONY STREET COATESVILLE PA 0 -0 CHESTER,
NELSON MARTY THEATRICAL ENTERPRISES,CORPORATION,PA,,,,,,,,2344052,,,UNKNOWN PITTSBURGH PA 0 -0 ALLEGHENY,
LORE AND SIEMON,CORPORATION,PA,,,,,,,,2344053,HARRY A SIEMON,OWNER,UNKNOWN WEST NEWTON PA 0 -0 WESTMORELAND,
NEW CRYSTAL RESTAURANT,CORPORATION,PA,,,,PA,NO 120 FEDERAL ST,NORTH SIDE PITTSBURGH,,2344054,SAM STRINGER,OWNER,NO 120 FEDERAL ST NORTH SIDE PITTSBURGH PA 0 -0 ALLEGHENY,
NEIL'S AUTO SEAT COVERS & UPHOLSTERY,CORPORATION,PA,,,,PA,214 3RD ST,CARNEGIE,,2344055,NEIL BRONSON,OWNER,214 3RD ST CARNEGIE PA 0 -0 ALLEGHENY,
F. C. NESBITT STORES,CORPORATION,PA,,,,,,,,2344056,MARION M NESBITT,OWNER,UNKNOWN SHENANDOAH PA 0 -0 SCHUYLKILL,
JOHN W. NELSON COMPANY,CORPORATION,PA,,,,,,,,2344057,M NELSON KARPEL,OWNER,UNKNOWN ORELAND PA 0 -0 MONTGOMERY,
LACY & ACKENHEIL,CORPORATION,PA,,,,,,,,2344058,J D ACKENHEIL,OWNER,BOURSE BLDG PHILADELPHIA PA 0 -0 PHILADELPHIA,
LEWISBURG CLEANERS & DYERS,CORPORATION,PA,,,,PA,326 MARKET ST,LEWISBURG,,2344059,RAY D FARLEY,OWNER,326 MARKET ST LEWISBURG PA 0 -0 UNION,
KUSHNER BROTHERS,CORPORATION,PA,,,,PA,1042 RIDGE AVE,PHILADELPHIA,,2344060,MAX KUSHNER ETAL,OWNER,1042 RIDGE AVE PHILADELPHIA PA 0 -0 PHILADELPHIA,
H. W. MCNEILL & COMPANY,CORPORATION,PA,,,,PA,1018 WALNUT ST,PHILADELPHIA,,2344061,HARRY W MCNEILL,OWNER,1018 WALNUT ST PHILADELPHIA PA 0 -0 PHILADELPHIA,
LINCOLN SHOE REPAIR COMPANY,CORPORATION,PA,,,,PA,21 E MAIN STREET,MOUNT JOY,,2344062,JOSEPHINE J CICERO,OWNER,21 E MAIN STREET MOUNT JOY PA 0 -0 LANCASTER,
NESHAMINY MARINA,CORPORATION,PA,,,,PA,127 NESHAMINY RD,CROYDON,,2344063,FRANK MALONE,OWNER,127 NESHAMINY RD CROYDON PA 0 -0 BUCKS,
NEVILLE AND STINE,CORPORATION,PA,,,,PA,3937 PINE STREET,PHILADELPHIA,,2344064,R T NEVILLE JR.,OWNER,3937 PINE STREET PHILADELPHIA PA 0 -0 PHILADELPHIA,
NEW FLORENCE OVERALL FACTORY,CORPORATION,PA,,,,PA,13TH ST,NEW FLORENCE,,2344065,WILLIAM K TRIMBLE,OWNER,13TH ST NEW FLORENCE PA 0 -0 WESTMORELAND,
LARSON LAND AGENCY,CORPORATION,PA,,,,PA,1315 N HOMEWOOD AVENUE,PITTSBURGH,,2344066,HARRY O LARSON,OWNER,1315 N HOMEWOOD AVENUE PITTSBURGH PA 0 -0 ALLEGHENY,
MELLOW MAID DARI,CORPORATION,PA,,,,,,,,2344067,JOSEPHINE NORCZYK,OWNER,UNKNOWN WEST HOMESTEAD PA 0 -0 ALLEGHENY,
NESBITT BOTTLING COMPANY OF LANCASTER,CORPORATION,PA,,,,,,,,2344068,PAUL DI CICCO,OWNER,UNKNOWN LANCASTER PA 0 -0 LANCASTER,
J E NELSON & SONS,CORPORATION,PA,,,,,,,,2344069,DONALD G NELSON,OWNER,UNKNOWN ALTOONA PA 0 -0 BLAIR,
LEESBURG SUPPLY COMPANY,CORPORATION,PA,,,,,,,,2344070,L R SPECHT,OWNER,UNKNOWN LEESBURG PA 0 -0 MERCER,
NEIL BUILDERS & CONTRACTORS CO.,CORPORATION,PA,,,,PA,420 ROLLINGSGATE COURT,ANDALUSIA,,2344071,NEIL FINE,OWNER,420 ROLLINGSGATE COURT ANDALUSIA PA 19020-0 BUCKS,
F. J. KISTLER & SON,CORPORATION,PA,,,,,,,,2344072,LEE S KISTLER,OWNER,24-46 WASHINGTON ST EAST STROUDSBURG PA 0 -0 MONROE,
NELVA APRON-DRESS COMPANY,CORPORATION,PA,,,,PA,413 LOCUST ST,PHILADELPHIA,,2344073,ELIZABETH WARNER BRAY,OWNER,413 LOCUST ST PHILADELPHIA PA 0 -0 PHILADELPHIA,
LINEKER MOTOR SERVICE COMPANY,CORPORATION,PA,,,,PA,5623-25-27-29 VINE ST,PHILADELPHIA,,2344074,ARTHUR F LINEKER,OWNER,5623-25-27-29 VINE ST PHILADELPHIA PA 0 -0 PHILADELPHIA,
LA - BLUM,CORPORATION,PA,,,,PA,939 N 7TH ST,PHILADELPHIA,,2344075,MORRIS BLUMFIELD,OWNER,939 N 7TH ST PHILADELPHIA PA 0 -0 PHILADELPHIA,
NELSON INDUSTRIES,CORPORATION,PA,,,,,,,,2344076,FRED E NELSON,OWNER,UNKNOWN PITTSBURGH PA 0 -0 ALLEGHENY,
LARIMER AVENUE BARGAIN HOUSE,CORPORATION,PA,,,,PA,648 LARIMER AVENUE,PITTSBURGH,,2344077,SAM THOMAS,OWNER,648 LARIMER AVENUE PITTSBURGH PA 0 -0 ALLEGHENY,
MONTELLO KNITTING MILL,CORPORATION,PA,,,,,,,,2344078,PHILIP D LUDWIG,OWNER,UNKNOWN MONTELLO PA 0 -0 BERKS,
NEW ERA MACHINE & TOOL CO.,CORPORATION,PA,,,,PA,1811-19 E RUSSELL STREET,PHILADELPHIA,,2344079,WILLIAM S WALLACE,OWNER,1811-19 E RUSSELL STREET PHILADELPHIA PA 0 -0 PHILADELPHIA,
NESH-TOW NATURE NOOK,CORPORATION,PA,,,,PA,2828 GRACELAND RD,NEW CASTLE,,2344080,ADOLPH M NOGAY,OWNER,2828 GRACELAND RD NEW CASTLE PA 0 -0 LAWRENCE,
LEHIGH PLATING COMPANY,CORPORATION,PA,,,,PA,159 WEST LEHIGH AVE,PHILADELPHIA,,2344081,WILLIAM GARRICK,OWNER,159 WEST LEHIGH AVE PHILADELPHIA PA 0 -0 PHILADELPHIA,
LINCOLN SHOE REPAIRING,CORPORATION,PA,,,,PA,3536 N 17TH STREET,PHILADELPHIA,,2344082,JOSEPH D'AMICO,OWNER,3536 N 17TH STREET PHILADELPHIA PA 0 -0 PHILADELPHIA,
"MELLOTT, THOMSEN, PITNEY, ROWAN & CO.",CORPORATION,PA,,,,,,,,2344083,M K MELLOTT COMPANY,OWNER,UNKNOWN PITTSBURGH PA 0 -0 ALLEGHENY,
NELSON-NATIONAL,CORPORATION,PA,,,,PA,24TH & LOCUST STS,PHILADELPHIA,,2344084,NATIONAL PUBLISHING COMPANY,OWNER,24TH & LOCUST STS PHILADELPHIA PA 0 -0 PHILADELPHIA,
NEIL'S CUSTOM DESIGN JEWELRY,CORPORATION,PA,,,,PA 19106-0 PHILADELPHIA,116 S 7TH ST SUITE 502,PHILADELPHIA,,2344085,NERO JONES,OWNER,116 S 7TH ST SUITE 502 PHILADELPHIA PA 19106-0 PHILADELPHIA,
LIDO ITALIAN RESTAURANT,CORPORATION,PA,,,,PA,512 GRANT ST,PITTSBURGH,,2344086,WILLIAM RISSO,OWNER,512 GRANT ST PITTSBURGH PA 0 -0 ALLEGHENY,
NESE ENERGY,CORPORATION,PA,,,,PA,17 PATRICE COURT,PITTSBURGH,,2344087,VINCENT A NESE ETC,OWNER,17 PATRICE COURT PITTSBURGH PA 0 -0 ALLEGHENY,
NELSON MILLING AND WAREHOUSE CO.,CORPORATION,PA,,,,,,,,2344088,HAROLD M NELSON,OWNER,UNKNOWN DUBOIS PA 0 -0 CLEARFIELD,
LANIGAV HYGIENIC SALES COMPANY,CORPORATION,PA,,,,,,,,2344089,WILLIAM T HIBBS ETAL,OWNER,1225 HIGHLAND BLDG PITTSBURGH PA 0 -0 ALLEGHENY,
NEIDERHISER BUICK COMPANY,CORPORATION,PA,,,,,,,,2344090,R D NEIDERHISER,OWNER,UNKNOWN WEST NEWTON PA 0 -0 WESTMORELAND,
"LINDBERG, A. H. & CO.",CORPORATION,PA,,,,PA,1700 WALNUT STREET,PHILADELPHIA,,2344091,NILS P NYBORG,OWNER,1700 WALNUT STREET PHILADELPHIA PA 0 -0 PHILADELPHIA,
NEIL DAVIS CONSTRUCTION,CORPORATION,PA,,,,PA 19355-0 CHESTER,281 PROVIDENCE RD RD#2,MALVERN,,2344092,ACORN CONSTRUCTION LTD.,OWNER,281 PROVIDENCE RD RD#2 MALVERN PA 19355-0 CHESTER,
NEW CASTLE FLINT COMPANY,CORPORATION,PA,,,,PA,#316 EAST NORTH STREET,NEW CASTLE,,2344093,EDMONDO G DOYNO,OWNER,#316 EAST NORTH STREET NEW CASTLE PA 0 -0 LAWRENCE,
LA POSTE BEAUTY CULTURE SCHOOL,CORPORATION,PA,,,,PA,225 SOUTH 52ND STREET,PHILADELPHIA,,2344094,CHARLES POSTERNOCK,OWNER,225 SOUTH 52ND STREET PHILADELPHIA PA 0 -0 PHILADELPHIA,
MELLOTT & SNYDER,CORPORATION,PA,,,,,,,,2344095,,,UNKNOWN PITTSBURGH PA 0 -0 ALLEGHENY,
LAW ELECTRIC,CORPORATION,PA,,,,PA,145 W MAIN ST,NORRISTOWN,,2344096,ELLIS M LAW,OWNER,145 W MAIN ST NORRISTOWN PA 0 -0 MONTGOMERY,
NELSON MILK EXCHANGE,CORPORATION,PA,,,,,,,,2344097,,,UNKNOWN MONONGAHELA PA 0 -0 WASHINGTON,
MCWILLIAMS' BROTHERS,CORPORATION,PA,,,,PA,334 MILL ST,DANVILLE,,2344098,WILLIAM F MCWILLIAMS,OWNER,334 MILL ST DANVILLE PA 0 -0 MONTOUR,
LEGION RESTAURANT,CORPORATION,PA,,,,PA,1603-1607 ORTHODOX ST,PHILADELPHIA,,2344099,STEPHEN G PAPPAS,OWNER,1603-1607 ORTHODOX ST PHILADELPHIA PA 0 -0 PHILADELPHIA,
NESCOPEK SERVICE STATION,CORPORATION,PA,,,,,,,,2344100,,,UNKNOWN NESCOPEK PA 0 -0 LUZERNE,
NEW HAMILTON GARAGE,CORPORATION,PA,,,,PA,127-135 S 37TH ST,PHILADELPHIA,,2344101,HARRY J BLOCH,OWNER,127-135 S 37TH ST PHILADELPHIA PA 0 -0 PHILADELPHIA,
NELSON-NIEL FURS,CORPORATION,PA,,,,,,,,2344102,SOL HORDOF,OWNER,UNKNOWN LEWISTOWN PA 0 -0 MIFFLIN,
NESCO CO,CORPORATION,PA,,,,,,,,2344103,ARTHUR D FAGGEN,OWNER,UNKNOWN HAVERTOWN PA 0 -0 DELAWARE,
NEIL HOWARD COMPANY,CORPORATION,PA,,,,,,,,2344104,FRANK GREENBERG,OWNER,UNKNOWN PHILADELPHIA PA 0 -0 PHILADELPHIA,
NELSON PATTERN WORKS,CORPORATION,PA,,,,,,,,2344105,OLIVER W NELSON,OWNER,PERCY & HAMILTON STS PHILADELPHIA PA 0 -0 PHILADELPHIA,
NESHAMINY MOTORS,CORPORATION,PA,,,,PA,ROUTE 611,NESHAMINY,,2344106,SIDNEY A PROCTOR,OWNER,ROUTE 611 NESHAMINY PA 0 -0 BUCKS,
"LICHOW, RALPH & COMPANY",CORPORATION,PA,,,,PA,LICHOW BLDG 5TH & PARRISH STS,PHILADELPHIA,,2344107,RALPH LICHOW,OWNER,LICHOW BLDG 5TH & PARRISH STS PHILADELPHIA PA 0 -0 PHILADELPHIA,
LOCUST SALES CO.,CORPORATION,PA,,,,PA,1015 W WYOMING AVE,PHILADELPHIA,,2344108,SARAH PRICE HALPERN,OWNER,1015 W WYOMING AVE PHILADELPHIA PA 0 -0 PHILADELPHIA,
THE LEWIS STORE,CORPORATION,PA,,,,PA,508 LACKAWANNA AVENUE,SCRANTON,,2344109,S R HINERFELD,OWNER,508 LACKAWANNA AVENUE SCRANTON PA 0 -0 LACKAWANNA,
LEE'S MENS STORE,CORPORATION,PA,,,,PA,441 HAMILTON ST,ALLENTOWN,,2344110,LEON J NEIBURGER,OWNER,441 HAMILTON ST ALLENTOWN PA 0 -0 LEHIGH,
MELLOTT MOBILE HOME SITES,CORPORATION,PA,,,,PA,1857 N ATHERTON ST,STATE COLLEGE,16801-0,2344111,FRED NICHOLAS ETAL,OWNER,1857 N ATHERTON ST STATE COLLEGE PA 16801-0 CENTRE,
NEW CASTLE RENT-CAR-COMPANY,CORPORATION,PA,,,,,,,,2344112,CHARLES C HARRY,OWNER,332 CROTON AVENUE NEW CASTLE PA 0 -0 LAWRENCE,
LAFAYETTE OIL COMPANY,CORPORATION,PA,,,,,,,,2344113,W T PIPER,OWNER,UNKNOWN BRADFORD PA 0 -0 MCKEAN,
NESCO ELECTRIC SERVICE CO,CORPORATION,PA,,,,,,,,2344114,A H RICHARDSON,OWNER,UNKNOWN PHILADELPHIA PA 0 -0 PHILADELPHIA,
NELSON MOTORS,CORPORATION,PA,,,,,,,,2344115,NELSON BURDUMY,OWNER,UNKNOWN PHILADELPHIA PA 0 -0 PHILADELPHIA,
NEW BRUNSWICK WHOLESALE DRUG COMPANY,CORPORATION,PA,,,,PA,5216 MARKET ST,PHILADELPHIA,,2344116,MAURICE E TROUT,OWNER,5216 MARKET ST PHILADELPHIA PA 0 -0 PHILADELPHIA,
KIRSCHNERS,CORPORATION,PA,,,,PA,909-911 STATE ST,ERIE,,2344117,HARRY C KIRSCHNER,OWNER,909-911 STATE ST ERIE PA 0 -0 ERIE,
THE LORRAINE COMPANY,CORPORATION,PA,,,,PA,1200 N 11TH ST,READING,,2344118,HYMAN GOLDBERG,OWNER,1200 N 11TH ST READING PA 0 -0 BERKS,
THE NEIGHBORHOOD SPECIAL COMPANY,CORPORATION,PA,,,,PA 19083-0 DELAWARE,33 W GOLF VIEW RD,HAVERTOWN,,2344119,E WILLIAM GALLI ETAL,OWNER,33 W GOLF VIEW RD HAVERTOWN PA 19083-0 DELAWARE,
NESCO-PLASTICS CO.,CORPORATION,PA,,,,,,,,2344120,MARILYN ZAJAC,OWNER,RD 1 NESCOPECK PA 0 -0 LUZERNE,
THE LEHIGH PRESS,CORPORATION,PA,,,,PA,1138 WEST SOMERSET ST,PHILADELPHIA,,2344121,VAL R DE PAUL,OWNER,1138 WEST SOMERSET ST PHILADELPHIA PA 0 -0 PHILADELPHIA,
NEW ALEXANDRIA MOTOR COMPANY,CORPORATION,PA,,,,,,,,2344122,HARRY H STRUBLE,OWNER,UNKNOWN NEW ALEXANDRIA PA 0 -0 WESTMORELAND,
MORRIS D NELSON & CO,CORPORATION,PA,,,,,,,,2344123,,,UNKNOWN PHILADELPHIA PA 0 -0 PHILADELPHIA,
H. B. MEHRING & CO.,CORPORATION,PA,,,,PA,239 N GEORGE ST,YORK,,2344124,JOHN F RUDISILL,OWNER,239 N GEORGE ST YORK PA 0 -0 YORK,
"LIGGET, ROBERT & COMPANY",CORPORATION,PA,,,,PA,135 N 13TH STREET,PHILADELPHIA,,2344125,ROBERT W LIGGET,OWNER,135 N 13TH STREET PHILADELPHIA PA 0 -0 PHILADELPHIA,
NARROW RUN OIL & GAS COMPANY,CORPORATION,PA,,,,,,,,2344126,LAURA BITTNER,OWNER,UNKNOWN NEW BETHLEHEM PA 0 -0 CLARION,
NEIL & RANDI,CORPORATION,PA,,,,,,,,2344127,SAMUEL OXENBURG,OWNER,UNKNOWN PHILADELPHIA PA 0 -0 PHILADELPHIA,
LEHIGH PRESS,CORPORATION,PA,,,,,,,,2344128,,,UNKNOWN PHILADELPHIA PA 0 -0 PHILADELPHIA,
"NEILL, A B",CORPORATION,PA,,,,PA,5408 WILLOWS AVE,PHILADELPHIA,,2344129,ANNIE L NEILL,OWNER,5408 WILLOWS AVE PHILADELPHIA PA 0 -0 PHILADELPHIA,
NESCOPECK CONSTRUCTION CO.,CORPORATION,PA,,,,,,,,2344130,STANLEY KOZAK,OWNER,RD 1 DRUMS PA 0 -0 LUZERNE,
J. B. LYTLE COMPANY,CORPORATION,PA,,,,PA,614 SEVENTH AVE,BEAVER FALLS,,2344131,J B LYTLE,OWNER,614 SEVENTH AVE BEAVER FALLS PA 0 -0 BEAVER,
LYONSTOWN POULTRY YARDS & HATCHERY,CORPORATION,PA,,,,,,,,2344132,B M STOVER,OWNER,R F D 2 BELLEFONTE PA 0 -0 CENTRE,
NELSON MILK SERVICE,CORPORATION,PA,,,,,,,,2344133,,,UNKNOWN PHILADELPHIA PA 0 -0 PHILADELPHIA,
LAYTON'S GARAGE,CORPORATION,PA,,,,,,,,2344134,CARLOTTA B LAYTON,OWNER,UNKNOWN DALTON PA 0 -0 LACKAWANNA,
MELLOTT'S LAWN & GARDEN EQUIPMENT,CORPORATION,PA,,,,,,,,2344135,CHARLES ALVIN MELLOTT,OWNER,R D 1 MERCERSBURG PA 17236-0 FRANKLIN,
NEUCO KNITTING MILLS,CORPORATION,PA,,,,,,,,2344136,HARRY MOSS,OWNER,"S W CORNER 12TH & BROWN STREETS, 2ND ST PHILADELPHIA PA 0 -0 PHILADELPHIA",
LOU'S TIRE SHOP,CORPORATION,PA,,,,PA,1325 DERRY ST,HARRISBURG,,2344137,LOUIS S APFEL,OWNER,1325 DERRY ST HARRISBURG PA 0 -0 DAUPHIN,
NEW CENTRAL DAMP WASH LAUNDRY,CORPORATION,PA,,,,,,,,2344138,SOL KLEIMAN,OWNER,628 MOORE ST 633 MCCLELLAN ST PHILADELPHIA PA 0 -0 PHILADELPHIA,
NESHAMINY PARK MANAGEMENT COMPANY,CORPORATION,PA,,,,,,,,2344139,EAGLE DOWNS RACING ASSOC,OWNER,UNKNOWN BENSALEM TWP PA 0 -0,
"NELMS, HENRY & SON",CORPORATION,PA,,,,,,,,2344140,,,UNKNOWN PHILADELPHIA PA 0 -0 PHILADELPHIA,
LIGHTNING CLEANSER COMPANY,CORPORATION,PA,,,,,,,,2344141,ROBERT M STEWART,OWNER,UNKNOWN PRIMOS PA 0 -0 DELAWARE,
NESHAMINY BUSINESS SERVICE,CORPORATION,PA,,,,PA,432 DARTMOUTH COURT,CORNWELLS HEIGHTS,,2344142,JOSEPH F FLYNN,OWNER,432 DARTMOUTH COURT CORNWELLS HEIGHTS PA 19020-0 BUCKS,
LIBERTY AUTO EXCHANGE,CORPORATION,PA,,,,PA,1540 CALLOWHILL ST,PHILADELPHIA,,2344143,NATHAN BENSON,OWNER,1540 CALLOWHILL ST PHILADELPHIA PA 0 -0 PHILADELPHIA,
NEIL'S WHITE WAY,CORPORATION,PA,,,,,,,,2344144,,,UNKNOWN WEST SPRINGFIELD PA 0 -0 ERIE,
LABELLE SILKS,CORPORATION,PA,,,,PA,402 HARRISON BUILDING 15TH & MARKET STREETS,PHILADELPHIA,,2344145,JOSEPH F MURRAY,OWNER,402 HARRISON BUILDING 15TH & MARKET STREETS PHILADELPHIA PA 0 -0 PHILADELPHIA,
LEONARD SALES COMPANY,CORPORATION,PA,,,,PA,2061 S 58TH ST,PHILADELPHIA,,2344146,,,2061 S 58TH ST PHILADELPHIA PA 0 -0 PHILADELPHIA,
NESVIN COMPANY,CORPORATION,PA,,,,PA,133 N 9TH STREET,PHILADELPHIA,,2344148,SOL LAVIN,OWNER,133 N 9TH STREET PHILADELPHIA PA 0 -0 PHILADELPHIA,
MELLOTT EQUIPMENT AND SUPPLY COMPANY,CORPORATION,PA,,,,,,,,2344149,PAUL C MELLOTT,OWNER,UNKNOWN MCCONNELLSBURG PA 0 -0 FULTON,
NESHAMINY FALLS TAVERN,CORPORATION,PA,,,,PA,OLD LINCOLN HWY & BRISTOL RD,LANGHORNE,,2344150,PAUL RULAND,OWNER,OLD LINCOLN HWY & BRISTOL RD LANGHORNE PA 0 -0 BUCKS,
LOUIS-HAROLD FURNITURE COMPANY,CORPORATION,PA,,,,PA,2440 RIDGE AVENUE,PHILADELPHIA,,2344151,H L COHEN,OWNER,2440 RIDGE AVENUE PHILADELPHIA PA 0 -0 PHILADELPHIA,
LAYTON'S GARAGE,CORPORATION,PA,,,,PA,801 E MAIDEN ST,WASHINGTON,,2344152,HELEN E LAYTON,OWNER,801 E MAIDEN ST WASHINGTON PA 0 -0 WASHINGTON,
NEUDECK MACHINE TOOL COMPANY,CORPORATION,PA,,,,PA,15TH & MT VERNON STS,PHILADELPHIA,,2344153,WIL VON NEUDECK,OWNER,15TH & MT VERNON STS PHILADELPHIA PA 0 -0 PHILADELPHIA,
NEGLEY CERAMIC TILE CO.,CORPORATION,PA,,,,PA,591 PRESTLEY AVE,CARNEGIE,,2344154,DOMENICK PADALINO,OWNER,591 PRESTLEY AVE CARNEGIE PA 0 -0 ALLEGHENY,
LIBERTY AUTO EXCHANGE,CORPORATION,PA,,,,PA,1420 VINE ST,PHILADELPHIA,,2344155,NATHAN BENSON,OWNER,1420 VINE ST PHILADELPHIA PA 0 -0 PHILADELPHIA,
NESHAMINY GREENE APARTMENTS,CORPORATION,PA,,,,PA,3000 FORD RD,BRISTOL,,2344156,GREENACRES APARTMENTS INC,OWNER,3000 FORD RD BRISTOL PA 0 -0 BUCKS,
LATHROP FARM,CORPORATION,PA,,,,,,,,2344157,HELEN LATHROP THOMPSON,OWNER,UNKNOWN BRIDGEWATER TOWNSHIP PA 0 -0 SUSQUEHANNA,
THE NATIONAL INSURANCE BUREAU,CORPORATION,PA,,,,,,,,2344158,MAX HERMAN,OWNER,1301-1302 CLARK BUILDING PITTSBURGH PA 0 -0 ALLEGHENY,
NEW ELMWOOD GARAGE,CORPORATION,PA,,,,PA,6324-6328 ELMWOOD AVE,PHILADELPHIA,,2344159,VINNA KREMER,OWNER,6324-6328 ELMWOOD AVE PHILADELPHIA PA 0 -0 PHILADELPHIA,
MELLOTT BROTHERS REALTY,CORPORATION,PA,,,,PA,603 E PENN ST,BEDFORD,,2344160,PAUL D MELLOTT,OWNER,603 E PENN ST BEDFORD PA 0 -0 BEDFORD,
LIBERTY WHOLESALE GROCERY CO.,CORPORATION,PA,,,,PA,133 ARCH ST,PHILADELPHIA,,2344161,OSCAR ENGLENDAR,OWNER,133 ARCH ST PHILADELPHIA PA 0 -0 PHILADELPHIA,
NEW FIDELITY GARAGE AND AUTO SUPPLY HOUSE,CORPORATION,PA,,,,PA,512-18 N 61ST STREET,PHILADELPHIA,,2344162,YETTA URETSKY,OWNER,512-18 N 61ST STREET PHILADELPHIA PA 0 -0 PHILADELPHIA,
LINCOLN LOAN OFFICE,CORPORATION,PA,,,,PA,1002 WYLIE AVE,PITTSBURGH,,2344163,MORRIS H GORDON,OWNER,1002 WYLIE AVE PITTSBURGH PA 0 -0 ALLEGHENY,
M. A. K. HAND LETTERING AND GREETING CARD CO.,CORPORATION,PA,,,,,,,,2344164,MARGARET A KNAPP,OWNER,447 OLIVER BUILDING PITTSBURGH PA 0 -0 ALLEGHENY,
NESHAMINY HOTEL,CORPORATION,PA,,,,,,,,2344165,,,UNKNOWN NESHAMINY PA 0 -0 BUCKS,
LIGHTNER & MICKLEY,CORPORATION,PA,,,,,,,,2344166,LUTHER W LIGHTNER,OWNER,R D IRON SPRINGS PA 0 -0 ADAMS,
NEGLEY APARTMENTS,CORPORATION,PA,,,,,,,,2344167,ISADORE CATZ,OWNER,UNKNOWN PITTSBURGH PA 0 -0 ALLEGHENY,
NEW ENTERPRISE GARAGE,CORPORATION,PA,,,,,,,,2344168,J H CAMPBELL,OWNER,UNKNOWN NEW ENTERPRISE PA 0 -0 BEDFORD,
NATIONAL FELT CO.,CORPORATION,PA,,,,PA,236 CHERRY STREET,PHILADELPHIA,,2344169,HARRY SMULOVITZ,OWNER,236 CHERRY STREET PHILADELPHIA PA 0 -0 PHILADELPHIA,
THE LANS COMPANY,CORPORATION,PA,,,,PA,351 SPRING GARDEN ST,READING,,2344170,JOSEPH VITO LUPPINO,OWNER,351 SPRING GARDEN ST READING PA 0 -0 BERKS,
MELMAT ADVERTISING ASSOCIATES,CORPORATION,PA,,,,PA 19075-0 MONTGOMERY,1539 BRUCE RD,ORELAND,,2344171,LILY L MELTON,OWNER,1539 BRUCE RD ORELAND PA 19075-0 MONTGOMERY,
LINN BROS.,CORPORATION,PA,,,,,,,,2344172,WILLIAM B LINN,OWNER,UNKNOWN BURGETTSTOWN PA 0 -0 WASHINGTON,
NESHAMINY HOUSE,CORPORATION,PA,,,,,,,,2344173,IVY L VOGT,OWNER,UNKNOWN BRIDGE VALLEY PA 0 -0 BUCKS,
LETZ BROTHERS,CORPORATION,PA,,,,PA,1825-31 S FRONT ST,PHILADELPHIA,,2344174,FREDERICK W LOTZ,OWNER,1825-31 S FRONT ST PHILADELPHIA PA 0 -0 PHILADELPHIA,
NEW CASTLE PRINTING COMPANY,CORPORATION,PA,,,,,,,,2344175,R D MCCULLOUGH,OWNER,UNKNOWN NEW CASTLE PA 0 -0 LAWRENCE,
LINCOLN LOAN OFFICE,CORPORATION,PA,,,,PA,1002 WYLIE AVE,PITTSBURGH,,2344176,ABE CAHN,OWNER,1002 WYLIE AVE PITTSBURGH PA 0 -0 ALLEGHENY,
J LIPPMAN COOPERAGE CO.,CORPORATION,PA,,,,,,,,2344177,JOSEPH LIPPMAN,OWNER,2240 LA PLACE STREET PITTSBURGH PA 0 -0 ALLEGHENY,
NESHAMINY INVITATIONS,CORPORATION,PA,,,,PA,363 PERIWINKLE AVE,LANGHORNE,,2344178,MARJORIE LEWIS,OWNER,363 PERIWINKLE AVE LANGHORNE PA 19047-0 BUCKS,
LIND MOTOR SALES,CORPORATION,PA,,,,,,,,2344179,ERIC LIND,OWNER,UNKNOWN BROOKVILLE PA 0 -0 JEFFERSON,
M & A TILING CONTRACTORS,CORPORATION,PA,,,,PA,5517 TORRESDALE AVE,PHILADELPHIA,,2344180,JOSEPH ANOIA,OWNER,5517 TORRESDALE AVE PHILADELPHIA PA 0 -0 PHILADELPHIA,
MELMARK INDUSTRIES,CORPORATION,PA,,,,PA,6354 ARDLEIGH ST,PHILADELPHIA,,2344181,MELVYN M DUBIN,OWNER,6354 ARDLEIGH ST PHILADELPHIA PA 0 -0 PHILADELPHIA,
LARES APARTMENTS,CORPORATION,PA,,,,PA,6035-37 LUDLOW ST,PHILADELPHIA,,2344182,H J ROSENBERG,OWNER,6035-37 LUDLOW ST PHILADELPHIA PA 0 -0 PHILADELPHIA,
W J NEFF & COMPANY,CORPORATION,PA,,,,,,,,2344183,,,UNKNOWN RED LION PA 0 -0 YORK,
NEW CENTRAL DAMP WASH LAUNDRY COMPANY,CORPORATION,PA,,,,,,,,2344184,SOLOMON GOLDBERG,OWNER,641 MCCLELLAN ST REAR OF 623 MOORE ST PHILADELPHIA PA 0 -0 PHILADELPHIA,
THE MERCANTILE AGENCY,CORPORATION,PA,,,,,,,,2344185,ROBERT DUN DOUGLASS,OWNER,LINCOLN BLDG BROAD ST & S PENN SQ PHILADELPHIA PA 0 -0 PHILADELPHIA,
LINN BROS.,CORPORATION,PA,,,,,,,,2344186,THOMAS C LINN ET AL,OWNER,UNKNOWN BURGETTSTOWN PA 0 -0 WASHINGTON,
NESHAMINY JOINT VENTURE III,CORPORATION,PA,,,,PA,3255 BENSALEM BLVD,NESHAMINY,,2344187,MCCLOSKEY & CO INC,OWNER,3255 BENSALEM BLVD NESHAMINY PA 0 -0 BUCKS,
LYCOMING PROVISION CO.,CORPORATION,PA,,,,PA,1406 PARK AVE,WILLIAMSPORT,,2344188,SELAH J PHILLIPS ETAL,OWNER,1406 PARK AVE WILLIAMSPORT PA 0 -0 LYCOMING,
LIBERTY WINDSHIELD AND REPAIR COMPANY,CORPORATION,PA,,,,PA,5715 KIRKWOOD ST,PITTSBURGH,,2344189,,,5715 KIRKWOOD ST PITTSBURGH PA 0 -0 ALLEGHENY,
W J NEFF & COMPANY,CORPORATION,PA,,,,,,,,2344190,,,UNKNOWN RED LION PA 0 -0 YORK,
LIPTON'S BAKING CO.,CORPORATION,PA,,,,PA,5921 MARKET STREET,PHILADELPHIA,,2344191,ABRAHAM LIPKIN,OWNER,5921 MARKET STREET PHILADELPHIA PA 0 -0 PHILADELPHIA,
LINCOLN ROOFING COMPANY,CORPORATION,PA,,,,PA,1730 LINCOLN AVENUE,PITTSBURGH,,2344192,ROBERT JAMES CARMICHAEL,OWNER,1730 LINCOLN AVENUE PITTSBURGH PA 0 -0 ALLEGHENY,
VANDERGRIFT LADIES SHOP,CORPORATION,PA,,,,,,,,2344193,I RUBINOVITZ,OWNER,UNKNOWN VANDERGRIFT PA 0 -0 WESTMORELAND,
NEW BALTIMORE AUTO CO.,CORPORATION,PA,,,,,,,,2344194,CHARLES H FELTEN,OWNER,UNKNOWN NEW BALTIMORE PA 0 -0 SOMERSET,
NEW EBERHART GARAGE,CORPORATION,PA,,,,,,,,2344195,CLARENCE W EPLEY,OWNER,UNKNOWN GETTYSBURG PA 0 -0 ADAMS,
NEFFSVILLE FLOWER SHOP,CORPORATION,PA,,,,PA,2581 LITITZ PIKE,NEFFSVILLE,,2344196,GLENN E SAUDER ET AL,OWNER,2581 LITITZ PIKE NEFFSVILLE PA 0 -0 LANCASTER,
MELMAN SALES,CORPORATION,PA,,,,,,,,2344197,MELVIN GETZ,OWNER,UNKNOWN TYRONE PA 0 -0 BLAIR,
NESHAMINY PRODUCE & DELI,CORPORATION,PA,,,,PA,3100 OLD ROGERS & BATH RD,BRISTOL,,2344198,SANG KYUN SHIN,OWNER,3100 OLD ROGERS & BATH RD BRISTOL PA 19007-0 BUCKS,
THE LEHIGH COMMODITIES CO,CORPORATION,PA,,,,PA,234 N 7TH ST,ALLENTOWN,,2344199,GEORGE ASHTON SAVIDGE,OWNER,234 N 7TH ST ALLENTOWN PA 0 -0 LEHIGH,
LOCUST RIDGE GUN CLUB,CORPORATION,PA,,,,,,,,2344200,S J LASHER,OWNER,UNKNOWN HONESDALE PA 0 -0 WAYNE,
NEUMAN & DUDEK STUDIOS,CORPORATION,PA,,,,PA,114 9TH ST,PITTSBURGH,,2344201,DAVID NEUMAN,OWNER,114 9TH ST PITTSBURGH PA 0 -0 ALLEGHENY,
LIBERTY LOCAL EXPRESS,CORPORATION,PA,,,,,,,,2344202,EMERY L SWAN,OWNER,TENTH & DUQUESNE WAY PITTSBURGH PA 0 -0 ALLEGHENY,
LAKE BUS LINE,CORPORATION,PA,,,,PA,125 RIVER ST,SCRANTON,,2344203,WM J FITZ PATRIC,OWNER,125 RIVER ST SCRANTON PA 0 -0 LACKAWANNA,
NEW CASTLE TAXI CAB COMPANY,CORPORATION,PA,,,,PA,THE FOUNTAIN INN #16 E WASHINGTON STREET,NEW CASTLE,,2344204,JAMES FOWLER,OWNER,THE FOUNTAIN INN #16 E WASHINGTON STREET NEW CASTLE PA 0 -0 LAWRENCE,
LIBERTY THEATRE COMPANY,CORPORATION,PA,,,,,,,,2344205,W M ZEUHLS,OWNER,UNKNOWN PARKERS LANDING PA 0 -0 ARMSTRONG,
HARRY A NEFF,CORPORATION,PA,,,,PA,397 HAMILTON ST,ALLENTOWN,,2344206,HARRY A NEMEROFSKY,OWNER,397 HAMILTON ST ALLENTOWN PA 0 -0 LEHIGH,
LINCOLN COFFEE COMPANY,CORPORATION,PA,,,,PA,1217 PARADE ST,ERIE,,2344207,LOUIS F MIENTKIEWICZ,OWNER,1217 PARADE ST ERIE PA 0 -0 ERIE,
PETER W. LABARRE & COMPANY,CORPORATION,PA,,,,,,,,2344208,PETER W LABARRE,OWNER,UNKNOWN BANGOR PA 0 -0 NORTHAMPTON,
G LICHTENSTEIN & SONS,CORPORATION,PA,,,,PA,1226 WYLIE AVE,PITTSBURGH,,2344209,GEORGE LICHTENSTEIN,OWNER,1226 WYLIE AVE PITTSBURGH PA 0 -0 ALLEGHENY,
LOGAN DANCING ACADEMY,CORPORATION,PA,,,,PA,4732 NORTH BROAD STREET,PHILADELPHIA,,2344210,MARY E LARSEN,OWNER,4732 NORTH BROAD STREET PHILADELPHIA PA 0 -0 PHILADELPHIA,
NEILL COAL COMPANY,CORPORATION,PA,,,,,,,,2344211,,,UNKNOWN PHILADELPHIA PA 0 -0 PHILADELPHIA,
LIBERTY LEAGUE,CORPORATION,PA,,,,,,,,2344212,THOMAS P GRANAHAN,OWNER,UNKNOWN PITTSTON PA 0 -0 LUZERNE,
NEFFS HOTEL,CORPORATION,PA,,,,PA,3265 MAIN ST,NEFFS,18065-0,2344214,Z-KEL INC,OWNER,3265 MAIN ST NEFFS PA 18065-0 LEHIGH,
MELMARK SCHOOL,CORPORATION,PA,,,,,,,,2344215,THE MELMARK HOME INC,OWNER,WAYLAND RD BERWYN PA 19312-0 CHESTER,
LA BELLE BAKERY,CORPORATION,PA,,,,PA,5645 PENN AVE,PITTSBURGH,,2344216,JOHN J THUER,OWNER,5645 PENN AVE PITTSBURGH PA 0 -0 ALLEGHENY,
NEW FULTON MARKET,CORPORATION,PA,,,,PA,23 N PARK ROW,ERIE,,2344217,MAX SACKS,OWNER,23 N PARK ROW ERIE PA 0 -0 ERIE,
LISTONBURG LOCAL COAL COMPANY,CORPORATION,PA,,,,,,,,2344218,EDW L LENHART,OWNER,UNKNOWN LISTONBURG PA 0 -0 SOMERSET,
LIBERTY THEATRE COMPANY,CORPORATION,PA,,,,PA,739 E RAILROAD AVE,VERONA,,2344219,SAMUEL NAVARY,OWNER,739 E RAILROAD AVE VERONA PA 0 -0 ALLEGHENY,
NEIL & O'NEILL,CORPORATION,PA,,,,PA 19348-0 CHESTER,102-104 E STATE ST,KENNETT SQUARE,,2344220,ROBERT W O'NEILL,OWNER,102-104 E STATE ST KENNETT SQUARE PA 19348-0 CHESTER,
LINDSAY-BAKER-GILKEY CO.,CORPORATION,PA,,,,PA,218-220 N MAIN ST AND 217 CEDAR ST,BUTLER,,2344221,A A LINDSAY,OWNER,218-220 N MAIN ST AND 217 CEDAR ST BUTLER PA 0 -0 BUTLER,
THE NESCOPECK MOUNTAIN COAL COMPANY,CORPORATION,PA,,,,PA,P.O. BOX 53,CONYNGHAM,,2344222,L G WILLIAMS,OWNER,P.O. BOX 53 CONYNGHAM PA 0 -0 LUZERNE,
LIBERTY MATTRESS COMPANY,CORPORATION,PA,,,,PA,4523 LIBERTY AVE,PITTSBURGH,,2344223,JEAN YAHR,OWNER,4523 LIBERTY AVE PITTSBURGH PA 0 -0 ALLEGHENY,
"NEFF, MILTON",CORPORATION,PA,,,,,,,,2344224,,,UNKNOWN PHILADELPHIA PA 0 -0 PHILADELPHIA,
NEW BRIGHTON LAUNDRY,CORPORATION,PA,,,,PA,1936 NAUDAIN ST,PHILADELPHIA,,2344225,SHADDIE BAYTOP,OWNER,1936 NAUDAIN ST PHILADELPHIA PA 0 -0 PHILADELPHIA,
LACKAWANNA MINT COMPANY,CORPORATION,PA,,,,PA,107 FRANKLIN AVE,SCRANTON,,2344226,JACK GREEN,OWNER,107 FRANKLIN AVE SCRANTON PA 0 -0 LACKAWANNA,
NEIL SALES CO.,CORPORATION,PA,,,,PA,20TH & INDIANA AVE,PHILADELPHIA,,2344227,MARKWELL COHEN,OWNER,20TH & INDIANA AVE PHILADELPHIA PA 0 -0 PHILADELPHIA,
LYCOMING PROVISION COMPANY,CORPORATION,PA,,,,PA,740 PARK AVE,WILLIAMSPORT,,2344228,SAMUEL HARRISON,OWNER,740 PARK AVE WILLIAMSPORT PA 0 -0 LYCOMING,
I. LEVY DELICATESSEN,CORPORATION,PA,,,,PA,5547 BALTIMORE AVE,PHILADELPHIA,,2344229,FRANCES REINHEIMER,OWNER,5547 BALTIMORE AVE PHILADELPHIA PA 0 -0 PHILADELPHIA,
"LIPP, FREDERICK DAIRY",CORPORATION,PA,,,,PA,352 E NORTHAMPTON ST,WILKES-BARRE,,2344230,HARRY LIPP,OWNER,352 E NORTHAMPTON ST WILKES-BARRE PA 0 -0 LUZERNE,
LACKAWANNA TRAIL LUNCH CAR,CORPORATION,PA,,,,PA,207 NORTH NINTH ST,STROUDSBURG,,2344231,NICHOLAS RUSSO,OWNER,207 NORTH NINTH ST STROUDSBURG PA 0 -0 MONROE,
THE MELMAX ENTERPRISES,CORPORATION,PA,,,,PA 19046-0 MONTGOMERY,808 W AVE,JENKINTOWN,,2344232,MELVIN SPIVACK,OWNER,808 W AVE JENKINTOWN PA 19046-0 MONTGOMERY,
NEW ENGLAND BOTTLE EXCHANGE,CORPORATION,PA,,,,PA,134 WYOMING ST,WILKES-BARRE,,2344233,J HOCHMAN,OWNER,134 WYOMING ST WILKES-BARRE PA 0 -0 LUZERNE,
LYON ADJUSTMENT COMPANY,CORPORATION,PA,,,,PA,608 CHESTNUT ST,PHILADELPHIA,,2344234,EDMOND P SANGER ET AL,OWNER,608 CHESTNUT ST PHILADELPHIA PA 0 -0 PHILADELPHIA,
"NEFF, LOUIS",CORPORATION,PA,,,,,,,,2344235,,,UNKNOWN PHILADELPHIA PA 0 -0 PHILADELPHIA,
LINDY'S WAFFLE SHOP,CORPORATION,PA,,,,PA,605 EAST THIRD STREET,BETHLEHEM,,2344236,TOM GEORGE,OWNER,605 EAST THIRD STREET BETHLEHEM PA 0 -0 NORTHAMPTON,
THE NEOMA GARAGE,CORPORATION,PA,,,,PA,4030-32 CHESTNUT STREET,PHILADELPHIA,,2344237,VINCENZO AGNES,OWNER,4030-32 CHESTNUT STREET PHILADELPHIA PA 0 -0 PHILADELPHIA,
LIEBSTER'S CAFETERIA,CORPORATION,PA,,,,PA,128 S EIGHTH STREET,PHILADELPHIA,,2344238,REBECCA LIEBSTER,OWNER,128 S EIGHTH STREET PHILADELPHIA PA 0 -0 PHILADELPHIA,
NEIL'S T V AND APPLIANCE,CORPORATION,PA,,,,,,,,2344239,FOREST NEIL WILCOX,OWNER,UNKNOWN SMETHPORT PA 0 -0 MCKEAN,
LACONCORDIA AGENCY,CORPORATION,PA,,,,PA,117 S 3RD ST,READING,,2344240,VINCENZO CIOFALO,OWNER,117 S 3RD ST READING PA 0 -0 BERKS,
THE MCLAY COMPANY,CORPORATION,PA,,,,PA,C/O JAMES L LAYTON 26 N RIDGEWAY AVE,GLENOLDEN,,2344241,JAMES L LAYTON,OWNER,C/O JAMES L LAYTON 26 N RIDGEWAY AVE GLENOLDEN PA 0 -0 DELAWARE,
NEW ENGLAND BOTTLE EXCHANGE,CORPORATION,PA,,,,PA,2637 EASTON AVE,BETHLEHEM,,2344242,ZELICK HOCKMAN,OWNER,2637 EASTON AVE BETHLEHEM PA 0 -0 CHESTER,
LIBERTY TRANSFER COMPANY,CORPORATION,PA,,,,PA,1828 WHARTON ST,PITTSBURGH,,2344243,WILLIAM WEIN,OWNER,1828 WHARTON ST PITTSBURGH PA 0 -0 ALLEGHENY,
LINDY HAND LAUNDRY,CORPORATION,PA,,,,PA,1602 W DAUPHIN STREET,PHILADELPHIA,,2344244,DAVID GREENBURG,OWNER,1602 W DAUPHIN STREET PHILADELPHIA PA 0 -0 PHILADELPHIA,
LONG SERVICE STATION,CORPORATION,PA,,,,PA,401 N 7TH ST,ALLENTOWN,,2344245,D H LONG,OWNER,401 N 7TH ST ALLENTOWN PA 0 -0 LEHIGH,
LYON ADJUSTMENT COMPANY,CORPORATION,PA,,,,PA,608 CHESTNUT ST,PHILADELPHIA,,2344246,EDMUND P SANGER ET AL,OWNER,608 CHESTNUT ST PHILADELPHIA PA 0 -0 PHILADELPHIA,
KEYSTONE LAND IMPROVEMENT CO,CORPORATION,PA,,,,,,,,2344247,PETER P EFEL,OWNER,VICTORY BUILDING ROOM 620 1011 CHESTNUT ST PHILADELPHIA PA 0 -0 PHILADELPHIA,
NESHAMINY RACE TRACK,CORPORATION,PA,,,,,,,,2344248,EAGLE DOWNS RACING ASSOC,OWNER,UNKNOWN BENSALEM TWP PA 0 -0 BUCKS,
NEFF'S MEAT MARKET,CORPORATION,PA,,,,,,,,2344249,ALLEN L NEFF,OWNER,UNKNOWN YOE PA 0 -0 YORK,
MELMAC LIBERTY CO.,CORPORATION,PA,,,,PA,2705 STONEY CREEK RD,BROOMALL,,2344250,JOHN P MCCARTHY JR,OWNER,2705 STONEY CREEK RD BROOMALL PA 0 -0 DELAWARE,
NEILCARM TRAVEL SYSTEMS,CORPORATION,PA,,,,PA 19145-0 PHILADELPHIA,3249 COMLY PLACE,PHILADELPHIA,,2344251,CARMELLA C WEST,OWNER,3249 COMLY PLACE PHILADELPHIA PA 19145-0 PHILADELPHIA,
LAFAYETTE BEVERAGE COMPANY,CORPORATION,PA,,,,PA,11TH AND BUTLER ST,EASTON,,2344252,HARRY LEHMAN,OWNER,11TH AND BUTLER ST EASTON PA 0 -0 NORTHAMPTON,
THE NEW ECONOMY STORE,CORPORATION,PA,,,,PA,30 E MARKET STREET,LEWISTOWN,,2344253,SAM LIEBERMAN,OWNER,30 E MARKET STREET LEWISTOWN PA 0 -0 MIFFLIN,
NEILL'S,CORPORATION,PA,,,,,,,,2344254,,,UNKNOWN DORMONT PA 0 -0 ALLEGHENY,
MODERN ELECTRIC RUG WASHING CO.,CORPORATION,PA,,,,PA,1624 N CARLISLE ST,PHILADELPHIA,,2344255,J J LAFFERTY,OWNER,1624 N CARLISLE ST PHILADELPHIA PA 0 -0 PHILADELPHIA,
NESHAMINY LITHOGRAPHERS,CORPORATION,PA,,,,PA,825 PELHAM AVE,WARMINSTER,,2344256,STEVEN B GAERTNER,OWNER,825 PELHAM AVE WARMINSTER PA 18974-0 BUCKS,
LIENO COMPANY,CORPORATION,PA,,,,PA,323,SWARTHMORE,,2344257,JAMES P O'NEILL,OWNER,323 SWARTHMORE AVE SWARTHMORE PA 0 -0 DELAWARE,
THE L. & B. ECONOMY STORE,CORPORATION,PA,,,,PA,4323 BUTLER ST,PITTSBURGH,,2344258,PAUL BERGER,OWNER,4323 BUTLER ST PITTSBURGH PA 0 -0 ALLEGHENY,
NEFF-CHATTOE COMPANY,CORPORATION,PA,,,,,,,,2344259,RAYMOND M COLE,OWNER,UNKNOWN ALLENTOWN PA 0 -0 LEHIGH,
LONG'S SERVICE STATION,CORPORATION,PA,,,,PA,87 FAIRFIELD AVE,JOHNSTOWN,,2344260,HENRY D LONG,OWNER,87 FAIRFIELD AVE JOHNSTOWN PA 0 -0 CAMBRIA,
NEW ENGLAND BOTTLE EXCHANGE,CORPORATION,PA,,,,PA,2637 EASTON AVE,BETHLEHEM,,2344261,ZELICK HOCHMAN,OWNER,2637 EASTON AVE BETHLEHEM PA 0 -0 CHESTER,
T. S. MORGAN AND SON,CORPORATION,PA,,,,PA,28430 W 3RD ST,WILLIAMSPORT,,2344262,THOMAS S MORGAN,OWNER,28430 W 3RD ST WILLIAMSPORT PA 0 -0 LYCOMING,
THOMAS H. LIVEZEY & CO.,CORPORATION,PA,,,,PA,419 HEED BLDG 1215,FILBERT ST PHILADELPHIA,,2344263,THOMAS H LIVEZEY,OWNER,419 HEED BLDG 1215 FILBERT ST PHILADELPHIA PA 0 -0 PHILADELPHIA,
MERION ENTERPRISES,CORPORATION,PA,,,,PA,408 MEADOW LANE,MERION,,2344264,MAJESTIC-PENN STATE INC,OWNER,408 MEADOW LANE MERION PA 0 -0 MONTGOMERY,
LATROBE LETTER SERVICE,CORPORATION,PA,,,,,,,,2344265,D R BUTERBAUGH,OWNER,UNKNOWN LATROBE PA 0 -0 WESTMORELAND,
NEIL'S AUTO SALES AND SERVICE,CORPORATION,PA,,,,PA 18224-0 LUZERNE,RTE 940 RD1,MAPLE LANE PARK FREELAND,,2344266,NEIL RICK,OWNER,RTE 940 RD1 MAPLE LANE PARK FREELAND PA 18224-0 LUZERNE,
MODERN ENGLISH COLLEGE,CORPORATION,PA,,,,PA,1111 WALNUT ST,PHILADELPHIA,,2344267,LEWIS I FENSTERBLAU,OWNER,1111 WALNUT ST PHILADELPHIA PA 0 -0 PHILADELPHIA,
NEW CASTLE EQUIPMENT COMPANY,CORPORATION,PA,,,,,,,,2344268,,,UNKNOWN NEW CASTLE PA 0 -0 LAWRENCE,
LIBRARY-ON-WHEELS,CORPORATION,PA,,,,PA,5138 PARKSIDE AVENUE,PHILADELPHIA,,2344269,ARTHUR ROBINSON,OWNER,5138 PARKSIDE AVENUE PHILADELPHIA PA 0 -0 PHILADELPHIA,
THE LONDON LEATHER GOODS COMPANY,CORPORATION,PA,,,,PA,223 N 3RD ST,PHILADELPHIA,,2344270,SAMUEL GORNSTEIN,OWNER,223 N 3RD ST PHILADELPHIA PA 0 -0 PHILADELPHIA,
LASKIN WIRE WORKS COMPANY,CORPORATION,PA,,,,PA,232 POPLAR ST,PHILADELPHIA,,2344271,OSCAR LASKIN,OWNER,232 POPLAR ST PHILADELPHIA PA 0 -0 PHILADELPHIA,
LIFSHER MOTOR COMPANY,CORPORATION,PA,,,,,,,,2344272,M LIFSHER,OWNER,UNKNOWN JOHNSTOWN PA 0 -0 CAMBRIA,
NEIL'S BARBER SHOP,CORPORATION,PA,,,,PA 19464-0 MONTGOMERY,121 W CHARLOTTE ST,POTTSTOWN,,2344273,NEIL GAZZILLO,OWNER,121 W CHARLOTTE ST POTTSTOWN PA 19464-0 MONTGOMERY,
LOTT AUTO COMPANY,CORPORATION,PA,,,,,,,,2344274,HERMAN SEDLOFF,OWNER,UNKNOWN NANTY GLO PA 0 -0 CAMBRIA,
NESHAMINY ALUMINUM CENTER,CORPORATION,PA,,,,PA,5840 NEWPORTVILLE RD,CORNWELLS HEIGHTS,,2344275,ELWOOD J KELLEY,OWNER,5840 NEWPORTVILLE RD CORNWELLS HEIGHTS PA 0 -0 BUCKS,
NEIDIGH BROTHERS LIME STONE COMPANY,CORPORATION,PA,,,,,,,,2344276,M W NEIDIGH,OWNER,UNKNOWN STATE COLLEGE PA 0 -0 CENTRE,
THOMAS H. LIVEZEY & CO.,CORPORATION,PA,,,,PA,1215 FILBERT ST,PHILADELPHIA,,2344277,,,1215 FILBERT ST PHILADELPHIA PA 0 -0 PHILADELPHIA,
LANSDALE LAND COMPANY,CORPORATION,PA,,,,PA,5731 GERMANTOWN AVE,PHILADELPHIA,,2344278,ASHER COHEN,OWNER,5731 GERMANTOWN AVE PHILADELPHIA PA 0 -0 PHILADELPHIA,
NEIL/CARTER DESIGN ASSOCIATES,CORPORATION,PA,,,,PA 19317-0 DELAWARE,WEBB RD,CHADDS FORD,,2344279,TIMOTHY N CARTER NSID,OWNER,WEBB RD CHADDS FORD PA 19317-0 DELAWARE,
MODERN EMPLOYMENT AGENCY AND SCHOOL OF TRAINING,CORPORATION,PA,,,,PA,606 VICTORY BLDG 1001,CHESTNUT ST PHILADELPHIA,,2344280,JOSEPH B SUTTON,OWNER,606 VICTORY BLDG 1001 CHESTNUT ST PHILADELPHIA PA 0 -0 PHILADELPHIA,
LION CONFECTIONERY,CORPORATION,PA,,,,,,,,2344281,DAN L ENSMINGER,OWNER,UNKNOWN RED LION PA 0 -0 YORK,
NESHAMINY ASSOCIATES,CORPORATION,PA,,,,,,,,2344282,MARGARET BISHOP ETAL,OWNER,PENNS TRAIL AND RTE 332 NEWTOWN PA 18940-0 BUCKS,
NESHAMINY ROOFING CO,CORPORATION,PA,,,,PA,319 NESHAMINY RD,CROYDON,,2344283,DANIEL M HAIN,OWNER,319 NESHAMINY RD CROYDON PA 19020-0 BUCKS,
LONG'S DRUG STORE,CORPORATION,PA,,,,PA,122 E LINCOLN HIGHWAY,COATESVILLE,,2344284,C M BENNINGTON,OWNER,122 E LINCOLN HIGHWAY COATESVILLE PA 0 -0 CHESTER,
MERION'S GULF SERVICE STATION,CORPORATION,PA,,,,PA,CHELTENHAM & WADSWORTH AVE,PHILADELPHIA,,2344285,JULES MERION,OWNER,CHELTENHAM & WADSWORTH AVE PHILADELPHIA PA 0 -0 PHILADELPHIA,
NEW CASTLE FRUIT & PRODUCE COMPANY,CORPORATION,PA,,,,,,,,2344286,,,UNKNOWN NEW CASTLE PA 0 -0 LAWRENCE,
NEIL-DAVIS CONSTRUCTION,CORPORATION,PA,,,,PA 15601-0 WESTMORELAND,2345 LOCUST ST,GREENSBURG,,2344287,RANDY N SHAFFER,OWNER,2345 LOCUST ST GREENSBURG PA 15601-0 WESTMORELAND,
NESBIT CUT-RATE STORE,CORPORATION,PA,,,,PA,101 SOUTH OAK STREET,MOUNT CARMEL,,2344288,WASHINGTON W MORRIS,OWNER,101 SOUTH OAK STREET MOUNT CARMEL PA 0 -0 NORTHUMBERLAND,
"MCQUINN, ROBERT & CO.",CORPORATION,PA,,,,PA,23 S 8TH ST,PHILADELPHIA,,2344289,R HENDERSON FARLEY,OWNER,23 S 8TH ST PHILADELPHIA PA 0 -0 PHILADELPHIA,
LOUIS LEHRMAN & COMPANY,CORPORATION,PA,,,,PA,10TH AND MULBERRY STS,HARRISBURG,,2344290,LOUIS LEHRMAN,OWNER,10TH AND MULBERRY STS HARRISBURG PA 0 -0 DAUPHIN,
MODERN GARAGE COMPANY,CORPORATION,PA,,,,PA,555 S FRANKLIN ST,WILKES-BARRE,,2344291,MRS FANNIE H NIC,OWNER,555 S FRANKLIN ST WILKES-BARRE PA 0 -0 LUZERNE,
LITHUANIAN TAILORING CO.,CORPORATION,PA,,,,PA,658 N 10TH ST,PHILADELPHIA,,2344292,JOSEPH W ESODA,OWNER,658 N 10TH ST PHILADELPHIA PA 0 -0 PHILADELPHIA,
NEIL'S GOWN SHOP,CORPORATION,PA,,,,,,,,2344293,CORNELIA L WIMBUSH,OWNER,UNKNOWN PHILADELPHIA PA 0 -0 PHILADELPHIA,
MERION INVESTMENT COMPANY,CORPORATION,PA,,,,PA,ONE,WYNNEWOOD,,2344294,INDUSTRIAL LEASE FINANCE CORP,OWNER,ONE WYNNEWOOD ROAD WYNNEWOOD PA 0 -0 MONTGOMERY,
NESHAMINY BEER & SODA,CORPORATION,PA,,,,PA,2323 NESHAMINY BLVD,BENSALEM,,2344295,"CHUBEN, INC.",OWNER,2323 NESHAMINY BLVD BENSALEM PA 19020-0 BUCKS,
THE LEIRER MANUFACTURING COMPANY,CORPORATION,PA,,,,,,,,2344296,WALTER G LEIRER,OWNER,UNKNOWN CHELTENHAM PA 0 -0 MONTGOMERY,
HUGH K NEILSON & CO.,CORPORATION,PA,,,,PA,2217 SPRING STREET,PITTSBURGH,,2344297,JAMES COOK,OWNER,2217 SPRING STREET PITTSBURGH PA 0 -0 ALLEGHENY,
LONGER LIFE LEGION,CORPORATION,PA,,,,,,,,2344298,WM H GREISS M D,OWNER,1001 CHESTNUT STREET ROOM 616 PHILADELPHIA PA 0 -0 PHILADELPHIA,
MODERN LIGHT SUPPLY CO.,CORPORATION,PA,,,,PA,2912-14 GERMANTOWN AVENUE,PHILADELPHIA,,2344299,JOSEPH RABINOVITE,OWNER,2912-14 GERMANTOWN AVENUE PHILADELPHIA PA 0 -0 PHILADELPHIA,
NESHAMINY BRICK STONE COMPANY,CORPORATION,PA,,,,PA,231 WILLOW DR,LEVITTOWN,,2344301,HARRY M SMITH CONTRACTORS INC,OWNER,231 WILLOW DR LEVITTOWN PA 0 -0 BUCKS,
NESHAMINY SHOPS,CORPORATION,PA,,,,PA,1803-13 NEWPORT RD,CROYDON,,2344302,THEODORE A MALPEZZI,OWNER,1803-13 NEWPORT RD CROYDON PA 0 -0 BUCKS,
MORRIS & COMPANY,CORPORATION,PA,,,,PA,1381 1/2 RIDGE AVE,PHILADELPHIA,,2344303,HARRY S MORRIS,OWNER,1381 1/2 RIDGE AVE PHILADELPHIA PA 0 -0 PHILADELPHIA,
MERION LABORATORIES,CORPORATION,PA,,,,,,,,2344304,FREDERICK MALCOLM,OWNER,UNKNOWN MERION PA 0 -0 MONTGOMERY,
LAURENT FLUX COMPANY,CORPORATION,PA,,,,PA,1215 MILTON AVE,SWISSVALE,,2344305,F A LAURENT,OWNER,1215 MILTON AVE SWISSVALE PA 0 -0 ALLEGHENY,
NELSON FRY DRUG STORE,CORPORATION,PA,,,,PA,N W CORNER 19TH AND ARCH STREETS,PHILADELPHIA,,2344306,C ELBERT HOFFMAN,OWNER,N W CORNER 19TH AND ARCH STREETS PHILADELPHIA PA 0 -0 PHILADELPHIA,
NEIMAN AND COMPANY,CORPORATION,PA,,,,PA,301 FRANKLIN AVE,ALIQUIPPA,,2344307,RUTH WINER,OWNER,301 FRANKLIN AVE ALIQUIPPA PA 0 -0 BEAVER,
MODERN LIGHT LUNCH,CORPORATION,PA,,,,PA,8 S DELAWARE AVE,PHILADELPHIA,,2344308,JOHN KARAGANIS,OWNER,8 S DELAWARE AVE PHILADELPHIA PA 0 -0 PHILADELPHIA,
LOGAN MUTUAL ASSOCIATION,CORPORATION,PA,,,,,,,,2344309,NATHAN JACOBSON,OWNER,FRANKLIN & ROCKLAND STS PHILADELPHIA PA 0 -0 PHILADELPHIA,
NESHAMINEE FOODS,CORPORATION,PA,,,,PA,2453 WILLIAMSON CT,BENSALEM,,2344310,MARCY S HOSSLI ETAL,OWNER,2453 WILLIAMSON CT BENSALEM PA 19020-0 BUCKS,
LITTLE TIRE SHOP,CORPORATION,PA,,,,PA,205 ARCH STREET,PHILADELPHIA,,2344311,GERABED M SHAHINIAN,OWNER,205 ARCH STREET PHILADELPHIA PA 0 -0 PHILADELPHIA,
LINCOLN COAL CO.,CORPORATION,PA,,,,PA,R D PINE,TOWNSHIP GROVE CITY,,2344312,N A MILNER,OWNER,R D PINE TOWNSHIP GROVE CITY PA 0 -0 MERCER,
MERION LAUNDRY,CORPORATION,PA,,,,,,,,2344313,WARREN J MCLAUGHLIN,OWNER,UNKNOWN PHILADELPHIA PA 0 -0 PHILADELPHIA,
LILIENTHAL'S,CORPORATION,PA,,,,PA,14 S CENTRE ST,POTTSVILLE,,2344314,MILTON LILEINTHAL,OWNER,14 S CENTRE ST POTTSVILLE PA 0 -0 SCHUYLKILL,
MODERN CASH STORE,CORPORATION,PA,,,,,,,,2344315,LYNN WIDDOWSON ET AL,OWNER,UNKNOWN CLYMER PA 0 -0 INDIANA,
THE NEILS PETS AND SUPPLIES,CORPORATION,PA,,,,,,,,2344316,CLARENCE F NEIL,OWNER,UNKNOWN CHAMBERSBURG PA 0 -0 FRANKLIN,
NEW CUMBERLAND RADIO CO.,CORPORATION,PA,,,,,,,,2344317,NESTOR P DRAYER,OWNER,UNKNOWN NEW CUMBERLAND PA 0 -0 CUMBERLAND,
NESHAMINY ANIMAL MEDICAL CENTER,CORPORATION,PA,,,,PA,5100 NESHAMINY BLVD,CORNWELLS HEIGHTS,,2344318,GREY K NEWMAN,OWNER,5100 NESHAMINY BLVD CORNWELLS HEIGHTS PA 0 -0 BUCKS,
MORRIS & COMPANY,CORPORATION,PA,,,,,,,,2344319,THOMAS A MORRIS,OWNER,130 S 15TH ST ROOMS 400-403 PHILADELPHIA PA 0 -0 PHILADELPHIA,
LORENZON TILE & MOSAIC COMPANY,CORPORATION,PA,,,,PA,7733 DEVON STREET,CHESTNUT HILL,,2344320,ITALICO LORENZON,OWNER,7733 DEVON STREET CHESTNUT HILL PA 0 -0 PHILADELPHIA,
LITTLE PRINTING COMPANY,CORPORATION,PA,,,,PA,44 E PETER STREET,UNIONTOWN,,2344321,HAROLD W LITTLE,OWNER,44 E PETER STREET UNIONTOWN PA 0 -0 FAYETTE,
NESHAMINY ESSO SERVICE,CORPORATION,PA,,,,PA,2506 LINCOLN HIGHWAY,TREVOSE,,2344322,JOHN R FITZPATRICK,OWNER,2506 LINCOLN HIGHWAY TREVOSE PA 0 -0 BUCKS,
NEILLY CANVAS GOODS COMPANY,CORPORATION,PA,,,,,,,,2344323,FAYE W NEILLY RENZ,OWNER,UNKNOWN PITTSBURGH PA 0 -0 ALLEGHENY,
NESHAMINY AUTO PAINTING & BODY WORKS,CORPORATION,PA,,,,PA,1907 W LINCOLN HWY,PENNDEL,,2344325,NATIONAL AUTO PAINTING CO INC,OWNER,1907 W LINCOLN HWY PENNDEL PA 19047-0 BUCKS,
NESHAMINY BLOCK COMPANY,CORPORATION,PA,,,,,,,,2344326,JOHN MC GRATH,OWNER,UNKNOWN NESHAMINY PA 0 -0 BUCKS,
LACKAWANNA CEMENT BLOCK CO.,CORPORATION,PA,,,,,,,,2344327,NICK SCANDALE,OWNER,UNKNOWN OLD FORGE PA 0 -0 LACKAWANNA,
LOGAN OLDSMOBILE COMPANY,CORPORATION,PA,,,,PA,4813-15 N BROAD ST,PHILADELPHIA,,2344328,J P MOORE,OWNER,4813-15 N BROAD ST PHILADELPHIA PA 0 -0 PHILADELPHIA,
MODERN CANDY SHOP,CORPORATION,PA,,,,PA,4117 BUTLER ST,PITTSBURGH,,2344329,HARRY J GAWRINSKI ET AL,OWNER,4117 BUTLER ST PITTSBURGH PA 0 -0 ALLEGHENY,
LINCOLN COAL COMPANY,CORPORATION,PA,,,,,,,,2344330,NICK VAY,OWNER,UNKNOWN LINCOLN TOWNSHIP PA 0 -0 ALLEGHENY,
MERION MERCY ACADEMY,CORPORATION,PA,,,,,,,,2344331,SISTERS OF MERCY IN THE,OWNER,515 MONTGOMERY AVENUE MERION STATION PA 0 -0 MONTGOMERY,
NESBITT BOTTLING CO OF PHILA,CORPORATION,PA,,,,,,,,2344332,,,UNKNOWN PHILADELPHIA PA 0 -0 PHILADELPHIA,
NESHAMINY FARMS,CORPORATION,PA,,,,,,,,2344333,,,UNKNOWN NEWTOWN PA 0 -0 BUCKS,
LLANERCH SWIMMING POOL,CORPORATION,PA,,,,,,,,2344334,PAUL E MOSES,OWNER,TOWNSHIP LINE AND ROOSEVELT STREET LLANERCH PA 0 -0 DELAWARE,
NEMACOLIN STORE CO.,CORPORATION,PA,,,,,,,,2344335,ANDREW E KOCHES,OWNER,RICHEYVILLE POST OFFICE BEALLSVILLE PA 0 -0 WASHINGTON,
NEW CASTLE AUTO WRECKING CO,CORPORATION,PA,,,,,,,,2344336,,,UNKNOWN NEW CASTLE PA 0 -0 LAWRENCE,
"THE LEADER STORE OF PLYMOUTH, PA.",CORPORATION,PA,,,,PA,111-113 EAST MAIN ST,PLYMOUTH,,2344337,JOSEPH OSHEROFF,OWNER,111-113 EAST MAIN ST PLYMOUTH PA 0 -0 LUZERNE,
"NEILLY, S. W.",CORPORATION,PA,,,,PA,350 MINARD RUN RD,BRADFORD,16701-0,2344338,TOM M NEILLY,OWNER,350 MINARD RUN RD BRADFORD PA 16701-0 MCKEAN,
LORRAINE SWEET SHOP,CORPORATION,PA,,,,PA,405 BURMONT ROAD,DREXEL HILL,,2344339,GUY D BARR,OWNER,405 BURMONT ROAD DREXEL HILL PA 0 -0 DELAWARE,
NESBITT & MORGAN FOOD MARKET,CORPORATION,PA,,,,,,,,2344340,FABOR MORGAN,OWNER,UNKNOWN PHILADELPHIA PA 0 -0 PHILADELPHIA,
MORRIS & CO.,CORPORATION,PA,,,,PA,1612 W VANANGO ST,PHILADELPHIA,,2344341,MITTY KRAVITZ,OWNER,1612 W VANANGO ST PHILADELPHIA PA 0 -0 PHILADELPHIA,
LINENFOOT HOSIERY COMPANY,CORPORATION,PA,,,,PA,218 S 4TH ST,PHILADELPHIA,,2344342,ARCHIE GREENBERG,OWNER,218 S 4TH ST PHILADELPHIA PA 0 -0 PHILADELPHIA,
LATROBE CARRIAGE COMPANY,CORPORATION,PA,,,,,,,,2344343,ANNIBALE IORIO,OWNER,UNKNOWN LATROBE PA 0 -0 WESTMORELAND,
MODERN DAYLIGHT STORE,CORPORATION,PA,,,,,,,,2344344,HERMAN H LEVY,OWNER,UNKNOWN LUZERNE PA 0 -0 LUZERNE,
NEILSON BOWLING AND BILLIARDS,CORPORATION,PA,,,,,,,,2344345,,,UNKNOWN LATROBE PA 0 -0 WESTMORELAND,
M. S. NEIMAN CO.,CORPORATION,PA,,,,PA,#319 FIFTH AVENUE,MCKEESPORT,,2344346,MAURICE DAVIS,OWNER,#319 FIFTH AVENUE MCKEESPORT PA 0 -0 ALLEGHENY,
LILYAN'S BEAUTY SHOPPE,CORPORATION,PA,,,,,,,,2344347,LILLIAN ZAPPLEY,OWNER,6327 WOODLAND AVE 2ND FLOOR PHILADELPHIA PA 0 -0 PHILADELPHIA,
WILLIAM LANGHORNE COMPANY,CORPORATION,PA,,,,PA,10 SOUTH 18TH ST,PHILADELPHIA,,2344348,WILLIAM LANGHORNE,OWNER,10 SOUTH 18TH ST PHILADELPHIA PA 0 -0 PHILADELPHIA,
NESHAMINY LUMBER COMPANY,CORPORATION,PA,,,,,,,,2344349,MORRIS H KOHEN,OWNER,UNKNOWN NESHAMINY PA 0 -0 BUCKS,
LONGWORTH & STEWART,CORPORATION,PA,,,,PA,5916 NORTH BROAD STREET,PHILADELPHIA,,2344350,STUART W LONGWORTH,OWNER,5916 NORTH BROAD STREET PHILADELPHIA PA 0 -0 PHILADELPHIA,
MODERN ELECTRIC & RADIO SHOP,CORPORATION,PA,,,,PA,206 SOUTH PENNSYLVANIA AVENUE,GREENSBURG,,2344351,W J SMITH,OWNER,206 SOUTH PENNSYLVANIA AVENUE GREENSBURG PA 0 -0 WESTMORELAND,
NEILSON BOWLING AND BILLIARDS,CORPORATION,PA,,,,,,,,2344352,,,UNKNOWN BLAIRSVILLE PA 0 -0 INDIANA,
MERION MUSIC COMPANY,CORPORATION,PA,,,,,,,,2344353,ARTHUR SILVERS,OWNER,UNKNOWN HAVERTOWN PA 0 -0 DELAWARE,
MORRIS & COMPANY,CORPORATION,PA,,,,PA,801 BAINBRIDGE ST,PHILADELPHIA,,2344354,HARRY LIPOWITZ,OWNER,801 BAINBRIDGE ST PHILADELPHIA PA 0 -0 PHILADELPHIA,
LANGE'S NOVELTY SHOP,CORPORATION,PA,,,,PA,717 PRESSLEY ST,PITTSBURGH,,2344355,NETTIE B LANGE,OWNER,717 PRESSLEY ST PITTSBURGH PA 0 -0 ALLEGHENY,
LINCOLN COAL CO,CORPORATION,PA,,,,,,,,2344356,,,UNKNOWN SOMERSET PA 0 -0 SOMERSET,
NEW CASTLE AUTO WRECKING CO,CORPORATION,PA,,,,,,,,2344357,,,UNKNOWN NEW CASTLE PA 0 -0 LAWRENCE,
R M NETHERLAND & COMPANY,CORPORATION,PA,,,,PA,818 HOUSE BLDG COR SMITHFIELD & WATER STS,PITTSBURGH,,2344358,ROGER M NETHERLAND,OWNER,818 HOUSE BLDG COR SMITHFIELD & WATER STS PITTSBURGH PA 0 -0 ALLEGHENY,
MODERN HEATING EQUIPMENT CO.,CORPORATION,PA,,,,PA,4855 MELROSE ST,PHILADELPHIA,,2344359,ATLEY L MAKIN,OWNER,4855 MELROSE ST PHILADELPHIA PA 0 -0 PHILADELPHIA,
MORRIS & COMPANY,CORPORATION,PA,,,,,,,,2344360,,,UNKNOWN PHILADELPHIA PA 0 -0 PHILADELPHIA,
LAPAT GOWN PARLORS,CORPORATION,PA,,,,PA,20 NORTH THIRD ST,EASTON,,2344361,PAULINE M LAPAT,OWNER,20 NORTH THIRD ST EASTON PA 0 -0 NORTHAMPTON,
NEVILLE & WHITE,CORPORATION,PA,,,,PA,2444 N BROAD ST,PHILADELPHIA,,2344362,RALPH D WHITE,OWNER,2444 N BROAD ST PHILADELPHIA PA 0 -0 PHILADELPHIA,
MODERN LOAN COMPANY,CORPORATION,PA,,,,PA,510 WYLIE AVE,PITTSBURGH,,2344363,FANNIE RUBIN,OWNER,510 WYLIE AVE PITTSBURGH PA 0 -0 ALLEGHENY,
JOSEPH R. LYNCH COAL COMPANY,CORPORATION,PA,,,,PA,2ND AVENUE NEAR TRY STREET,PITTSBURGH,,2344364,JOSEPH R LYNCH,OWNER,2ND AVENUE NEAR TRY STREET PITTSBURGH PA 0 -0 ALLEGHENY,
NEILSON REAL ESTATE,CORPORATION,PA,,,,PA,2620 EGYPT RD,NORRISTOWN,,2344365,DONALD J NEILSON,OWNER,2620 EGYPT RD NORRISTOWN PA 0 -0 MONTGOMERY,
THE LOUIS LUGGAGE AND REPAIR SHOP,CORPORATION,PA,,,,PA,8442 GERMANTOWN AVE,CHESTNUT HILL PHILADELPHIA,,2344366,LOUIS STEIN,OWNER,8442 GERMANTOWN AVE CHESTNUT HILL PHILADELPHIA PA 0 -0 PHILADELPHIA,
MERI-DAN SERVICES,CORPORATION,PA,,,,,,,,2344367,MERI-DAN INC,OWNER,CALBETH PLACE ROUTE 309 R D HAZLETON PA 18201-0 LUZERNE,
LEIB INSURANCE AGENCY,CORPORATION,PA,,,,PA,26 S CENTER ST,POTTSVILLE,,2344368,WM S LEIB,OWNER,26 S CENTER ST POTTSVILLE PA 0 -0 SCHUYLKILL,
THE LONDON MANUFACTURING COMPANY,CORPORATION,PA,,,,PA,44 S 3RD ST,PHILADELPHIA,,2344369,MORRIS GOLDENBERG,OWNER,44 S 3RD ST PHILADELPHIA PA 0 -0 PHILADELPHIA,
NEW CASTLE AUTOMOTIVE TRAINING SCHOOL,CORPORATION,PA,,,,,,,,2344370,ORLANDO L CAIAZZA,OWNER,UNKNOWN NEW CASTLE PA 0 -0 LAWRENCE,
NEVER RUST COMPANY,CORPORATION,PA,,,,,,,,2344371,L A MORRIS,OWNER,UNKNOWN LEMOYNE PA 0 -0 CUMBERLAND,
NEW ALEXANDRIA LUMBER COMPANY,CORPORATION,PA,,,,,,,,2344372,C E HOLAND,OWNER,UNKNOWN NEW ALEXANDRIA PA 0 -0 WESTMORELAND,
MODERN MANUAL TRAINING SCHOOL,CORPORATION,PA,,,,PA,114 N 13TH ST,PHILADELPHIA,,2344373,JOHN M BOGNAR,OWNER,114 N 13TH ST PHILADELPHIA PA 0 -0 PHILADELPHIA,
NESHAMINY HOSIERY CO,CORPORATION,PA,,,,,,,,2344374,LESTER R KRUSE,OWNER,UNKNOWN WARRINGTON PA 0 -0 BUCKS,
NEIMAN DISTRIBUTING CO.,CORPORATION,PA,,,,,,,,2344375,,,UNKNOWN FARRELL PA 0 -0 MERCER,
LONG LEVEL CIGAR CO.,CORPORATION,PA,,,,,,,,2344376,MARK H WALLACE,OWNER,R F D 1 WRIGHTSVILLE PA 0 -0 YORK,
LEIB INSURANCE AGENCY,CORPORATION,PA,,,,,,,,2344377,,,UNKNOWN POTTSVILLE PA 0 -0 SCHUYLKILL,
"MCWILLIAMS, CARL & SON",CORPORATION,PA,,,,PA,608 & 610 MILL ST,DANVILLE,,2344378,RICHARD MCWILLIAMS,OWNER,608 & 610 MILL ST DANVILLE PA 0 -0 MONTOUR,
LOUIE'S MARKET,CORPORATION,PA,,,,PA,5900 BALTIMORE AVE,PHILADELPHIA,,2344379,LOUIS GETZIS,OWNER,5900 BALTIMORE AVE PHILADELPHIA PA 0 -0 PHILADELPHIA,
LINDSAY FOUNDRY COMPANY,CORPORATION,PA,,,,PA,217 AND 328 KRAMS AVE,MANAYUNK PHILADELPHIA,,2344380,A CHESTER BOWERS,OWNER,217 AND 328 KRAMS AVE MANAYUNK PHILADELPHIA PA 0 -0 PHILADELPHIA,
NELL-A-MAY PLUSH COMPANY,CORPORATION,PA,,,,PA,6TH & MADISON STS,CHESTER,,2344381,T FRANK LEES,OWNER,6TH & MADISON STS CHESTER PA 0 -0 DELAWARE,
THE LONDON MFG. CO.,CORPORATION,PA,,,,PA,62 ARCH ST,PHILADELPHIA,,2344382,JOSEPH SHAPIRO,OWNER,62 ARCH ST PHILADELPHIA PA 0 -0 PHILADELPHIA,
MERIDIAN ASSOCIATES,CORPORATION,PA,,,,PA 19104-0 PHILADELPHIA,3606 BARING ST,PHILADELPHIA,,2344383,CAMILLE MARKER,OWNER,3606 BARING ST PHILADELPHIA PA 19104-0 PHILADELPHIA,
NEW CASH SHOE STORE,CORPORATION,PA,,,,,,,,2344384,LEILA G HARL,OWNER,UNKNOWN REYNOLDSVILLE PA 0 -0 JEFFERSON,
LENMOR SHOE CO.,CORPORATION,PA,,,,PA,73 EAST MAIN ST,NORRISTOWN,,2344385,PHILIP F KERSHAW ETAL,OWNER,73 EAST MAIN ST NORRISTOWN PA 0 -0 MONTGOMERY,
MODERN ELECTRIC SHOE REPAIRING CO.,CORPORATION,PA,,,,PA,4967 N 8TH ST,PHILADELPHIA,,2344386,SADIE KOLMAN,OWNER,4967 N 8TH ST PHILADELPHIA PA 0 -0 PHILADELPHIA,
LOUIE'S MARKET,CORPORATION,PA,,,,,,,,2344387,L H FRANCO,OWNER,UNKNOWN BROCKWAY PA 0 -0 JEFFERSON,
NEW YORK CENTRAL CAKE DISTRIBUTING CO.,CORPORATION,PA,,,,PA,825 SPRING GARDEN ST,PHILADELPHIA,,2344388,ALBERT A KATZ,OWNER,825 SPRING GARDEN ST PHILADELPHIA PA 0 -0 PHILADELPHIA,
LLOYD FRUIT FARMS,CORPORATION,PA,,,,,,,,2344389,WILLIAM LLOYD,OWNER,UNKNOWN WESTON PA 0 -0 LUZERNE,
NEW ENGLAND ELECTRIC CO.,CORPORATION,PA,,,,PA,208 MARKET ST,POTTSVILLE,,2344390,NAT EPSTEIN,OWNER,208 MARKET ST POTTSVILLE PA 0 -0 SCHUYLKILL,
"LINK, WEBER & BOWERS",CORPORATION,PA,,,,PA,407 N CRAIG ST,PITTSBURGH,,2344391,ROBERT C BOWERS ETAL,OWNER,407 N CRAIG ST PITTSBURGH PA 0 -0 ALLEGHENY,
NESHAMINY HOTEL,CORPORATION,PA,,,,,,,,2344392,THOMAS E STRINGER,OWNER,UNKNOWN NESHAMINY PA 0 -0 BUCKS,
LYNCH AUTO COMPANY,CORPORATION,PA,,,,PA,429 E THIRD ST,SOUTH BETHLEHEM,,2344393,ELLEN LYNCH,OWNER,429 E THIRD ST SOUTH BETHLEHEM PA 0 -0 NORTHAMPTON,
MERDIAN CONSTRUCTION,CORPORATION,PA,,,,PA,FISH HILL RD,TANNERSVILLE,18372-0,2344394,ROBERT J KAELIN,OWNER,FISH HILL RD TANNERSVILLE PA 18372-0 MONROE,
MELROSE SPINNING CO.,CORPORATION,PA,,,,PA,3RD & BOOTH STS,CHESTER,,2344395,T BENTON DORNAN,OWNER,3RD & BOOTH STS CHESTER PA 0 -0 DELAWARE,
MODERN ELECTRIC SHOE REPAIRING CO.,CORPORATION,PA,,,,PA,5035 MARKET ST,PHILADELPHIA,,2344396,HEIGANOUSH KASSABIAN,OWNER,5035 MARKET ST PHILADELPHIA PA 0 -0 PHILADELPHIA,
THE NEW CRYSTAL CAFE,CORPORATION,PA,,,,PA,#306 MAIN STREET,MEYERSDALE,,2344397,RALPH C BARNETT,OWNER,#306 MAIN STREET MEYERSDALE PA 0 -0 SOMERSET,
"NEW CASTLE ASSOCIATES, A LIMITED PARTNERSHIP",CORPORATION,PA,,,,PA 19103-0 PHILADELPHIA,% RICHARD I RUBIN & CO STE 2806 1700 MARKET ST,PHILADELPHIA,,2344398,JCP REALTY INC ET AL,OWNER,% RICHARD I RUBIN & CO STE 2806 1700 MARKET ST PHILADELPHIA PA 19103-0 PHILADELPHIA,
LARVATOX COMPANY,CORPORATION,PA,,,,PA,626 CHESTNUT ST,PITTSBURGH,,2344399,PETER G WALTER,OWNER,626 CHESTNUT ST PITTSBURGH PA 0 -0 ALLEGHENY,
LOCUST AVENUE GROCERY & DELICATESSEN,CORPORATION,PA,,,,PA,829 LOCUST AVE,PHILADELPHIA,,2344400,SELIE WIENER,OWNER,829 LOCUST AVE PHILADELPHIA PA 0 -0 PHILADELPHIA,
THE LYNCH SHOE COMPANY,CORPORATION,PA,,,,PA,313 S NEW ST,BETHLEHEM,,2344401,ELLEN LYNCH,OWNER,313 S NEW ST BETHLEHEM PA 0 -0 NORTHAMPTON,
NEW CAFETERIA LUNCH,CORPORATION,PA,,,,,,,,2344402,LENA SHAFFER,OWNER,UNKNOWN NEW BRIGHTON PA 0 -0 BEAVER,
LIFTER ICE CREAM COMPANY,CORPORATION,PA,,,,PA,216-232 LOMBARD ST,PHILADELPHIA,,2344403,JOSEPH J LIFTER,OWNER,216-232 LOMBARD ST PHILADELPHIA PA 0 -0 PHILADELPHIA,
NEW BLOOMFIELD AUTO CO,CORPORATION,PA,,,,,,,,2344404,,,UNKNOWN NEW BLOOMFIELD PA 0 -0 PERRY,
MODERN IMPROVEMENT CO.,CORPORATION,PA,,,,PA,1148 N 64TH ST,PHILADELPHIA,,2344405,HARRY LODGE,OWNER,1148 N 64TH ST PHILADELPHIA PA 0 -0 PHILADELPHIA,
NEUBAUER THE TAILOR,CORPORATION,PA,,,,PA,1035 WALNUT ST,PHILADELPHIA,,2344406,MORRIS KAUFFMAN,OWNER,1035 WALNUT ST PHILADELPHIA PA 0 -0 PHILADELPHIA,
THE NESHAMINY INVESTMENT TRUST,CORPORATION,PA,,,,,,,,2344407,ROBERT GEIGER ETAL,OWNER,UNKNOWN LANGHORNE PA 0 -0 BUCKS,
NETTER-STEWART TRUCK CO.,CORPORATION,PA,,,,PA,4721-23 CHESTNUT STREET,PHILADELPHIA,,2344408,MORTON A NETTER,OWNER,4721-23 CHESTNUT STREET PHILADELPHIA PA 0 -0 PHILADELPHIA,
LOCUST MARKET,CORPORATION,PA,,,,PA,60TH & LOCUST STREETS,PHILADELPHIA,,2344410,MYER NADDLE,OWNER,60TH & LOCUST STREETS PHILADELPHIA PA 0 -0 PHILADELPHIA,
NELL'S BEAUTY PARLOR,CORPORATION,PA,,,,PA,1404 S 51ST ST,PHILADELPHIA,,2344411,MRS WILLIAM ANDREWS,OWNER,1404 S 51ST ST PHILADELPHIA PA 0 -0 PHILADELPHIA,
LYSTER CONTRACTING CO.,CORPORATION,PA,,,,PA,3732 POWELTON AVE,PHILADELPHIA,,2344412,M P DUNCAN,OWNER,3732 POWELTON AVE PHILADELPHIA PA 0 -0 PHILADELPHIA,
LOHR'S FAMILY LAUNDRY,CORPORATION,PA,,,,PA,3508-10 N MERVINE ST,PHILADELPHIA,,2344413,WILLIAM LOHR,OWNER,3508-10 N MERVINE ST PHILADELPHIA PA 0 -0 PHILADELPHIA,
NEW BLOOMFIELD AUTO CO,CORPORATION,PA,,,,,,,,2344414,,,UNNOWN NEW BLOOMFIELD PA 0 -0 PERRY,
THE LYNCH SHOE CO.,CORPORATION,PA,,,,PA,313 S NEW ST,BETHLEHEM,,2344415,JOHN R LYNCH,OWNER,313 S NEW ST BETHLEHEM PA 0 -0 NORTHAMPTON,
MODERN IMPROVEMENT COMPANY,CORPORATION,PA,,,,PA,3383 WEBSTER AVE,PITTSBURGH,,2344416,MAX HIRSCH,OWNER,3383 WEBSTER AVE PITTSBURGH PA 0 -0 ALLEGHENY,
LIGGITT LINEN AND GIFT SHOP,CORPORATION,PA,,,,PA,101 NORTH GEORGE STREET,YORK,,2344417,S MARY LIGGITT,OWNER,101 NORTH GEORGE STREET YORK PA 0 -0 YORK,
MERDIAN FRAMING,CORPORATION,PA,,,,PA,FISH HILL RD,TANNERSVILLE,18372-0,2344418,ROBT J KAELIN,OWNER,FISH HILL RD TANNERSVILLE PA 18372-0 MONROE,
LOCUST MARKET,CORPORATION,PA,,,,,,,,2344419,,,UNKNOWN PHILADELPHIA PA 0 -0 PHILADELPHIA,
NEW-BORN VENDING MACHINES,CORPORATION,PA,,,,PA,2321 E ALMOND ST,PHILADELPHIA,,2344420,EDWARD M SEAMANS,OWNER,2321 E ALMOND ST PHILADELPHIA PA 0 -0 PHILADELPHIA,
LONGENECKER LUMBER CO.,CORPORATION,PA,,,,,,,,2344421,J L LONGENECKER,OWNER,UNKNOWN MARTINSBURG PA 0 -0 BLAIR,
LYCOMING NURSERIES,CORPORATION,PA,,,,PA,1776 E 3RD ST,WILLIAMSPORT,,2344422,JOHN J TWOMEY,OWNER,1776 E 3RD ST WILLIAMSPORT PA 0 -0 LYCOMING,
MERCANTILE PRESS,CORPORATION,PA,,,,PA,46 N 7TH ST,PHILADELPHIA,,2344423,MORRIS FRANKEL,OWNER,46 N 7TH ST PHILADELPHIA PA 0 -0 PHILADELPHIA,
NEW HOME CAFE,CORPORATION,PA,,,,PA,154 S 2ND ST,PHILADELPHIA,,2344424,ELIZABETH HATZFELD,OWNER,154 S 2ND ST PHILADELPHIA PA 0 -0 PHILADELPHIA,
