name,business_type,state_registered,street_registered,city_registered,zip5_registered,state_physical,street_physical,city_physical,zip5_physical,filing_number,agent_name,agent_title,raw_physical_address,raw_registered_address
SIMPLY STITCHES,CORPORATION,NAN,,,,PA 17821-0 MONTOUR,316 MILL ST,DANVILLE,,1500001,PAMELA J MARSHALL,OWNER,316 MILL ST DANVILLE PA 17821-0 MONTOUR,
SICILIA ENTERPRISES INC.,CORPORATION,NAN,C/O E. SICILIA 873 N PENNOCK ST,PHILADELPHIA,,PA 19124-0 PHILADELPHIA,3901 FRANKFORD AVE,PHILA,,1500003,ERNESTO SICILIA,TREASURER,3901 FRANKFORD AVE PHILA PA 19124-0 PHILADELPHIA,C/O E. SICILIA 873 N PENNOCK ST PHILADELPHIA PA 19130-51
PARTQUARTERS,CORPORATION,NAN,,,,PA 19335-0 CHESTER,207 KELLY LANE,DOWNINGTON,,1500004,CHRISTINE P REINWALD,OWNER,207 KELLY LANE DOWNINGTON PA 19335-0 CHESTER,
ROS INCORPORATED,CORPORATION,PA,304 NOTTINGHAM DR,SPRING CITY,,PA 19464-0 CHESTER,1039 SCHOOL HOUSE ROAD,POTTSTOWN,,1500005,SUZANNE OLIVER,SECRETARY,1039 SCHOOL HOUSE ROAD POTTSTOWN PA 19464-0 CHESTER,304 NOTTINGHAM DR SPRING CITY PA 19475-15
MARKETING MIX,CORPORATION,PA,,,,PA 19082-0 DELAWARE,504 SPRUCE AVE,UPPER DARBY,,1500006,COLLEEN ECKLES,OWNER,504 SPRUCE AVE UPPER DARBY PA 19082-0 DELAWARE,
"KRONA, LTD.",CORPORATION,NAN,,,,PA 17522-0 LANCASTER,2415 WEST MAIN ST,EPHRATA,,1500007,RICHARD L WIEST,VICEPRESIDENT,2415 WEST MAIN ST EPHRATA PA 17522-0 LANCASTER,
WOODSIDE CUSTOM HOMES,CORPORATION,PA,4310 EISENHOWER DRIVE,BETHLEHEM,18018,PA,77 WEST BROAD STREET UNIT 21B,BETHLEHEM,18018,1500008,"WOODSIDE CUSTOM HOMES, INC.",OWNER,77 WEST BROAD STREET UNIT 21B BETHLEHEM PA 18018 NORTHAMPTON,4310 EISENHOWER DRIVE BETHLEHEM PA 18020
"TRIUMPH FILMS, INC.",CORPORATION,NAN,812 PARKWAY BLVD SOUTH,BROOMALL,,PA 19010-0 MONTGOMERY,461 ROLLING ROAD,ROSEMONT,,1500009,WALTER E DOMBROW,PRESIDENT,461 ROLLING ROAD ROSEMONT PA 19010-0 MONTGOMERY,812 PARKWAY BLVD SOUTH BROOMALL PA 19008-23
NORTHEAST PODIATRIC SURGICAL CENTERS,CORPORATION,NAN,,,,PA 18640-0 LUZERNE,40 N MAIN ST,PITTSTON,,1500010,PAUL A CHROMEY DPM,OWNER,40 N MAIN ST PITTSTON PA 18640-0 LUZERNE,
HC MANAGEMENT CO,CORPORATION,NAN,,,,PA 19090-0 MONTGOMERY,1771 SMITH AVE,WILLOW GROVE,,1500011,HARRIET I SPERANZA,OWNER,1771 SMITH AVE WILLOW GROVE PA 19090-0 MONTGOMERY,
AUSTRALIAN HARVEST INC.,CORPORATION,NAN,ATTN JEFF SLACK BELLI PO BOX 377,HAMPTON,,PA,249 OLD BETHLEHEM ROAD MR #1,PERKASIE,,1500012,MICHAEL PETER ARANGA,TREASURER,249 OLD BETHLEHEM ROAD MR #1 PERKASIE PA 18944-0 BUCKS,ATTN JEFF SLACK BELLI PO BOX 377 HAMPTON NJ 08827
BRT REALTY TRUST,CORPORATION,NAN,,,,PA,60 CUTTER MILL RD,GREAT NECK,11021-0,1500013,BRT REALTY TURES MASSACH,OWNER,60 CUTTER MILL RD GREAT NECK PA 11021-0,
TAMSCO,CORPORATION,NAN,,,,PA 19090-0 MONTGOMERY,1724 ALBA RD,WILLOW GROVE,,1500014,THOMAS A MILLER III,OWNER,1724 ALBA RD WILLOW GROVE PA 19090-0 MONTGOMERY,
CROSS-STATE HAULING,CORPORATION,NAN,,,,PA,680 MIDDLETOWN BLVD,LANGHORNE,,1500016,DUCKWORTH ENTERPRISES INC,OWNER,680 MIDDLETOWN BLVD LANGHORNE PA 19047-0 BUCKS,
"HERSHEY FARM FOODS, LTD.",CORPORATION,NAN,C/O FRANCIS J MCSORLEY1250 LAMPETER RD,LANCASTER,,PA 17601-0 LANCASTER,1250 LAMPETER RD,LANCASTER,,1500017,ROBERT GOSE III,TREASURER,1250 LAMPETER RD LANCASTER PA 17601-0 LANCASTER,C/O FRANCIS J MCSORLEY1250 LAMPETER RD LANCASTER PA 17601-36
PAOLI COGNITIVE THERAPY CENTER,CORPORATION,NAN,,,,PA 19301-0 CHESTER,250 LANCASTER AVE,PAOLI,,1500018,PETER R DRUIAN PHD,OWNER,250 LANCASTER AVE PAOLI PA 19301-0 CHESTER,
"MAMCO REALTY, INC.",CORPORATION,NAN,422 ALLEGHENY ST,HOLLIDAYSBURG,,PA,422 ALLEGHENY ST,HOLLIDAYSBURG,,1500019,P JULES PATT,PRESIDENT,422 ALLEGHENY ST HOLLIDAYSBURG PA 16648-0 BLAIR,422 ALLEGHENY ST HOLLIDAYSBURG PA 16648-07
"R L D DEVELOPERS, INC.",CORPORATION,NAN,C/O RONALD L DISHLER 457 STATE AVE,BEAVER,15009-0,PA,457 STATE AVENUE,BEAVER,15009-0,1500020,RONALD L DISHLER,TREASURER,457 STATE AVENUE BEAVER PA 15009-0 BEAVER,C/O RONALD L DISHLER 457 STATE AVE BEAVER PA 15009-04
C & W LUMBER,CORPORATION,NAN,,,,PA 16329-0 WASHINGTON,PO BOX 206 ROUTE 62,IRVINE,,1500021,THOMAS J WILLIAMS,OWNER,PO BOX 206 ROUTE 62 IRVINE PA 16329-0 WASHINGTON,
MADDEN VENTURES INCORPORATED,CORPORATION,NAN,"MICHAEL MADDEN,NATURAL1632 EAST MARKET ST",YORK,,PA 17403-0 YORK,1632 E MARKET ST,YORK,,1500022,MICHAEL MADDEN,TREASURER,1632 E MARKET ST YORK PA 17403-0 YORK,"MICHAEL MADDEN,NATURAL1632 EAST MARKET ST YORK PA 17403-67"
"BRAND S.S. CORRAL, INC.",CORPORATION,NAN,911 CALDWELL AVE,PORTAGE,,PA 15946-0 CAMBRIA,911 CALDWELL AVE,PORTAGE,,1500023,JOAN OSHABEN,PRESIDENT,911 CALDWELL AVE PORTAGE PA 15946-0 CAMBRIA,911 CALDWELL AVE PORTAGE PA 15946-1550
"DUGAN-PHELPS, INC.",CORPORATION,NAN,C/O HARRY A DUGAN 15 TOBAGO LANE,OCEAN CITY,,PA 19086-0 DELAWARE,404 BICKMORE DR,WALLINGFORD,,1500024,PAUL PHELPS,PRESIDENT,404 BICKMORE DR WALLINGFORD PA 19086-0 DELAWARE,C/O HARRY A DUGAN 15 TOBAGO LANE OCEAN CITY NJ 08226
SPARKLE PLENTY,CORPORATION,NAN,,,,PA,PO BOX 46 (211 NEVIN LANE,LOWER GWYNEDD,19022),1500025,POLLY FRIEDMAN & ASSOCIATES INC,OWNER,PO BOX 46 (211 NEVIN LANE LOWER GWYNEDD PA 19022) SPRINGHOUSE PA 19477-0 MONTGOMERY,
ASSURE EMPLOYMENT CONSULTANTS,CORPORATION,NAN,,,,PA 17011-0 CUMBERLAND,1198 LETCHWORTH RD,CAMP HILL,,1500026,ROBIN B HOFFMAN,OWNER,1198 LETCHWORTH RD CAMP HILL PA 17011-0 CUMBERLAND,
"ROST, KAY S. M.D. P.C.",CORPORATION,NAN,463 SAPPHIRE DR,SARASOTA,,PA 15501-0 SOMERSET,204 S CENTER AVE,SOMERSET,,1500027,KAY S ROST,TREASURER,204 S CENTER AVE SOMERSET PA 15501-0 SOMERSET,463 SAPPHIRE DR SARASOTA FL 34234
"MAD FOR MONOGRAMS, ETC.",CORPORATION,NAN,,,,,,,,1500028,CAROL E DUFFY,OWNER,SIX WINDEY WAY LANE DOYLESTOWN PA 18901-0 BUCKS,
"THE HANGIN TREE, INC.",CORPORATION,PA,C/O JOHN CALINGER 1549 PENNA AVE,MONACA,15003-0,PA,1314 DUSS AVENUE,AMBRIDGE,15003-0,1500029,JOHN CALINGER,TREASURER,1314 DUSS AVENUE AMBRIDGE PA 15003-0 BEAVER,C/O JOHN CALINGER 1549 PENNA AVE MONACA PA 15061-04
"ATMOR USA, INC.",CORPORATION,NAN,C/O S K SHRAGER 404 LONGFIELD RD,PHILADELPHIA,,PA 19118-0 MONTGOMERY,404 LONGFIELD RD,ERDENHEIM,,1500030,SHIRLEY K SHRAGER,PRESIDENT,404 LONGFIELD RD ERDENHEIM PA 19118-0 MONTGOMERY,C/O S K SHRAGER 404 LONGFIELD RD PHILADELPHIA PA 19118-51
