name,business_type,state_registered,street_registered,city_registered,zip5_registered,state_physical,street_physical,city_physical,zip5_physical,filing_number,agent_name,agent_title,raw_physical_address,raw_registered_address
SIMPLY STITCHES,CORPORATION,NAN,,,,PA 17821-0 MONTOUR,316 MILL ST,DANVILLE,,1500001,PAMELA J MARSHALL,OWNER,316 MILL ST DANVILLE PA 17821-0 MONTOUR,
SICILIA ENTERPRISES INC.,CORPORATION,NAN,C/O E. SICILIA 873 N PENNOCK ST,PHILADELPHIA,19130-51,PA 19124-0 PHILADELPHIA,3901 FRANKFORD AVE,PHILA,,1500003,ERNESTO SICILIA,TREASURER,3901 FRANKFORD AVE PHILA PA 19124-0 PHILADELPHIA,C/O E. SICILIA 873 N PENNOCK ST PHILADELPHIA PA 19130-51
PARTQUARTERS,CORPORATION,NAN,,,,PA 19335-0 CHESTER,207 KELLY LANE,DOWNINGTON,,1500004,CHRISTINE P REINWALD,OWNER,207 KELLY LANE DOWNINGTON PA 19335-0 CHESTER,
ROS INCORPORATED,CORPORATION,PA,304 NOTTINGHAM DR,SPRING CITY,19475-15,PA 19464-0 CHESTER,1039 SCHOOL HOUSE ROAD,POTTSTOWN,,1500005,SUZANNE OLIVER,SECRETARY,1039 SCHOOL HOUSE ROAD POTTSTOWN PA 19464-0 CHESTER,304 NOTTINGHAM DR SPRING CITY PA 19475-15
MARKETING MIX,CORPORATION,PA,,,,PA 19082-0 DELAWARE,504 SPRUCE AVE,UPPER DARBY,,1500006,COLLEEN ECKLES,OWNER,504 SPRUCE AVE UPPER DARBY PA 19082-0 DELAWARE,
"KRONA, LTD.",CORPORATION,NAN,,,,PA 17522-0 LANCASTER,2415 WEST MAIN ST,EPHRATA,,1500007,RICHARD L WIEST,VICEPRESIDENT,2415 WEST MAIN ST EPHRATA PA 17522-0 LANCASTER,
WOODSIDE CUSTOM HOMES,CORPORATION,PA,4310 EISENHOWER DRIVE,BETHLEHEM,18020,PA,77 WEST BROAD STREET UNIT 21B,BETHLEHEM,18018,1500008,"WOODSIDE CUSTOM HOMES, INC.",OWNER,77 WEST BROAD STREET UNIT 21B BETHLEHEM PA 18018 NORTHAMPTON,4310 EISENHOWER DRIVE BETHLEHEM PA 18020
"TRIUMPH FILMS, INC.",CORPORATION,NAN,812 PARKWAY BLVD SOUTH,BROOMALL,19008-23,PA 19010-0 MONTGOMERY,461 ROLLING ROAD,ROSEMONT,,1500009,WALTER E DOMBROW,PRESIDENT,461 ROLLING ROAD ROSEMONT PA 19010-0 MONTGOMERY,812 PARKWAY BLVD SOUTH BROOMALL PA 19008-23
NORTHEAST PODIATRIC SURGICAL CENTERS,CORPORATION,NAN,,,,PA 18640-0 LUZERNE,40 N MAIN ST,PITTSTON,,1500010,PAUL A CHROMEY DPM,OWNER,40 N MAIN ST PITTSTON PA 18640-0 LUZERNE,
HC MANAGEMENT CO,CORPORATION,NAN,,,,PA 19090-0 MONTGOMERY,1771 SMITH AVE,WILLOW GROVE,,1500011,HARRIET I SPERANZA,OWNER,1771 SMITH AVE WILLOW GROVE PA 19090-0 MONTGOMERY,
AUSTRALIAN HARVEST INC.,CORPORATION,NAN,ATTN JEFF SLACK BELLI PO BOX 377,HAMPTON,08827,PA,249 OLD BETHLEHEM ROAD MR #1,PERKASIE,,1500012,MICHAEL PETER ARANGA,TREASURER,249 OLD BETHLEHEM ROAD MR #1 PERKASIE PA 18944-0 BUCKS,ATTN JEFF SLACK BELLI PO BOX 377 HAMPTON NJ 08827
BRT REALTY TRUST,CORPORATION,NAN,,,,PA,60 CUTTER MILL RD,GREAT NECK,11021-0,1500013,BRT REALTY TURES MASSACH,OWNER,60 CUTTER MILL RD GREAT NECK PA 11021-0,
TAMSCO,CORPORATION,NAN,,,,PA 19090-0 MONTGOMERY,1724 ALBA RD,WILLOW GROVE,,1500014,THOMAS A MILLER III,OWNER,1724 ALBA RD WILLOW GROVE PA 19090-0 MONTGOMERY,
CROSS-STATE HAULING,CORPORATION,NAN,,,,PA,680 MIDDLETOWN BLVD,LANGHORNE,,1500016,DUCKWORTH ENTERPRISES INC,OWNER,680 MIDDLETOWN BLVD LANGHORNE PA 19047-0 BUCKS,
"HERSHEY FARM FOODS, LTD.",CORPORATION,NAN,C/O FRANCIS J MCSORLEY1250 LAMPETER RD,LANCASTER,17601-36,PA 17601-0 LANCASTER,1250 LAMPETER RD,LANCASTER,,1500017,ROBERT GOSE III,TREASURER,1250 LAMPETER RD LANCASTER PA 17601-0 LANCASTER,C/O FRANCIS J MCSORLEY1250 LAMPETER RD LANCASTER PA 17601-36
PAOLI COGNITIVE THERAPY CENTER,CORPORATION,NAN,,,,PA 19301-0 CHESTER,250 LANCASTER AVE,PAOLI,,1500018,PETER R DRUIAN PHD,OWNER,250 LANCASTER AVE PAOLI PA 19301-0 CHESTER,
"MAMCO REALTY, INC.",CORPORATION,NAN,422 ALLEGHENY ST,HOLLIDAYSBURG,16648-07,PA,422 ALLEGHENY ST,HOLLIDAYSBURG,,1500019,P JULES PATT,PRESIDENT,422 ALLEGHENY ST HOLLIDAYSBURG PA 16648-0 BLAIR,422 ALLEGHENY ST HOLLIDAYSBURG PA 16648-07
"R L D DEVELOPERS, INC.",CORPORATION,NAN,C/O RONALD L DISHLER 457 STATE AVE,BEAVER,15009-04,PA,457 STATE AVENUE,BEAVER,15009-0,1500020,RONALD L DISHLER,TREASURER,457 STATE AVENUE BEAVER PA 15009-0 BEAVER,C/O RONALD L DISHLER 457 STATE AVE BEAVER PA 15009-04
C & W LUMBER,CORPORATION,NAN,,,,PA 16329-0 WASHINGTON,PO BOX 206 ROUTE 62,IRVINE,,1500021,THOMAS J WILLIAMS,OWNER,PO BOX 206 ROUTE 62 IRVINE PA 16329-0 WASHINGTON,
MADDEN VENTURES INCORPORATED,CORPORATION,NAN,"MICHAEL MADDEN,NATURAL1632 EAST MARKET ST",YORK,17403-67,PA 17403-0 YORK,1632 E MARKET ST,YORK,,1500022,MICHAEL MADDEN,TREASURER,1632 E MARKET ST YORK PA 17403-0 YORK,"MICHAEL MADDEN,NATURAL1632 EAST MARKET ST YORK PA 17403-67"
"BRAND S.S. CORRAL, INC.",CORPORATION,NAN,911 CALDWELL AVE,PORTAGE,15946-1550,PA 15946-0 CAMBRIA,911 CALDWELL AVE,PORTAGE,,1500023,JOAN OSHABEN,PRESIDENT,911 CALDWELL AVE PORTAGE PA 15946-0 CAMBRIA,911 CALDWELL AVE PORTAGE PA 15946-1550
"DUGAN-PHELPS, INC.",CORPORATION,NAN,C/O HARRY A DUGAN 15 TOBAGO LANE,OCEAN CITY,08226,PA 19086-0 DELAWARE,404 BICKMORE DR,WALLINGFORD,,1500024,PAUL PHELPS,PRESIDENT,404 BICKMORE DR WALLINGFORD PA 19086-0 DELAWARE,C/O HARRY A DUGAN 15 TOBAGO LANE OCEAN CITY NJ 08226
SPARKLE PLENTY,CORPORATION,NAN,,,,PA,PO BOX 46 (211 NEVIN LANE,LOWER GWYNEDD,19022),1500025,POLLY FRIEDMAN & ASSOCIATES INC,OWNER,PO BOX 46 (211 NEVIN LANE LOWER GWYNEDD PA 19022) SPRINGHOUSE PA 19477-0 MONTGOMERY,
ASSURE EMPLOYMENT CONSULTANTS,CORPORATION,NAN,,,,PA 17011-0 CUMBERLAND,1198 LETCHWORTH RD,CAMP HILL,,1500026,ROBIN B HOFFMAN,OWNER,1198 LETCHWORTH RD CAMP HILL PA 17011-0 CUMBERLAND,
"ROST, KAY S. M.D. P.C.",CORPORATION,NAN,463 SAPPHIRE DR,SARASOTA,34234,PA 15501-0 SOMERSET,204 S CENTER AVE,SOMERSET,,1500027,KAY S ROST,TREASURER,204 S CENTER AVE SOMERSET PA 15501-0 SOMERSET,463 SAPPHIRE DR SARASOTA FL 34234
"MAD FOR MONOGRAMS, ETC.",CORPORATION,NAN,,,,,,,,1500028,CAROL E DUFFY,OWNER,SIX WINDEY WAY LANE DOYLESTOWN PA 18901-0 BUCKS,
"THE HANGIN TREE, INC.",CORPORATION,PA,C/O JOHN CALINGER 1549 PENNA AVE,MONACA,15061-04,PA,1314 DUSS AVENUE,AMBRIDGE,15003-0,1500029,JOHN CALINGER,TREASURER,1314 DUSS AVENUE AMBRIDGE PA 15003-0 BEAVER,C/O JOHN CALINGER 1549 PENNA AVE MONACA PA 15061-04
"ATMOR USA, INC.",CORPORATION,NAN,C/O S K SHRAGER 404 LONGFIELD RD,PHILADELPHIA,19118-51,PA 19118-0 MONTGOMERY,404 LONGFIELD RD,ERDENHEIM,,1500030,SHIRLEY K SHRAGER,PRESIDENT,404 LONGFIELD RD ERDENHEIM PA 19118-0 MONTGOMERY,C/O S K SHRAGER 404 LONGFIELD RD PHILADELPHIA PA 19118-51
G.J.S. LIQUIDATORS,CORPORATION,NAN,,,,PA,517 N FRONT ST,ALLENTOWN,18102-0,1500031,GEROGE J SHUMACK JR,OWNER,517 N FRONT ST ALLENTOWN PA 18102-0 LEHIGH,
ANNE TEES' CORPORATION,CORPORATION,NAN,PO BOX 86,SCHUYLKILL HVN,17972-54,PA 17972-0 SCHUYLKILL,202 E LIBERTY ST,SCHUYLKILL HAVEN,,1500032,ANNE T MOSER,TREASURER,202 E LIBERTY ST SCHUYLKILL HAVEN PA 17972-0 SCHUYLKILL,PO BOX 86 SCHUYLKILL HVN PA 17972-54
"DEBONAIR, INC.",CORPORATION,NAN,C/O WINSTON FERGUSON J728 PENNELL STREET,CHESTER,19013-23,PA 19106-0 PHILADELPHIA,718 ARCH ST STE 304-S (%,MICHAEL COARD) PHILA,,1500033,WINSTON FERGUSON JR,TREASURER,718 ARCH ST STE 304-S (% MICHAEL COARD) PHILA PA 19106-0 PHILADELPHIA,C/O WINSTON FERGUSON J728 PENNELL STREET CHESTER PA 19013-23
FLAT WORK CONCRETE CONSTRUCTION,CORPORATION,NAN,,,,PA 17362-0 YORK,PO BOX 191 RD 5,SPRING GROVE,,1500034,PAUL L WINEHOLT,OWNER,PO BOX 191 RD 5 SPRING GROVE PA 17362-0 YORK,
"BOWMAN'S CONTRACTING, INC.",CORPORATION,NAN,C/O FRED L BOWMAN BOX 15,MENGES MILLS,17346-67,PA 17331-0 YORK,BOX 15,MENGES MILLS,,1500035,FRED L BOWMAN,TREASURER,BOX 15 MENGES MILLS RD MENGES MILLS PA 17331-0 YORK,C/O FRED L BOWMAN BOX 15 MENGES MILLS RD MENGES MILLS PA 17346-67
"ZIBCO, INC.",CORPORATION,PA,514 CEDAR AVE,SCRANTON,18505-1108,PA 18505-0 LACKAWANNA,514-516 CEDAR AVE,SCRANTON,,1500036,CHARLOTTE CONSENTINI,PRESIDENT,514-516 CEDAR AVE SCRANTON PA 18505-0 LACKAWANNA,514 CEDAR AVE SCRANTON PA 18505-1108
CPG INC.,CORPORATION,PA,3130 PEACH ST,ERIE,16508-2734,PA,3126 PEACH ST,ERIE,,1500037,RALPH GENOVESE,TREASURER,3126 PEACH ST ERIE PA 16508-0 ERIE,3130 PEACH ST ERIE PA 16508-2734
P. & K.S.A. ASSOCIATES,CORPORATION,NAN,,,,PA 19103-0 PHILADELPHIA,226 W RITTENHOUSE SQUARE SUITE 1510,PHILADELPHIA,,1500038,RONALD SCHLESINGER,OWNER,226 W RITTENHOUSE SQUARE SUITE 1510 PHILADELPHIA PA 19103-0 PHILADELPHIA,
KEG N CRATE,CORPORATION,NAN,,,,,,,,1500040,KANE SERVICE CORPORATION,OWNER,RD 2 ROUTE 322 EAST SHIPPENVILLE PA 16254-0 CLARION,
BATHCREST OF CENTRAL PA.,CORPORATION,PA,,,,PA 17011-0 CUMBERLAND,812,CAMP HILL,,1500041,LARRY E BROWN,OWNER,812 CAMP HILL MALL SUITE 112 CAMP HILL PA 17011-0 CUMBERLAND,
"MFS, INC.",CORPORATION,PA,PO BOX K,HELLERTOWN,18055-0213,PA,1025 W MAIN ST,ANNVILLE,17003,1500043,YVONNE E CAMPBELL,VICEPRESIDENT,1025 W MAIN ST ANNVILLE PA 17003 LEBANON,PO BOX K HELLERTOWN PA 18055-0213
CFJ DEVELOPMENT CORPORATION,CORPORATION,NAN,1532 ALCOTT ST,PHILADELPHIA,19149-51,PA 19149-0 PHILADELPHIA,1532 ALCOTT ST,PHILADELPHIA,,1500044,SHEILA M BANFE,TREASURER,1532 ALCOTT ST PHILADELPHIA PA 19149-0 PHILADELPHIA,1532 ALCOTT ST PHILADELPHIA PA 19149-51
TROY DEVCO % DEUSTCHTOWN DEVELOPMENT CORP,CORPORATION,NAN,,,,PA 15212-0 ALLEGHENY,1000 CALIFORNIA AVE,PITTSBURGH,,1500045,TROY HILL CITIZENS INC,OWNER,1000 CALIFORNIA AVE PITTSBURGH PA 15212-0 ALLEGHENY,
DESIGN CONSTRUCTION GROUP INC.,CORPORATION,PA,C/O WILLIAM TURNER 24 PENNWOOD DRIVE,NEWTOWN,18940-09,PA,ROUTE 390 PO BOX 529,MOUNTAINHOME,18342-0,1500046,PETER GIUSTRA,TREASURER,ROUTE 390 PO BOX 529 MOUNTAINHOME PA 18342-0 MONROE,C/O WILLIAM TURNER 24 PENNWOOD DRIVE NEWTOWN PA 18940-09
RESTECH SERVICE CO,CORPORATION,NAN,,,,PA,655 WHITTIER DR,WARMINSTER,,1500047,MATTHEW J DOYLE,OWNER,655 WHITTIER DR WARMINSTER PA 18974-0 BUCKS,
"GREEN SPRING TROUT FARMS, INC.",CORPORATION,NAN,2 W HATCHERY RD,NEWVILLE,17241-9689,,,,,1500048,WILMA FINUI,VICEPRESIDENT,PITT ST % FRANK FINUI JENNERSTOWN PA 15501-0 SOMERSET,2 W HATCHERY RD NEWVILLE PA 17241-9689
"P & J KENNELS, INC.",CORPORATION,NAN,C/O JOHN SOLEY R D 1 BOX 88A2,WEATHERLY,18255-13,,,,,1500049,MARGARET SOLEY,TREASURER,RD 1 BOX 88A2 WEATHERLY PA 18255-0 CARBON,C/O JOHN SOLEY R D 1 BOX 88A2 WEATHERLY PA 18255-13
SPOTLIGHT HAIR CREATIONS,CORPORATION,NAN,,,,PA 18643-0 LUZERNE,1701 WYOMING AVE,EXETER,,1500050,DEBORAH ZELINSKI,OWNER,1701 WYOMING AVE EXETER PA 18643-0 LUZERNE,
"PEDIATRIC & ADULT HEALTH SERVICES, INC.",CORPORATION,NAN,321 MILROY RD,HARRISBURG,17111-22,PA 17111-0 DAUPHIN,321 MILROY ROAD,HARRISBURG,,1500051,CYNTHIA K HARNISH,TREASURER,321 MILROY ROAD HARRISBURG PA 17111-0 DAUPHIN,321 MILROY RD HARRISBURG PA 17111-22
THE DISTRIBUTION SOURCE,CORPORATION,NAN,,,,PA 19117-0 MONTGOMERY,873 TWONSHIP LINE RD,ELKINS PARK,,1500052,PHOENIX DISTRIBUTION INCORPORATED,OWNER,873 TWONSHIP LINE RD ELKINS PARK PA 19117-0 MONTGOMERY,
OCEAN CLUB OF EASTERN PA.,CORPORATION,NAN,,,,PA 17603-0 LANCASTER,36 QUAKER HILLS RD,LANCASTER,,1500053,JULIE A DIDYOUNG,OWNER,36 QUAKER HILLS RD LANCASTER PA 17603-0 LANCASTER,
"INTERNATIONAL STAFFING NETWORK OF SCRANTON, INC.",CORPORATION,PA,,,,,,,,1500054,,,1845 WALNUT ST 21ST FL % KORN KLINE & KUTNER PHILADELPHIA PA 19103-0 PHILADELPHIA,
JPG ASSOCIATES,CORPORATION,NAN,,,,PA,27 MILYKO DR,WASHINGTON CROSSING,,1500055,JACK GEBEL,OWNER,27 MILYKO DR WASHINGTON CROSSING PA 18977-0 BUCKS,
PLYMOUTH MARKETING GROUP,CORPORATION,NAN,,,,,,,,1500056,SUSAN BEYER HAUN,OWNER,PO BOX 14732 (215 INGLEWOOD DRPITTSBURGH PA15228) PITTSBURGH PA 15234-0 ALLEGHENY,
"JET FAST PUBLICATIONS, INC.",CORPORATION,NAN,C/O THOMAS OBRIEN 7426 ROGERS AVE,UPPER DARBY,19082-23,PA 19082-0 DELAWARE,7426 ROGERS AVE,UPPER DARBY,,1500057,THOMAS OBRIEN,PRESIDENT,7426 ROGERS AVE UPPER DARBY PA 19082-0 DELAWARE,C/O THOMAS OBRIEN 7426 ROGERS AVE UPPER DARBY PA 19082-23
JEFF & DARLEAN'S ANTIQUES & COLLECTIBLES,CORPORATION,NAN,,,,PA 17225-0 FRANKLIN,320 S POTOMAC ST,GREENCASTLE,,1500058,JEFFREY L PROVARD,OWNER,320 S POTOMAC ST GREENCASTLE PA 17225-0 FRANKLIN,
"P & M PLUMBING, INC.",CORPORATION,NAN,C/O PATRICK MAISEY 3703 PITT PL,PHILADELPHIA,19114-51,PA 19114-0 PHILADELPHIA,3703 PITT PLACE,PHILADELPHIA,,1500059,PATRICK MAISEY,TREASURER,3703 PITT PLACE PHILADELPHIA PA 19114-0 PHILADELPHIA,C/O PATRICK MAISEY 3703 PITT PL PHILADELPHIA PA 19114-51
BEST FOOT FORWARD,CORPORATION,NAN,,,,PA 18503-0 LACKAWANNA,107-109 WYOMING AVE,SCRANTON,,1500060,LUCILLE CAMONI,OWNER,107-109 WYOMING AVE SCRANTON PA 18503-0 LACKAWANNA,
PEGASUS SOUND SYSTEM,CORPORATION,NAN,,,,,,,,1500061,JOHN R STEESE,OWNER,RD 1 BOX 128-B SUNBURY PA 17801-0 NORTHUMBERLAND,
ART-A-CAL,CORPORATION,NAN,,,,PA,1088 TAYLORSVILLE RD,WASHINGTON CROSSING,,1500062,JOHN F WEIDENMANN,OWNER,1088 TAYLORSVILLE RD WASHINGTON CROSSING PA 18977-0 BUCKS,
KEYSTONE CUSTOM CABINETS,CORPORATION,NAN,,,,PA 18249-0 LUZERNE,RD 1 BOX 440,SUGARLOAF,,1500063,ROBERT J BINDUS,OWNER,RD 1 BOX 440 SUGARLOAF PA 18249-0 LUZERNE,
BILL-CONN TRUCK CAPS,CORPORATION,NAN,,,,PA 15627-0 WESTMORELAND,RD 2 BOX 170,DERRY,,1500064,WILLIAM J CITRONE,OWNER,RD 2 BOX 170 DERRY PA 15627-0 WESTMORELAND,
B & J MARKET,CORPORATION,PA,,,,PA 15112-0 ALLEGHENY,809 MAIN ST,EAST PITTSBURGH,,1500065,MARY E HRESKO,OWNER,809 MAIN ST EAST PITTSBURGH PA 15112-0 ALLEGHENY,
TYPED-WRITE SERVICES BY ANGIE,CORPORATION,NAN,,,,PA,12 BEECH ST,NEWTOWN,,1500066,ANGELA M MESSICK,OWNER,12 BEECH ST NEWTOWN PA 18940-0 BUCKS,
23RD WASHINGTON COMPANY,CORPORATION,NAN,,,,PA 19146-0 PHILADELPHIA,2301 WASHINGTON AVE,PHILADELPHIA,,1500067,SANDRA J COSTELLO,OWNER,2301 WASHINGTON AVE PHILADELPHIA PA 19146-0 PHILADELPHIA,
SASSY SISTERS CORRAL,CORPORATION,PA,911 CALDWELL AVENUE,PORTAGE,15946,PA 15946-0 CAMBRIA,911 CALDWELL AVE,PORTAGE,,1500068,"OTTER CREEK FOODS, LLC",OWNER,911 CALDWELL AVE PORTAGE PA 15946-0 CAMBRIA,911 CALDWELL AVENUE PORTAGE PA 15946
MR. SUBMARINE,CORPORATION,NAN,,,,PA 18603-0 COLUMBIA,132-A W FRONT ST,BERWICK,,1500069,WANDA REIBSOME,OWNER,132-A W FRONT ST BERWICK PA 18603-0 COLUMBIA,
HICKS' HOME AND LAWN REPAIR'S,CORPORATION,NAN,,,,PA 17555-0 LANCASTER,RD 3 BOX 172,NARVON,,1500070,WILLIAM LEE HICKS,OWNER,RD 3 BOX 172 NARVON PA 17555-0 LANCASTER,
FOUNDATION NEWS,CORPORATION,NAN,,,,PA,1828 L STREET NW,COUNCIL ON FOUNDATIONS WASHINGTON,20036-0,1500071,COUNCIL ON FOUNDATIONS INC,OWNER,1828 L STREET NW COUNCIL ON FOUNDATIONS WASHINGTON PA 20036-0,
KATHY'S KOUNTRY BAKE SHOP,CORPORATION,NAN,,,,PA 17360-0 YORK,RD 2 BOX 258-B,SEVEN VALLEYS,,1500072,KATHY L JACKSON,OWNER,RD 2 BOX 258-B SEVEN VALLEYS PA 17360-0 YORK,
DIGITAL MATRIX INC.,CORPORATION,PA,4789-91 W CHESTER PIKE,EDGEMONT,19028-23,,,,,1500073,VINCENT LIU,PRESIDENT,SPRINGFIELD SQUARE S/C 1001 SUITE 111 1001 BALTIMORE PIKE SPRINGFIELD PA 19064-0 DELAWARE,4789-91 W CHESTER PIKE EDGEMONT PA 19028-23
"CAROL'S COMPLETE DRIVING SCHOOL, INC.",CORPORATION,NAN,C/O CAROL CUDEYRO 2208 GLENVIEW ST,PHILADELPHIA,19149-51,PA 19124-0 PHILADELPHIA,1511 FOULKRO ST,PHILA,,1500074,CAROL CUDEYRO,TREASURER,1511 FOULKRO ST PHILA PA 19124-0 PHILADELPHIA,C/O CAROL CUDEYRO 2208 GLENVIEW ST PHILADELPHIA PA 19149-51
"KENNETH JAMES TEMPORARIES, INC.",CORPORATION,NAN,506 LAKESIDE,OFF PK SOUTHAMPTON,18966-09,PA,506 LAKESIDE OFFICE PARK,SOUTHAMPTON,,1500075,KENNETH CARPENTER,TREASURER,506 LAKESIDE OFFICE PARK SOUTHAMPTON PA 18966-0 BUCKS,506 LAKESIDE OFF PK SOUTHAMPTON PA 18966-09
"TROIKA MANUFACTURING CO., INC.",CORPORATION,NAN,C/O FRANK CAPPOTELLI 42 HARBOUR COURT,STATEN ISLAN,10308,PA 19134-0 PHILADELPHIA,201 E CLEARFIELD ST,PHILADELPHIA,,1500076,VINCENT LAURIA,TREASURER,201 E CLEARFIELD ST PHILADELPHIA PA 19134-0 PHILADELPHIA,C/O FRANK CAPPOTELLI 42 HARBOUR COURT STATEN ISLAN NY 10308
THE BUFFALO CHIP'S CORPORATION,CORPORATION,PA,C/O JAMES STEIGELMANN 563 EDGEHILL RD,GLENSIDE,19038-46,PA 19446-0 MONTGOMERY,117 S BROAD ST,LANSDALE,,1500077,JEFFREY J STEIGELMANN,PRESIDENT,117 S BROAD ST LANSDALE PA 19446-0 MONTGOMERY,C/O JAMES STEIGELMANN 563 EDGEHILL RD GLENSIDE PA 19038-46
"RJI CONSULTANTS, INC.",CORPORATION,PA,117 INDUSTRY DR,PITTSBURGH,15275-02,PA 15220-0 ALLEGHENY,681 ANDERSON DRIVE,PITTSBURGH,,1500080,RICHARD G JONES,TREASURER,681 ANDERSON DRIVE PITTSBURGH PA 15220-0 ALLEGHENY,117 INDUSTRY DR PITTSBURGH PA 15275-02
PRECISION BUSINESS SERVICES,CORPORATION,NAN,,,,PA 19348-0 CHESTER,802 S MILL RD,KENNETT SQUARE,,1500082,RUTH A TAYLOR,OWNER,802 S MILL RD KENNETT SQUARE PA 19348-0 CHESTER,
"VIDEO COMMUNICATIONS CONCEPTS, INC.",CORPORATION,NAN,3 CROSSGATE DR,MECHANICSBURG,17055-21,PA 17055-0 CUMBERLAND,3 CROSSGATE DR,MECHANICSBURG,,1500083,PAUL M KAPLAN,TREASURER,3 CROSSGATE DR MECHANICSBURG PA 17055-0 CUMBERLAND,3 CROSSGATE DR MECHANICSBURG PA 17055-21
"RAMM ENVIRONMENTAL SUPPLY COMPANY, INC.",CORPORATION,NAN,C/O HARRY F WANNER 155 RESERVOIR RD,STRASBURG,17579-36,,,,,1500084,HARRY F WANNER JR,SECRETARY,NEWPORT CENTER OLD NEWPORT PIKE GAP PA 17527-0 LANCASTER,C/O HARRY F WANNER 155 RESERVOIR RD STRASBURG PA 17579-36
WINGS-N-THINGS,CORPORATION,NAN,,,,PA 18603-0 COLUMBIA,543 W FRONT ST,BERWICK,,1500085,KATHRYN A ALLEY,OWNER,543 W FRONT ST BERWICK PA 18603-0 COLUMBIA,
"HETTLER AND KIRK, INC.",CORPORATION,NAN,PO BOX 602,AMBLER,19002-46,PA 19034-0 MONTGOMERY,224 FORT WASHINGTON AVE,FT WASHINGTON,,1500086,THOMAS R MCCUE,PRESIDENT,224 FORT WASHINGTON AVE FT WASHINGTON PA 19034-0 MONTGOMERY,PO BOX 602 AMBLER PA 19002-46
MILLER FLOORING COMPANY,CORPORATION,PA,UNIT 15827 LINCOLN AVE,WEST CHESTER,19380-4472,PA,827 LINCOLN AVE STE 15,WEST CHESTER,19380,1500087,WILLIAM MILLER,TREASURER,827 LINCOLN AVE STE 15 WEST CHESTER PA 19380 CHESTER,UNIT 15827 LINCOLN AVE WEST CHESTER PA 19380-4472
INFORMATION NETWORKS,CORPORATION,NAN,,,,PA,454 NORWOOD AVE,NEWTOWN,,1500088,DANIEL T HUNT,OWNER,454 NORWOOD AVE NEWTOWN PA 18940-0 BUCKS,
"REB, INC.",CORPORATION,PA,,,,,,,,1500089,RONALD L BERLIN,TREASURER,220 SOUTHWEST END BLVD ROUTE 309 QUAKERTOWN PA 18951-0 BUCKS,
"ALLADIN GRAPHICS & PRINTING, INC.",CORPORATION,NAN,1001 LISA COURT,CONSHOHOCKEN,19428-46,PA 19428-0 MONTGOMERY,1001 LISA COURT,GULPH MILLS,,1500090,ABDUL M ALLADIN,TREASURER,1001 LISA COURT GULPH MILLS PA 19428-0 MONTGOMERY,1001 LISA COURT CONSHOHOCKEN PA 19428-46
"COMPLETE HEALTHCARE PERSONNEL, INC.",CORPORATION,PA,STE 3100200 DRYDEN RD,E DRESHER,19025-1069,,,,,1500091,MICHAEL D DARCANGELO,VICEPRESIDENT,%CORPORATION SERVICE COMPANY DAUPHIN,STE 3100200 DRYDEN RD E DRESHER PA 19025-1069
"NEIGHBORHOOD CINEMAS, INC.",CORPORATION,NAN,BOX 3511709 S BRADDOCK AVE,PITTSBURGH,15218-1865,PA 15203-0 ALLEGHENY,1602 E CARSON ST,PITTSBURGH,,1500092,DAVID P BEVILACQUA,PRESIDENT,1602 E CARSON ST PITTSBURGH PA 15203-0 ALLEGHENY,BOX 3511709 S BRADDOCK AVE PITTSBURGH PA 15218-1865
NEW HOPE SHOWCASE PRODUCTIONS,CORPORATION,NAN,,,,,,,,1500093,NEW HOPE SHOWCASE PRODUCTIONS LTD,OWNER,BRIDGE & STOCKTON AVES NEW HOPE PA 18938-0 BUCKS,
CHIPPARELLI'S INC.,CORPORATION,NAN,C/O DONALD CHIARELLI 202 NORTH SECOND ST,HARRISBURG,17101-22,PA 17101-0 DAUPHIN,202 N 2ND ST,HARRISBURG,,1500094,JAMES F CARCHIDI JR,TREASURER,202 N 2ND ST HARRISBURG PA 17101-0 DAUPHIN,C/O DONALD CHIARELLI 202 NORTH SECOND ST HARRISBURG PA 17101-22
"LEE MACKOWSKI GENERAL CONTRACTING, INC.",CORPORATION,PA,3522 WASHINGTON,ERIE,16508-25,PA,3127 COURT AVENUE,ERIE,,1500095,LEO J MACKOWSKI,TREASURER,3127 COURT AVENUE ERIE PA 16506-0 ERIE,3522 WASHINGTON ERIE PA 16508-25
"C.A.B. ENTERPRISES, INC.",CORPORATION,NAN,488 WORTHINGTON,SLATE WORTHINGTON,16262,PA 16262-0 ARMSTRONG,RD1 400,WORTHINGTON,,1500096,ROBERT C BOWSER,PRESIDENT,RD1 400 WORTHINGTON SLATE LICK RD WORTHINGTON PA 16262-0 ARMSTRONG,488 WORTHINGTON SLATE WORTHINGTON PA 16262
VCT,CORPORATION,NAN,,,,PA,1511-1515 ELEVENTH AVE,ALTOONA,,1500097,RUSTEVADER CORP,OWNER,1511-1515 ELEVENTH AVE ALTOONA PA 16601-0 BLAIR,
"RFD CONSTRUCTION COMPANY, INC.",CORPORATION,NAN,3119 PENNA AVE PO BOX 921,GLENSIDE,19038-46,PA 19002-0 MONTGOMERY,870 WELSH RD STE 3,MAPLE GLEN,,1500098,ROBERT F DIFERDINANDO,TREASURER,870 WELSH RD STE 3 MAPLE GLEN PA 19002-0 MONTGOMERY,3119 PENNA AVE PO BOX 921 GLENSIDE PA 19038-46
"WRC PERFORMANCE LIMITED, INC.",CORPORATION,NAN,1464 MAKEFIELD RD,YARDLEY,19067-09,PA,1464 MAKEFIELD RD,YARDLEY,,1500099,WILLIAM R COBB,TREASURER,1464 MAKEFIELD RD YARDLEY PA 19067-0 BUCKS,1464 MAKEFIELD RD YARDLEY PA 19067-09
"SAJA FASHIONS, INC.",CORPORATION,NAN,C/O SARAH CORBETT 3407 ST VINCENT ST,PHILADELPHIA,19149-51,PA,2531 VALLEY VIEW ROAD,BENSALEM,,1500100,SALLY CORBETT,PRESIDENT,2531 VALLEY VIEW ROAD BENSALEM PA 19020-0 BUCKS,C/O SARAH CORBETT 3407 ST VINCENT ST PHILADELPHIA PA 19149-51
TWO WAY STREET,CORPORATION,NAN,,,,PA,95 HEIGHTS LANE #91,FEASTERVILLE,,1500101,DEREK CROTTY,OWNER,95 HEIGHTS LANE #91 FEASTERVILLE PA 19047-0 BUCKS,
S.I.I. RACING SYDICATE,CORPORATION,NAN,,,,PA 18644-0 LUZERNE,151-J DUG RD,WYOMING,,1500103,STANDARDBRED INVESTMENTS INC,OWNER,151-J DUG RD WYOMING PA 18644-0 LUZERNE,
"ARGENTO BROS., INC.",CORPORATION,PA,272 CLAREMONT AVE,TAMAQUA,18252-4303,PA 18252-0 SCHUYLKILL,PO BOX 185 RD#4,TAMAQUA,,1500104,GIOVANNA CAMMAROTA,TREASURER,PO BOX 185 RD#4 TAMAQUA PA 18252-0 SCHUYLKILL,272 CLAREMONT AVE TAMAQUA PA 18252-4303
"601 CORPORATION, INC.",CORPORATION,NAN,C/O NEIL DAMATO 620 GARFIELD ST,HAZLETON,18201-40,PA 18201-0 LUZERNE,601 WEST DIAMOND AVE,HAZLETON,,1500105,NEIL DAMATO,PRESIDENT,601 WEST DIAMOND AVE HAZLETON PA 18201-0 LUZERNE,C/O NEIL DAMATO 620 GARFIELD ST HAZLETON PA 18201-40
ALPHA & OMEGA LIMOUSINES,CORPORATION,NAN,,,,PA 15206-0 ALLEGHENY,120 MARLBORO RD,PITTSBURGH,,1500107,ROBERT T DILLON JR,OWNER,120 MARLBORO RD PITTSBURGH PA 15206-0 ALLEGHENY,
ALMAR ENTERPRISES INC.,CORPORATION,NAN,,,,PA 16201-0 ARMSTRONG,RD6 BOX 256,KITTANNING,,1500108,A G GLADYSIEWSKI,TREASURER,RD6 BOX 256 KITTANNING PA 16201-0 ARMSTRONG,R D 6 BOX 256 KITTANNING PA 16201-03
ARANKLYNNE VIDEO PRODUCTIONS,CORPORATION,NAN,,,,,,,,1500109,LYNNETTE L HORN,OWNER,RD 5 LOT 43 WIL-LO FARM VILLAGE HARRISBURG PA 17111-0 DAUPHIN,
"F F & J ENTERPRISE, INC.",CORPORATION,NAN,C/O F S GRUSKA SR 102 ARMSTRONG DR,SHAVERTOWN,18708-40,PA 18708-0 LUZERNE,102 ARMSTRONG DR,SHAVERTOWN,,1500110,JUDITH MAY GRUSZKA,TREASURER,102 ARMSTRONG DR SHAVERTOWN PA 18708-0 LUZERNE,C/O F S GRUSKA SR 102 ARMSTRONG DR SHAVERTOWN PA 18708-40
B&P GUNS,CORPORATION,NAN,,,,PA 18407-0 LACKAWANNA,233 BELMONT ST,CARBONDALE,,1500111,WILLIAM WIGGINS,OWNER,233 BELMONT ST CARBONDALE PA 18407-0 LACKAWANNA,
MOUNTAIN VALLEY BUILDERS,CORPORATION,NAN,,,,PA,RD 2 BOX 200,HAWLEY,,1500112,JOHN R BEA,OWNER,RD 2 BOX 200 HAWLEY PA 18428-0 WAYNE,
"JOHN A. FRANCESCANGELI BUILDER & REMODELER, INC.",CORPORATION,PA,3093 WILLITS RD,PHILADELPHIA,19114-51,PA 19114-0 PHILADELPHIA,3093 WILLITS RD,PHILA,,1500113,JOHN A FRANCESCANGELI,TREASURER,3093 WILLITS RD PHILA PA 19114-0 PHILADELPHIA,3093 WILLITS RD PHILADELPHIA PA 19114-51
SHERMAN THEATER FOUNDATION,CORPORATION,PA,,,,PA,524 MAIN ST,STROUDSBURG,18360-0,1500114,SAVE OUR SHERMAN FOUNDATION,OWNER,524 MAIN ST STROUDSBURG PA 18360-0 MONROE,
"ALL WHITE ROOFING OF PENNSYLVANIA, INC.",CORPORATION,NAN,C/O DAVID POPP 5529 CLEAR SHADE DR,WINDBER,15963-56,PA 15904-0 CAMBRIA,1755 SCALP AVE,JOHNSTOWN,,1500115,WILLIAM G RHOADS,TREASURER,1755 SCALP AVE JOHNSTOWN PA 15904-0 CAMBRIA,C/O DAVID POPP 5529 CLEAR SHADE DR WINDBER PA 15963-56
"BUSINESS MARKETING WORKS, INC.",CORPORATION,NAN,32 KEYSTONE CT,LEOLA,17540-36,PA 17579-0 LANCASTER,33 WEST MAIN ST PO BOX 33,STRASBURG,,1500116,NA NA,VICEPRESIDENT,33 WEST MAIN ST PO BOX 33 STRASBURG PA 17579-0 LANCASTER,32 KEYSTONE CT LEOLA PA 17540-36
MOTORCYCLE MAGIC,CORPORATION,NAN,,,,PA 18042-0 NORTHAMPTON,461 BERWICK ST,EASTON,,1500117,DONALD A CARR,OWNER,461 BERWICK ST EASTON PA 18042-0 NORTHAMPTON,
"FAMILY FOOT SPECIALISTS, P.C.",CORPORATION,NAN,1335 SNYDER AVE,PHILADELPHIA,19148-51,PA 19148-0 PHILADELPHIA,1335 SNYDER AVE,PHILADELPHIA,,1500118,PAUL H AXELROD,PRESIDENT,1335 SNYDER AVE PHILADELPHIA PA 19148-0 PHILADELPHIA,1335 SNYDER AVE PHILADELPHIA PA 19148-51
PRO-CARE ASSOCIATES,CORPORATION,NAN,,,,,,,,1500119,SHAWN J YORKE,OWNER,PO BOX 65 ROUTES 940 & 115 BLAKESLEE PA 18610-0 MONROE,
WILLIAM ROBERT WALP P.C.,CORPORATION,NAN,45 GREENFIELD DR,CARLISLE,17013-21,PA 17013-0 CUMBERLAND,222 W WILLOW ST,CARLISLE,,1500120,WILLIAM ROBERT WALP,SECRETARY,222 W WILLOW ST CARLISLE PA 17013-0 CUMBERLAND,45 GREENFIELD DR CARLISLE PA 17013-21
"ALSTON'S CHRISTIAN PRE-SCHOOL & VAN SERVICE, INC.",CORPORATION,NAN,512 & 518 E,WASHINGTON PHILADELPHIA,19144-51,PA 19144-0 PHILADELPHIA,512 & 518 E,WASHINGTON LANE PHILA,,1500122,FANNIE M ALSTON,TREASURER,512 & 518 E WASHINGTON LANE PHILA PA 19144-0 PHILADELPHIA,512 & 518 E WASHINGTON PHILADELPHIA PA 19144-51
JOEY'S,CORPORATION,PA,,,,,,,,1500123,JOSEPH J RUSSO,OWNER,RD 6 BOX 6238-A STROUDSBURG PA 18360-0 MONROE,
SHERWOOD MANAGEMENT CORPORATION,CORPORATION,NAN,,,,PA 19046-0 MONTGOMERY,308 YORK RD,JENKINTOWN,,1500124,"ROBERT HOISERY MILLS, INC.",OWNER,308 YORK RD JENKINTOWN PA 19046-0 MONTGOMERY,
LEBANON KITCHEN & BATH,CORPORATION,NAN,,,,PA 17042-0 LEBANON,RD 2 BOX 1350,LEBANON,,1500125,LLOYD HURST,OWNER,RD 2 BOX 1350 LEBANON PA 17042-0 LEBANON,
"SUPREME LIMOUSINE, LTD.",CORPORATION,NAN,C/O DENNIS ROSCOS 42 PENINGTON LN,QUAKERTOWN,18951-09,PA,42 PENINGTON LANE,QUAKERTOWN,,1500126,GERALDINE ROSCOS,TREASURER,42 PENINGTON LANE QUAKERTOWN PA 18951-0 BUCKS,C/O DENNIS ROSCOS 42 PENINGTON LN QUAKERTOWN PA 18951-09
"MCKR, INC.",CORPORATION,NAN,C/O MAYUR MEHTA CPA 66 LENAPE RD,RICHBORO,18954-09,PA 19382-0 CHESTER,126 WEST MINER ST,WEST CHESTER,,1500127,ROSEMARY AMIN,PRESIDENT,126 WEST MINER ST WEST CHESTER PA 19382-0 CHESTER,C/O MAYUR MEHTA CPA 66 LENAPE RD RICHBORO PA 18954-09
POLISH HILL PIZZA,CORPORATION,NAN,,,,PA 15219-0 ALLEGHENY,3041 BRERETON ST,PITTSBURGH,,1500128,NICHOLAS SCIULLI,OWNER,3041 BRERETON ST PITTSBURGH PA 15219-0 ALLEGHENY,
"ALBARANO ENTERPRISES, INC.",CORPORATION,PA,201 BASIN ST,WILLIAMSPORT,17701-41,PA 17701-0 LYCOMING,201 BASIN ST,WILLIAMSPORT,,1500129,VICTORIA ANN ALBARANO,TREASURER,201 BASIN ST WILLIAMSPORT PA 17701-0 LYCOMING,201 BASIN ST WILLIAMSPORT PA 17701-41
TODAY'S DESIGN,CORPORATION,NAN,,,,PA 18436-0 LACKAWANNA,RD 3 BOX 281-A,LAKE ARIEL,,1500130,CHRIS LICHTEROWICZ,OWNER,RD 3 BOX 281-A LAKE ARIEL PA 18436-0 LACKAWANNA,
"HIGHER SYSTEMS, IINC.",CORPORATION,NAN,650 PARK ST,HONESDALE,18431-1470,PA,650-2 PARK ST,HONESDALE,,1500131,PHILIP G LIU,TREASURER,650-2 PARK ST HONESDALE PA 18431-0 WAYNE,650 PARK ST HONESDALE PA 18431-1470
"PERFECTION AUTO BODY & REPAIR SERVICE, INC.",CORPORATION,NAN,HC01 BOX 75,SPRUCE CREEK,16683-31,PA 17602-0 LANCASTER,45 SOUTH MARSHALL ST,LANCASTER,,1500132,HECTOR M MARTINEZ,TREASURER,45 SOUTH MARSHALL ST LANCASTER PA 17602-0 LANCASTER,HC01 BOX 75 SPRUCE CREEK PA 16683-31
"UNITED MORTGAGE BANKERS OF AMERICA, INC.",NONPROFIT,NAN,,,,PA 19150-0 PHILADELPHIA,800 IVY HILL ROAD,PHILADELPHIA,,1500133,,,800 IVY HILL ROAD PHILADELPHIA PA 19150-0 PHILADELPHIA,
DELRAY MOTOR CARS,CORPORATION,NAN,,,,PA,1111 W COLLEGE AVE,STATE COLLEGE,,1500134,GREGORY M RALEIGH,OWNER,1111 W COLLEGE AVE STATE COLLEGE PA 0 -0 CENTRE,
"THE MOUNTAIN TOP BUILDERS, INC.",CORPORATION,PA,C/O ANTHONY PICARELLO 408 EVERGREEN CIRCLE,TOBYHANNA,18466-45,PA,ROUTE 191 AND PINE ST,MOUNTAINHOME,18342-0,1500135,MARIA R PICARELLO,TREASURER,ROUTE 191 AND PINE ST MOUNTAINHOME PA 18342-0 MONROE,C/O ANTHONY PICARELLO 408 EVERGREEN CIRCLE TOBYHANNA PA 18466-45
LIONS CLUB OF WORTHINGTON,NONPROFIT,NAN,,,,PA 16262-0 ARMSTRONG,119 BEAR STREET,WORTHINGTON,,1500136,,,119 BEAR STREET WORTHINGTON PA 16262-0 ARMSTRONG,
"SPRINGHAVEN PULMONARY DIAGNOSTICS, INC.",CORPORATION,NAN,C/O STEVE MCCRORIE 1836 SUNNINGDALE CT,OVIEDA,32765,PA 18969-0 MONTGOMERY,158 THOMAS DR,TELFORD,,1500137,LISA MCCRORIE,PRESIDENT,158 THOMAS DR TELFORD PA 18969-0 MONTGOMERY,C/O STEVE MCCRORIE 1836 SUNNINGDALE CT OVIEDA FL 32765
"MACC ASSOCIATES, INC.",CORPORATION,NAN,24 ROLLING HILL DR,LITITZ,17543-36,PA 19404-0 MONTGOMERY,325 DEKALB ST PO BOX 698,NORRISTOWN,,1500138,CAROLINE M STUCKERT,TREASURER,325 DEKALB ST PO BOX 698 NORRISTOWN PA 19404-0 MONTGOMERY,24 ROLLING HILL DR LITITZ PA 17543-36
D. R. DRIVEWAY SEALING,CORPORATION,NAN,,,,PA,RD 1 BOX 1484,STROUDSBURG,18360-0,1500139,DORIS A RESSLER,OWNER,RD 1 BOX 1484 STROUDSBURG PA 18360-0 MONROE,
CANINE SHENANIGANS,CORPORATION,NAN,,,,,,,,1500140,RAE TANNER,OWNER,1905 DIANE CIRCLE PHOENIXVILLE PA 19460-0 CHESTER,
TASKMASTER ENTERPRISES,CORPORATION,NAN,,,,PA 19403-0 MONTGOMERY,3003 CONGRESS RD,NORRISTOWN,,1500141,R THOMAS HURD,OWNER,3003 CONGRESS RD NORRISTOWN PA 19403-0 MONTGOMERY,
ZERN'S COUNTRY SPORTSMAN,CORPORATION,NAN,,,,PA 19525-0 MONTGOMERY,1453 E PHILADELPHIA AVE,GILBERTSVILLE,,1500142,E WILLIAM ZERN,OWNER,1453 E PHILADELPHIA AVE GILBERTSVILLE PA 19525-0 MONTGOMERY,
"COLLEGIATE PROPERTIES (SOUTHWEST) CO., LTD.",CORPORATION,NAN,LEGAL DEPT RIVER RD PO BOX 93,SHAWNEE ON DEL,18356-45,,,,,1500143,KELLY R LEWIS,TREASURER,"PO BOX 93, RIVER RD FORT DEPUY LEGAL DEPT 3RD FLOOR SHAWNEE-ON-DELAWARE PA 18356-0 MONROE",LEGAL DEPT RIVER RD PO BOX 93 SHAWNEE ON DEL PA 18356-45
"PARKVIEW ASSOCIATES RESIDENTS' ASSOCIATION, INC.",NONPROFIT,PA,,,,PA,4119 LYNNDALE RD,ALTOONA,,1500144,,,4119 LYNNDALE RD ALTOONA PA 16602-0 BLAIR,
R & D JEWELERS,CORPORATION,NAN,,,,PA 19081-0 DELAWARE,413 DARTMOUTH AVE,GLENOLDEN,,1500146,EDWARD L HOCKER,OWNER,413 DARTMOUTH AVE GLENOLDEN PA 19081-0 DELAWARE,
"WATKINS ENTERPRISES, LTD.",CORPORATION,NAN,,,,PA 19301-0 CHESTER,13,PAOLI,,1500147,PATRICIA A MCARAW,TREASURER,13 PAOLI COURT PAOLI PA 19301-0 CHESTER,BENSON EAST 1213A JENKINTOWN PA 19046-46
OAK SPRINGS,CORPORATION,NAN,,,,PA,260 RED BARN LANE,NEW FREEPORT,15352-0,1500148,CHARLOTTE R CRISTE,OWNER,260 RED BARN LANE NEW FREEPORT PA 15352-0 GREENE,
DALE'S HAYLOFT,CORPORATION,NAN,,,,PA,2929 WILLOW STREET PIKE,LANCASTER,,1500149,DALE T ROBERTSON,OWNER,2929 WILLOW STREET PIKE LANCASTER PA 0 -0 LANCASTER,
EDGAR C. CAMPBELL SR. FOUNDATION,NONPROFIT,PA,,,,PA 19139-0 PHILADELPHIA,236 NORTH 59TH STREET,PHILADELPHIA,,1500150,,,236 NORTH 59TH STREET PHILADELPHIA PA 19139-0 PHILADELPHIA,
CAPE HORN PLAZA,CORPORATION,NAN,,,,PA 17402-0 YORK,890 WINDSOR RD,YORK,,1500151,NINA R ARGENTO,OWNER,890 WINDSOR RD YORK PA 17402-0 YORK,
KARPETS BY GIOVANNI,CORPORATION,NAN,,,,PA 18969-0 MONTGOMERY,133 CRESSMAN RD,TELFORD,,1500152,JOHN AMONO,OWNER,133 CRESSMAN RD TELFORD PA 18969-0 MONTGOMERY,
CHE FOUNDATION,NONPROFIT,PA,,,,PA 18042-0 NORTHAMPTON,25TH ST & LEHIGH DRIVE,EASTON,,1500154,,,25TH ST & LEHIGH DRIVE EASTON PA 18042-0 NORTHAMPTON,
VIRG II ENTERPRISES,CORPORATION,NAN,,,,PA 18105-0 NORTHAMPTON,RD 9 BOX 279 WHITEACREA DR,BETHLEHEM,,1500155,WILLIAM H HUBBARD III,OWNER,RD 9 BOX 279 WHITEACREA DR BETHLEHEM PA 18105-0 NORTHAMPTON,
INKWELL PUBLICATIONS,CORPORATION,NAN,,,,PA 18042-0 NORTHAMPTON,667 FERRY ST,EASTON,,1500156,TIMOTHY G HARE,OWNER,667 FERRY ST EASTON PA 18042-0 NORTHAMPTON,
BONNIE M. KELIHER INC.,CORPORATION,PA,292 LLOYD AVE,COLLEGEVILLE,19426-46,PA 19426-0 MONTGOMERY,292 LLOYD AVE,COLLEGEVILLE,,1500157,BONNIE M KELIHER,TREASURER,292 LLOYD AVE COLLEGEVILLE PA 19426-0 MONTGOMERY,292 LLOYD AVE COLLEGEVILLE PA 19426-46
A-1 AUTOMOTIVE SERVICE,CORPORATION,PA,209 37TH STREET,BEAVER FALLS,15010,PA,209 37TH ST,BEAVER FALLS,15010-0,1500158,"SOOS AUTOMOTIVE, LLC",OWNER,209 37TH ST BEAVER FALLS PA 15010-0 BEAVER,209 37TH STREET BEAVER FALLS PA 15010
BOOKS FOR LITTLE PEOPLE,CORPORATION,NAN,,,,PA 18042-0 NORTHAMPTON,507 RAMBLEWOOD DR,EASTON,,1500159,VIRGINIA L HAYES,OWNER,507 RAMBLEWOOD DR EASTON PA 18042-0 NORTHAMPTON,
CHESTERVILLE DESIGNS,CORPORATION,NAN,,,,PA 17566-0 LANCASTER,337 W FRITZ AVE,QUARRYVILLE,,1500161,KELLY B KOCH,OWNER,337 W FRITZ AVE QUARRYVILLE PA 17566-0 LANCASTER,
"S & S PIZZA, INC.",CORPORATION,NAN,1300 W MAIN ST,UNIONTOWN,15401-26,PA 15401-0 FAYETTE,1300 W MAIN ST,UNIONTOWN,,1500162,LORI BETH SPRINGER,TREASURER,1300 W MAIN ST UNIONTOWN PA 15401-0 FAYETTE,1300 W MAIN ST UNIONTOWN PA 15401-26
TROY VIDEO,CORPORATION,NAN,,,,PA 16947-0 BRADFORD,533 ELMIRA ST,TROY,,1500163,DAVID COLE,OWNER,533 ELMIRA ST TROY PA 16947-0 BRADFORD,
CREATIVE CATERING CONCEPTS,CORPORATION,NAN,,,,PA 19403-0 MONTGOMERY,821 W OAK ST,NORRISTOWN,,1500164,THARON NASH,OWNER,821 W OAK ST NORRISTOWN PA 19403-0 MONTGOMERY,
BARBUSH-LANGELOTH MUNICIPAL CORPORATION,NONPROFIT,NAN,,,,PA 15054-0 WASHINGTON,123 FOURTH AVENUE PO BOX 174,LANGELOTH,,1500166,,,123 FOURTH AVENUE PO BOX 174 LANGELOTH PA 15054-0 WASHINGTON,
"DURANT'S TAVERN, INC.",CORPORATION,PA,C/O C SCHIFFBAUER 207 WESTWOOD AVE,MASONTOWN,15461-26,PA 15461-0 FAYETTE,207 WESTWOOD AVE,MASONTOWN,,1500167,JEAN SCHIFFBAUER,TREASURER,207 WESTWOOD AVE MASONTOWN PA 15461-0 FAYETTE,C/O C SCHIFFBAUER 207 WESTWOOD AVE MASONTOWN PA 15461-26
THE ORIGINAL EXECUTIVE MARKETING SERVICE,CORPORATION,PA,,,,PA 19103-0 PHILADELPHIA,1617 JFK BLVD STE 650,PHILA,,1500168,JAMES G JOHNSON,OWNER,1617 JFK BLVD STE 650 PHILA PA 19103-0 PHILADELPHIA,
SUMITHRAYO,CORPORATION,NAN,,,,PA 19147-0 PHILADELPHIA,704 S SECOND ST,PHILADELPHIA,,1500169,TILAK S FERNANDO,OWNER,704 S SECOND ST PHILADELPHIA PA 19147-0 PHILADELPHIA,
LANKOWSKI ELECTRIC,CORPORATION,NAN,,,,PA,25 PERRY ST,CHESTER,,1500170,DANIEL LANKOWSKI,OWNER,25 PERRY ST CHESTER PA 7930 -0,
"TWIN OAKS NURSERY, INC.",CORPORATION,NAN,C/O K S SOURBEER R D 10 BOX 345,CARLISLE,17013-21,PA 17013-0 CUMBERLAND,RD 10 BOX 345,CARLISLE,,1500171,KATHARINE R SOURBEER,TREASURER,RD 10 BOX 345 CARLISLE PA 17013-0 CUMBERLAND,C/O K S SOURBEER R D 10 BOX 345 CARLISLE PA 17013-21
JAMESON VISITING NURSES ASSOCIATION OF LAWRENCE COUNTY,CORPORATION,PA,,,,PA 16101-0 LAWRENCE,44 SOUTH BEAVER ST,NEW CASTLE,,1500172,JAMESON MEMORIAL HOSPITAL,OWNER,44 SOUTH BEAVER ST NEW CASTLE PA 16101-0 LAWRENCE,
"OK USED CAR CORRAL, INC.",CORPORATION,PA,1707 GOLDEN,MILE HIGHW MONROEVILLE,15146,PA,5252 UNIVERSITY BOULEVARD,CORAOPOLIS,15108,1500173,WILLIAM G BORRES,TREASURER,5252 UNIVERSITY BOULEVARD CORAOPOLIS PA 15108 ALLEGHENY,1707 GOLDEN MILE HIGHW MONROEVILLE PA 15146
"LOU'S LOAN, INC.-BROWN REAL ESTATE PARTNERSHIP",CORPORATION,NAN,,,,,,,,1500174,"LOU'S LOAN, INC.",OWNER,512 AVENUE OF THE STATES CHESTER PA 19013-0 CHESTER,
UPAGAIN INC.,NONPROFIT,NAN,,,,PA 19131-0 PHILADELPHIA,5727 HARMER ST,PHILADELPHIA,,1500176,,,5727 HARMER ST PHILADELPHIA PA 19131-0 PHILADELPHIA,
BUCKS COUNTY LIMITED EDITIONS DESIGNER GROUP,CORPORATION,NAN,,,,,,,,1500179,WILLIAM P GAROMON,OWNER,RD2 BOX 124A NEW HOPE PA 18938-0 BUCKS,
"TOP LINE TOOL & DIE, INC.",CORPORATION,NAN,C/O PAUL E RICHMOND R D 3 BOX 277,LINESVILLE,16424-20,PA 16424-0 CRAWFORD,RD #3 BOX 277,LINESVILLE,,1500180,PAUL E RICHMOND,TREASURER,RD #3 BOX 277 LINESVILLE PA 16424-0 CRAWFORD,C/O PAUL E RICHMOND R D 3 BOX 277 LINESVILLE PA 16424-20
REVIVALS INCORPORATED,NONPROFIT,NAN,,,,PA 17055-0 CUMBERLAND,4681 EAST TRINDLE ROAD,MECHANICSBURG,,1500181,,,4681 EAST TRINDLE ROAD MECHANICSBURG PA 17055-0 CUMBERLAND,
ROSE POINT FORMALS,CORPORATION,NAN,,,,PA 16101-0 LAWRENCE,RD 6 BOX 546-B ROUTE 422,NEW CASTLE,,1500182,RAMONA A TELESZ,OWNER,RD 6 BOX 546-B ROUTE 422 NEW CASTLE PA 16101-0 LAWRENCE,
KEYSTONE MORTGAGE CONSULTANTS & FINANCIAL SERVICES,CORPORATION,NAN,,,,PA 19086-0 DELAWARE,209 PEMBROKE RD,WALLINGFORD,,1500183,HOWARD J BLANCHET JR,OWNER,209 PEMBROKE RD WALLINGFORD PA 19086-0 DELAWARE,
SOUTH HILLS ROOFING COMPANY,CORPORATION,PA,,,,PA 15102-0 ALLEGHENY,5916 BARNES AVE,BETHEL PARK,,1500184,GEORGE BONUITO JR,OWNER,5916 BARNES AVE BETHEL PARK PA 15102-0 ALLEGHENY,
THE NAIL EXTENSION,CORPORATION,NAN,,,,PA 15236-0 ALLEGHENY,152 CLAIRTON BLVD,PLESANT HILLS,,1500185,MARGARET A RAMIREZ,OWNER,152 CLAIRTON BLVD PLESANT HILLS PA 15236-0 ALLEGHENY,
"LOUGHLIN CONSTRUCTION, INC.",CORPORATION,NAN,484 LEVERINGTON AVE,PHILADELPHIA,19128-51,PA 19128-0 PHILADELPHIA,484 LEVERINGTON AVE,PHILADELPHIA,,1500186,MICHAEL LOUGHLIN,PRESIDENT,484 LEVERINGTON AVE PHILADELPHIA PA 19128-0 PHILADELPHIA,484 LEVERINGTON AVE PHILADELPHIA PA 19128-51
"GIRLS SOFTBALL BOOSTERS OF SPRINGFIELD TOWNSHIP, INC.",NONPROFIT,NAN,,,,PA 19038-0 MONTGOMERY,501 EDANN ROAD,GLENSIDE,,1500187,,,501 EDANN ROAD GLENSIDE PA 19038-0 MONTGOMERY,
M.V.C ENTERPRISES,CORPORATION,NAN,,,,PA,RD5 TIMOTHY LAKE RD,EAST STROUDSBURG,18301-0,1500188,VINCENT CIARLONE,OWNER,RD5 TIMOTHY LAKE RD EAST STROUDSBURG PA 18301-0 MONROE,
MEDITERRANEAN FOODS,CORPORATION,NAN,,,,PA 19026-0 DELAWARE,3409 SCHOOL LANE,DREXEL HILL,,1500189,KAREKIN AYANIAN,OWNER,3409 SCHOOL LANE DREXEL HILL PA 19026-0 DELAWARE,
COLLEGE FINANCIAL SEARCH,CORPORATION,NAN,,,,PA 17601-0 LANCASTER,1935 FRUITVILLE PIKE SUITE 113,LANCASTER,,1500190,GAIL K POFF,OWNER,1935 FRUITVILLE PIKE SUITE 113 LANCASTER PA 17601-0 LANCASTER,
"PINE FORGE INDUSTRIES, INC.",CORPORATION,NAN,PO BOX 353,PINE FORGE,19548-06,,,,,1500191,ALPHONSO MITCHELL,TREASURER,DOUGLASS DR PINE FORGE PA 19548-0 BERKS,PO BOX 353 PINE FORGE PA 19548-06
TRI-VALLEY ASSOCIATES,CORPORATION,NAN,,,,PA 15461-0 FAYETTE,PO BOX 484 RIVER AVE,MASONTOWN,,1500192,RALEIGH O TOWNSEND,OWNER,PO BOX 484 RIVER AVE MASONTOWN PA 15461-0 FAYETTE,
CASSELMAN VALLEY BUSINESS AND PROFESSIONAL ASSOCIATION,NONPROFIT,NAN,,,,PA 15538-0 FAYETTE,RD 1 BOX 55,FAIRHOPE,,1500193,,,RD 1 BOX 55 FAIRHOPE PA 15538-0 FAYETTE,
HARMONY GROVE COUNTRY STORE,CORPORATION,NAN,,,,PA 17315-0 YORK,6620 DETTERS MILL RD,DOVER,,1500194,CHARLES E HAYES,OWNER,6620 DETTERS MILL RD DOVER PA 17315-0 YORK,
BOGEY BREAKERS,CORPORATION,NAN,,,,,,,,1500195,DIANE LANDIS,OWNER,RD1 GARRETT PA 15542-0 SOMERSET,
A-RCC CONSTRUCTION COMPANY,CORPORATION,NAN,,,,PA,2213 LORENTZ AVE,YOUNGSTOWN,44505-0,1500196,RAYMOND COLLIER,OWNER,2213 LORENTZ AVE YOUNGSTOWN PA 44505-0,
"HANNUM, CHRISTOPHER F. M.D., P.C.",CORPORATION,NAN,920 YARNALL ST,CHESTER,19013-2652,PA 19013-0 CHESTER,8TH & KERLIN ST,CHESTER,,1500197,CHRISTOPHER HANNUM,VICEPRESIDENT,8TH & KERLIN ST CHESTER PA 19013-0 CHESTER,920 YARNALL ST CHESTER PA 19013-2652
CHARLESTON BAPTIST CHURCH OF WELLSBORO,NONPROFIT,PA,,,,PA,RD 2 BOX 443,WELLSBORO,,1500198,,,RD 2 BOX 443 WELLSBORO PA 16901-0 TIOGA,
GENE'S ECONOMY AUTO SERVICE,CORPORATION,NAN,,,,PA 16354-0 CRAWFORD,801 W CENTRAL AVE,TITUSVILLE,,1500199,WILLIAM J FORBES,OWNER,801 W CENTRAL AVE TITUSVILLE PA 16354-0 CRAWFORD,
ACTION AUTO BODY,CORPORATION,NAN,,,,PA,BOX 252 MAIN ST,SPRINGTOWN,,1500200,WILLIAM G SMITH,OWNER,BOX 252 MAIN ST SPRINGTOWN PA 18081-0 BUCKS,
STAR SEARCH,CORPORATION,NAN,,,,,,,,1500201,S & S RESTAURANT & LOUNGE INC,OWNER,GREAT SOUTHERN CENTER BRIDGEVILLE PA 15017-0 ALLEGHENY,
INFANT AND CHILD DEVELOPMENT ASSOCIATES,NONPROFIT,NAN,,,,PA,909 SUMNEYTOWN PIKE SUITE 203 BOX 610,SPRING HOUSE,,1500202,,,909 SUMNEYTOWN PIKE SUITE 203 BOX 610 SPRING HOUSE PA 19477-0 BUCKS,
TRANSGLOBE ENTERPRISES,CORPORATION,NAN,,,,PA 19143-0 PHILADELPHIA,1602 S 56TH ST,PHILA,,1500203,DR ADAMU MUSA,OWNER,1602 S 56TH ST PHILA PA 19143-0 PHILADELPHIA,
CROSSROADS CLAIM CENTER & ASSOCIATES,CORPORATION,NAN,,,,PA 15367-0 WASHINGTON,113 JUSTABOUT FARMS RD,VENETIA,,1500204,R EDWARD SHUSTER JR,OWNER,113 JUSTABOUT FARMS RD VENETIA PA 15367-0 WASHINGTON,
NORTH STREET WAREHOUSE,CORPORATION,NAN,,,,PA 17268-0 FRANKLIN,238-240 W NORTH ST,WAYNESBORO,,1500205,BERNARD D HILLSINGER,OWNER,238-240 W NORTH ST WAYNESBORO PA 17268-0 FRANKLIN,
THE MOUNT AIRY PRESS,CORPORATION,NAN,,,,PA 17268-0 FRANKLIN,130 W MAIN ST,WAYNESBORO,,1500206,TODD A DORSETT,OWNER,130 W MAIN ST WAYNESBORO PA 17268-0 FRANKLIN,
BARBEQUE EXPRESS,CORPORATION,NAN,,,,PA 16316-0 CRAWFORD,ROUTE 618,CONNEAUT LAKE,,1500207,JACQUELINE E ELLIOTT,OWNER,ROUTE 618 CONNEAUT LAKE PA 16316-0 CRAWFORD,
NEW DAY INTERNATIONAL KINGDOM MINISTRIES,NONPROFIT,NAN,,,,PA 17110-0 DAUPHIN,310 PEFFER ST,HARRISBURG,,1500208,,,310 PEFFER ST HARRISBURG PA 17110-0 DAUPHIN,
TYGART VALLEY COMPLEX,CORPORATION,NAN,,,,PA 15301-0 WASHINGTON,70 E WHEELING ST,WASHINGTON,,1500209,NORMAN DINARDO,OWNER,70 E WHEELING ST WASHINGTON PA 15301-0 WASHINGTON,
C'EST CHEESECAKE,CORPORATION,NAN,,,,PA 19015-0 DELAWARE,5200 HILLTOP DR,BROOKHAVEN,,1500210,BLANCHE A ELBOURNE,OWNER,5200 HILLTOP DR BROOKHAVEN PA 19015-0 DELAWARE,
ROCK OF SALVATION PENTACOSTAL CHURCH,NONPROFIT,PA,1938 N 2ND ST,PHILADELPHIA,19122-0,PA 19122-0 PHILADELPHIA,% JULIET G REILLY 1938 N 2ND ST,PHILADELPHIA,,1500211,PAULA VEGA,SECRETARY,% JULIET G REILLY 1938 N 2ND ST PHILADELPHIA PA 19122-0 PHILADELPHIA,1938 N 2ND ST PHILADELPHIA PA 19122-0
A S DISTRIBUTION COMPANY,CORPORATION,NAN,,,,PA 19403-0 MONTGOMERY,825 MOURNING DOVE RD,AUDUBON,,1500212,INDUSTRIAL STEEL & FASTENER CORP.,OWNER,825 MOURNING DOVE RD AUDUBON PA 19403-0 MONTGOMERY,
SHIM'S STORE,CORPORATION,NAN,,,,,,,,1500213,HEE JO SHIM,OWNER,MONTGOMERYVILLE MART #304 MONTGOMERYVILLE PA 18936-0 MONTGOMERY,
"C & L FINE FOODS, INC.",CORPORATION,NAN,C/O DONALD CRISSMAN BOX 266,TROY,16947-08,PA 16947-0 BRADFORD,111 W MAIN ST,TROY,,1500214,MICHAEL C LEUNG,PRESIDENT,111 W MAIN ST TROY PA 16947-0 BRADFORD,C/O DONALD CRISSMAN BOX 266 TROY PA 16947-08
CODOS MARINE,CORPORATION,NAN,,,,PA,1910,YARDLEY,,1500215,STEVEN M SCHIAVONE,OWNER,1910 YARDLEY COMMONS YARDLEY PA 19067-0 BUCKS,
HERITAGE GALLERY AND FRAME SHOP,CORPORATION,NAN,,,,PA,212 HIGH ST,WATERFORD,,1500216,KAREN MAZUR,OWNER,212 HIGH ST WATERFORD PA 16441-0 ERIE,
"REHCON, INC.",CORPORATION,NAN,T/A FRANK P HELLER CO 1233 GREEN ST,READING,19604-06,PA,PO BOX 8581 (520 WALNUT ST),READING,,1500217,RANDY L ZIMMERMAN,TREASURER,PO BOX 8581 (520 WALNUT ST) READING PA 19603-0 BERKS,T/A FRANK P HELLER CO 1233 GREEN ST READING PA 19604-06
LUIGI HAIR CUTTING,CORPORATION,NAN,,,,PA 19083-0 DELAWARE,9 EAST EAGLE RD,HAVERTOWN,,1500218,LUIGI DEMICHELE,OWNER,9 EAST EAGLE RD HAVERTOWN PA 19083-0 DELAWARE,
JEAN ANN'S CARD & CRAFT SHOP,CORPORATION,NAN,,,,PA 15717-0 INDIANA,50 1/2 W MARKET ST,BLAIRSVILLE,,1500219,JEAN ANN LOSCO,OWNER,50 1/2 W MARKET ST BLAIRSVILLE PA 15717-0 INDIANA,
HORST EXCAVATING CONSTRUCTION,CORPORATION,NAN,,,,PA 17404-0 YORK,424 E CANAL RD,YORK,,1500220,DARREL D HORST,OWNER,424 E CANAL RD YORK PA 17404-0 YORK,
"SAYRE CENTENNIAL COMMITTEE, INC.",NONPROFIT,PA,,,,PA 18840-0 BRADFORD,103 SOUTH LEHIGH AVENUE,SAYRE,,1500221,,,103 SOUTH LEHIGH AVENUE SAYRE PA 18840-0 BRADFORD,
"HOBBY'S UNLIMITED, INC.",CORPORATION,NAN,1007 SHERMAN AVE,DUQUESNE,15110-02,PA 15110-0 ALLEGHENY,1007 SHERMAN AVE,DUQUESNE,,1500222,MARY KAREN VALENTE,TREASURER,1007 SHERMAN AVE DUQUESNE PA 15110-0 ALLEGHENY,1007 SHERMAN AVE DUQUESNE PA 15110-02
JJ'S IRON MOUNTAIN INN,CORPORATION,NAN,,,,PA,83 N MARKET ST,MILLERSTOWN,,1500223,JUDITH A JARVIS,OWNER,83 N MARKET ST MILLERSTOWN PA 17062-0 PERRY,
THE PHILADELPHIA TEACHING CENTER,NONPROFIT,PA,,,,PA 19106-0 PHILADELPHIA,SUITE 603 241 SOUTH 6TH STREET,PHILA,,1500224,,,SUITE 603 241 SOUTH 6TH STREET PHILA PA 19106-0 PHILADELPHIA,
"S & C AUTO SERVICE, INC.",CORPORATION,NAN,C/O JOSEPH R CAVALLAR1235 FIVE PINES RD N,HUNTINGDON,15642-65,,,,,1500225,JOSEPH ROCCO CAVALLARO,TREASURER,605 EDEN PARK BUILDING MCKEESPORT PA 15132-0 ALLEGHENY,C/O JOSEPH R CAVALLAR1235 FIVE PINES RD N HUNTINGDON PA 15642-65
"YOGURT & MORE, INC.",CORPORATION,PA,C/O DANIEL FALTYN SR 104 GLENSTONE RD,DICKSON CITY,18519-35,PA 18519-0 LACKAWANNA,104 GLENSTONE ROAD,DICKSON CITY,,1500226,DANIEL T FALTYN SR,TREASURER,104 GLENSTONE ROAD DICKSON CITY PA 18519-0 LACKAWANNA,C/O DANIEL FALTYN SR 104 GLENSTONE RD DICKSON CITY PA 18519-35
TRUSTWORTHY TRAVEL,CORPORATION,NAN,,,,,,,,1500227,JERRY L BAKER,OWNER,RD#4 BOX 126 JUNIATA VALLEY SHOPPING CTR MIFFLINTOWN PA 17059-0 JUNIATA,
"EAST FIFTH AVENUE AUTO SALES, INC.",CORPORATION,NAN,2845 E 5TH AVE,MCKEESPORT,15131-02,PA 15131-0 ALLEGHENY,2845 E FIFTH AVE,MCKEESPORT,,1500228,JOSEPH ROCCO CAVALLARO,TREASURER,2845 E FIFTH AVE MCKEESPORT PA 15131-0 ALLEGHENY,2845 E 5TH AVE MCKEESPORT PA 15131-02
E-Z SQUEEZE,CORPORATION,NAN,,,,,,,,1500229,PAUL P BLANDA,OWNER,128 WESTMINSTER GREENSBURG PA 15601-0 WESTMORELAND,
THE PROTECT AND CONSERVE CORPORATION,NONPROFIT,NAN,,,,PA 17701-0 LYCOMING,1706 CHESTNUT STREET,WILLIAMSPORT,,1500230,,,1706 CHESTNUT STREET WILLIAMSPORT PA 17701-0 LYCOMING,
THE FINAL TOUCH,CORPORATION,NAN,,,,PA,922 WOODBOURNE RD STE 214,LEVITTOWN,,1500231,RONALD TREFSGER,OWNER,922 WOODBOURNE RD STE 214 LEVITTOWN PA 19056-0 BUCKS,
"JAEGER & GHAZALEH, INC.",CORPORATION,NAN,3000 VLY FORGE CIR 854,KNG OF PRUSSIA,19406-46,,,,,1500232,OUSAMA R ABU GHAZALEH,TREASURER,BERNVILLE RD ROUTE 183 NORTH READING PA 19601-0 BERKS,3000 VLY FORGE CIR 854 KNG OF PRUSSIA PA 19406-46
QUALITY PROPERTY MANAGEMENT,CORPORATION,NAN,,,,PA 17403-0 YORK,21 E PRINCESS ST,YORK,,1500233,PATRICIA J KEHR,OWNER,21 E PRINCESS ST YORK PA 17403-0 YORK,
DOLLY'S PLACE INC.,CORPORATION,NAN,902 CAMBRIA ST,NANTY GLO,15943-11,,,,,1500234,DOROTHY J KOZLOVAC,PRESIDENT,824 CHESTNUT ST NANTY GLO PA 15943-0 CAMBRIA,902 CAMBRIA ST NANTY GLO PA 15943-11
"SHAMOKIN 125TH ANNIVERSARY COMMITTEE, INC.",NONPROFIT,NAN,,,,PA 17872-0 NORTHUMBERLAND,47 EAST LINCOLN STREET,SHAMOKIN,,1500235,,,47 EAST LINCOLN STREET SHAMOKIN PA 17872-0 NORTHUMBERLAND,
GIRARD METAL POLISHING,CORPORATION,NAN,,,,PA,227 HATHAWAY ST E,GIRARD,,1500236,JOSEPH HUDACKY,OWNER,227 HATHAWAY ST E GIRARD PA 16417-0 ERIE,
"EAST ASSOCIATES, INC.",CORPORATION,PA,PO BOX 2581,BALA CYNWYD,19004-6581,PA 19072-0 MONTGOMERY,915 MONTGOMERY AVE,NARBERTH,,1500237,HENRY CONRY,TREASURER,915 MONTGOMERY AVE NARBERTH PA 19072-0 MONTGOMERY,PO BOX 2581 BALA CYNWYD PA 19004-6581
D&M FINANCIAL SYSTEMS AND SERVICES,CORPORATION,PA,,,,PA 18630-0 WYOMING,BRIDGE ST PO BOX 387,MESHOPPEN,,1500238,MARIE A FASSETT,OWNER,BRIDGE ST PO BOX 387 MESHOPPEN PA 18630-0 WYOMING,
EAST DEER PERSONAL CARE HOME,CORPORATION,NAN,,,,PA 15030-0 ALLEGHENY,967 FREEPORT RD,CREIGHTON,,1500239,FRANK ZALEWSKY,OWNER,967 FREEPORT RD CREIGHTON PA 15030-0 ALLEGHENY,
"ALLSTAR CLEANING SERVICES, INC.",CORPORATION,PA,125 NODE DR,HADDONFIELD,08033,PA 19146-0 PHILADELPHIA,1817 CATHARINE ST,PHILADELPHIA,,1500240,MARC R NASBERG,PRESIDENT,1817 CATHARINE ST PHILADELPHIA PA 19146-0 PHILADELPHIA,125 NODE DR HADDONFIELD NJ 08033
PARENT TEACHERS ASSOCIATION-FRIENDSHIP SCHOOL,NONPROFIT,NAN,,,,PA 19343-0 CHESTER,300 REECEVILLE ROAD,COATESVILLE,,1500241,,,300 REECEVILLE ROAD COATESVILLE PA 19343-0 CHESTER,
"THOMAS A. LUPPERGER, INC.",CORPORATION,PA,8076 E SPIKEMOSS LANE,IVERNESS,34450,PA 17980-0 SCHUYLKILL,115 DIETRICH AVE,(ORWIN) TOWER CITY,,1500242,THOMAS A LUPPERGER,TREASURER,115 DIETRICH AVE (ORWIN) TOWER CITY PA 17980-0 SCHUYLKILL,8076 E SPIKEMOSS LANE IVERNESS FL 34450
BAILEY & BAILEY DEVELOPMENT CO. INC.,CORPORATION,NAN,10 5TH ST,MOOSIC,18507-35,PA 18508-0 LACKAWANNA,2712 N MAIN AVE,SCRANTON,,1500243,PAUL BAILEY,TREASURER,2712 N MAIN AVE SCRANTON PA 18508-0 LACKAWANNA,10 5TH ST MOOSIC PA 18507-35
"J. KENNETH SHIRK BUILDER, INC.",CORPORATION,PA,3210 HENRICH FARM LN,ALLISON PARK,15101-1514,PA 15101-0 ALLEGHENY,3210 HENRICH FARM LANE,ALLISON PARK,,1500244,J KENNETH SHIRK,TREASURER,3210 HENRICH FARM LANE ALLISON PARK PA 15101-0 ALLEGHENY,3210 HENRICH FARM LN ALLISON PARK PA 15101-1514
"PREMIER TOURS & TRAVEL, INC.",CORPORATION,PA,C/O MICHAEL M COONEY 142 HARVARD,ST GROVE CITY,16127-43,PA,142 HARVARD,ST GROVE CITY,16137-0,1500245,MICHAEL M COONEY,PRESIDENT,142 HARVARD ST GROVE CITY PA 16137-0 MERCER,C/O MICHAEL M COONEY 142 HARVARD ST GROVE CITY PA 16127-43
"ENCORE OFFICE PRODUCTS, INC.",CORPORATION,PA,C/O DAVID J BOAL 717 TAMARACK DR,CLAIRTON,15025-02,PA 15132-0 ALLEGHENY,2907 WALNUT STREET,MCKEESPORT,,1500246,DAVID J BOAL,TREASURER,2907 WALNUT STREET MCKEESPORT PA 15132-0 ALLEGHENY,C/O DAVID J BOAL 717 TAMARACK DR CLAIRTON PA 15025-02
"PALDIES, LTD.",CORPORATION,NAN,BIG MILL OUTLET COMPLX730 N 8TH ST,READING,19604-06,,,,,1500247,YU SSU CHEN,TREASURER,%CT CORPORATION SYSTEM PHILADELPHIA,BIG MILL OUTLET COMPLX730 N 8TH ST READING PA 19604-06
"UPPER DARBY COLLISION, INC.",CORPORATION,NAN,7045 W CHESTER PIKE,UPPER DARBY,19082-23,PA 19082-0 DELAWARE,7045 WEST CHESTER PIKE,UPPER DARBY,,1500248,JUNG H HUYN,TREASURER,7045 WEST CHESTER PIKE UPPER DARBY PA 19082-0 DELAWARE,7045 W CHESTER PIKE UPPER DARBY PA 19082-23
"PINPOINT MARKETING, INC.",CORPORATION,NAN,C/O DANIEL J ZEMANSKI 2459 BROOKLEDGE DR,BRIDGEVILLE,15017-02,PA 15432-0 WASHINGTON,618 WEST PIKE STREET,HOUSTON,,1500249,DANIEL J ZEMANSKI,TREASURER,618 WEST PIKE STREET HOUSTON PA 15432-0 WASHINGTON,C/O DANIEL J ZEMANSKI 2459 BROOKLEDGE DR BRIDGEVILLE PA 15017-02
"TELE-JOBS, INC.",CORPORATION,NAN,765 DUNLAP CIR,WINTER SPRIN,32708,PA 15146-0 ALLEGHENY,3865 WM PENN HIGHWAY,MONROEVILLE,,1500250,FERNANDO E MENENDEZ,PRESIDENT,3865 WM PENN HIGHWAY MONROEVILLE PA 15146-0 ALLEGHENY,765 DUNLAP CIR WINTER SPRIN FL 32708
GOODFELLOW CORPORATION,CORPORATION,PA,,,,PA,125 HOOKSTOWN GRADE RD,CORAOPOLIS,15108,1500251,STEPHEN C ALDERSLEY,PRESIDENT,125 HOOKSTOWN GRADE RD CORAOPOLIS PA 15108 ALLEGHENY,
"ECLAIR ELECTRONICS, INC.",CORPORATION,NAN,C/O JOSEPH BENIZRI 124 W CHELTEN AVE,PHILADELPHIA,19144-51,PA 19144-0 PHILADELPHIA,124 W CHELTEN AVE,PHILADELPHIA,,1500252,RAPHAEL BETTAN,TREASURER,124 W CHELTEN AVE PHILADELPHIA PA 19144-0 PHILADELPHIA,C/O JOSEPH BENIZRI 124 W CHELTEN AVE PHILADELPHIA PA 19144-51
"CKN, INC.",CORPORATION,NAN,625 GLENDALE RD,NEWTOWN SQUARE,19073-23,PA 19380-0 CHESTER,1505 MCDONALD DRIVE WEST,CHESTER,,1500254,THEODORE COHN,TREASURER,1505 MCDONALD DRIVE WEST CHESTER PA 19380-0 CHESTER,625 GLENDALE RD NEWTOWN SQUARE PA 19073-23
"DYNAMIC AUTOMATED PARTS INDUSTRIES, INC.",CORPORATION,NAN,C/O DAVID SEIPLE 316 AUSTIN DR,CLIFTON HTS,19018-23,PA 19050-0 DELAWARE,21 WILLIAMS ST,LANSDOWNE,,1500255,DAVID SEIPLE,TREASURER,21 WILLIAMS ST LANSDOWNE PA 19050-0 DELAWARE,C/O DAVID SEIPLE 316 AUSTIN DR CLIFTON HTS PA 19018-23
"CONSTRUCTURAL LANDSCAPES, INC.",CORPORATION,NAN,C/O GERALD R HERSHEY 1260 MEMORY LN,WEST CHESTER,19380-15,PA 19380-0 CHESTER,1260 MEMORY LANE,WEST CHESTER,,1500256,GERALD HERSHEY,VICEPRESIDENT,1260 MEMORY LANE WEST CHESTER PA 19380-0 CHESTER,C/O GERALD R HERSHEY 1260 MEMORY LN WEST CHESTER PA 19380-15
ROBERT B. ORR INC.,CORPORATION,NAN,,,,,,,,1500257,ROBERT B ORR,PRESIDENT,RD #3 BOX 105-A BELLE VERNON PA 15012-0 FAYETTE,R D 3 BOX 105-A BELLE VERNON PA 15012-26
LINX COMPUTER SERVICES INC.,CORPORATION,NAN,PO BOX 61827 KNG OF,PRUSSIA,19406-46,PA 19003-0 MONTGOMERY,61 W LANCASTER AVE,ARDMORE,,1500258,BRIAN WU,PRESIDENT,61 W LANCASTER AVE ARDMORE PA 19003-0 MONTGOMERY,PO BOX 61827 KNG OF PRUSSIA PA 19406-46
"GUENTHER'S SKI HAUS, INC.",CORPORATION,PA,C/O GUENTHER KOPP 1327 EAST ST,HONESDALE,18431-64,PA,1327 EAST STREET,HONESDALE,,1500259,GUENTHER KOPP,TREASURER,1327 EAST STREET HONESDALE PA 18431-0 WAYNE,C/O GUENTHER KOPP 1327 EAST ST HONESDALE PA 18431-64
"WALKPITTSBURGH, INC.",CORPORATION,NAN,C/O ROBERT GANGEWERE 508 IVY ST,PITTSBURGH,15232-02,PA 15232-0 ALLEGHENY,508 IVY ST,PITTSBURGH,,1500260,ROBERT J GANGEWERE,TREASURER,508 IVY ST PITTSBURGH PA 15232-0 ALLEGHENY,C/O ROBERT GANGEWERE 508 IVY ST PITTSBURGH PA 15232-02
"MUSSELMAN CONSTRUCTION, INC.",CORPORATION,PA,,,,PA,2452 SOUTH 4TH ST,ALLENTOWN,18103-0,1500261,DWIGHT A MUSSELMAN,TREASURER,2452 SOUTH 4TH ST ALLENTOWN PA 18103-0 LEHIGH,C/O 316 W JOHNSTON ST 316 W. JOHNSTON STREET ALLENTOWN PA 18103-39
"SECHAN PROPERTIES, INC.",CORPORATION,NAN,111 SUNSET HILL RD,NEW CANAAN,06840-4004,,,,,1500262,ROBERT II SECHAN,TREASURER,RD #1 PORTERSVILLE PA 16051-0 BUTLER,111 SUNSET HILL RD NEW CANAAN CT 06840-4004
"ROSSI'S PIZZA, INC.",CORPORATION,NAN,914 MAIN ST,PITTSBURGH,15215-02,,,,,1500263,FRANCIS D ROSS,TREASURER,403 MEADOWVALE DR SUITE B CHESWICK PA 15024-0 ALLEGHENY,914 MAIN ST PITTSBURGH PA 15215-02
"J. L. USED AUTO PARTS, INC.",CORPORATION,PA,658 E MAIN ST,LARKSVILLE,18651-3204,PA 18651-0 LUZERNE,R 658 EAST MAIN ST,LARKSVILLE,,1500264,JEROME LECH,VICEPRESIDENT,R 658 EAST MAIN ST LARKSVILLE PA 18651-0 LUZERNE,658 E MAIN ST LARKSVILLE PA 18651-3204
"TRI STATE UNLIMITED, INC.",CORPORATION,PA,RR 5 STOOPS FERRY RD,CORAOPOLIS,15108-02,PA 15108-0 ALLEGHENY,611 MCGOVERN BLVD,CORAOPOLIS,,1500266,G E SMITH,TREASURER,611 MCGOVERN BLVD CORAOPOLIS PA 15108-0 ALLEGHENY,RR 5 STOOPS FERRY RD CORAOPOLIS PA 15108-02
"WEAVER COFFEE CO., INC.",CORPORATION,NAN,C/O ATTY PETER SCHAAF 100 STATE ST STE 700,ERIE,16507-25,PA,2115 W EIGHTH ST SUITE 289,ERIE,,1500267,ROBERT F WEAVER,TREASURER,2115 W EIGHTH ST SUITE 289 ERIE PA 16505-0 ERIE,C/O ATTY PETER SCHAAF 100 STATE ST STE 700 ERIE PA 16507-25
"QUAKER HEALTH, INC.",CORPORATION,PA,PO BOX 61705 KNG OF,PRUSSIA,19406-46,PA 19010-0 MONTGOMERY,1241 WENDOVER AVENUE,ROSEMONT,,1500268,ETHEL SUE TIRJAN,TREASURER,1241 WENDOVER AVENUE ROSEMONT PA 19010-0 MONTGOMERY,PO BOX 61705 KNG OF PRUSSIA PA 19406-46
A.C.D. RESEARCH INC.,CORPORATION,PA,,,,PA 19006-0 MONTGOMERY,2617 HUNTINGDON PIKE STE 202,HUNTINGDON VALEY,,1500270,DANA CERNAIANU,VICEPRESIDENT,2617 HUNTINGDON PIKE STE 202 HUNTINGDON VALEY PA 19006-0 MONTGOMERY,
"SKY'S THE LIMIT FLIGHT ACADEMY, INC.",CORPORATION,NAN,,,,,,,,1500271,,,ABE AIRPORT HANGER #1 ALLENTOWN PA 18103-0 LEHIGH,
"TCF EQUIPMENT, INC.",CORPORATION,NAN,PO BOX 609,MEADOW LANDS,15347-63,PA 15347-0 WASHINGTON,655 WEST PIKE ST,MEADOWLANDS,,1500272,VIRGINIA M FIFE,TREASURER,655 WEST PIKE ST MEADOWLANDS PA 15347-0 WASHINGTON,PO BOX 609 MEADOW LANDS PA 15347-63
"TOUGHLOVE TREATMENT ASSOCIATES, LTD.",CORPORATION,NAN,3559 BURNT HSE HILL RD,DOYLESTOWN,18901-09,PA,3559 BURNT HOUSE HILL ROAD,DOYLESTOWN,,1500273,PHYLLIS YORK,TREASURER,3559 BURNT HOUSE HILL ROAD DOYLESTOWN PA 18901-0 BUCKS,3559 BURNT HSE HILL RD DOYLESTOWN PA 18901-09
THE DUNLAP OPERATING CO.,CORPORATION,NAN,C/O WILLIAM G BARNES 519 FOREST HILLS AVE,PHILADELPHIA,19116-51,PA 19116-0 PHILADELPHIA,519 FOREST HILLS AVE,PHILADELPHIA,,1500274,WILLIAM G BARNES,PRESIDENT,519 FOREST HILLS AVE PHILADELPHIA PA 19116-0 PHILADELPHIA,C/O WILLIAM G BARNES 519 FOREST HILLS AVE PHILADELPHIA PA 19116-51
"R. W. FOX CARPENTRY, INC.",CORPORATION,NAN,C/O ROBERT W FOX 1370 BURKE ROAD,WEST CHESTER,19380-15,,,,,1500275,ROBERT W FOX,TREASURER,1370 BURKE ROAD WEST CHESTER PA 19380-0 CHESTER,C/O ROBERT W FOX 1370 BURKE ROAD WEST CHESTER PA 19380-15
"OPTIMIZATION, LTD.",CORPORATION,PA,6 COLONIAL CIR,IRWIN,15642-8812,PA,3660 FORBES TRAIL DR,MURRYSVILLE,15668-1054,1500276,TONI M ISING,TREASURER,3660 FORBES TRAIL DR MURRYSVILLE PA 15668-1054 WESTMORELAND,6 COLONIAL CIR IRWIN PA 15642-8812
"FANTASTIC FINISH, INC.",CORPORATION,NAN,2711 BROWNSVILLE RD,PITTSBURGH,15227-02,PA 15227-0 ALLEGHENY,2711 BROWNSVILLE RD,PITTSBURGH,,1500277,EDWARD D SCHMIDT,PRESIDENT,2711 BROWNSVILLE RD PITTSBURGH PA 15227-0 ALLEGHENY,2711 BROWNSVILLE RD PITTSBURGH PA 15227-02
"L.B.L. SALES, INC.",CORPORATION,NAN,218 PLEASANT VLY RD,ALTOONA,16602,PA,6TH AVENUE & 32ND ST,ALTOONA,,1500278,WALTER LYNAM JR,SECRETARY,6TH AVENUE & 32ND ST ALTOONA PA 16602-0 BLAIR,218 PLEASANT VLY RD ALTOONA PA 16602
VERAS TRADING CO.,CORPORATION,PA,PO BOX 280703,HARRISBURG,17128-0703,PA 18704-0 LUZERNE,1170 WYOMING AVE,FORTY FORT,,1500279,D JAMES VERAS,TREASURER,1170 WYOMING AVE FORTY FORT PA 18704-0 LUZERNE,PO BOX 280703 HARRISBURG PA 17128-0703
"GB CAP, INC.",CORPORATION,NAN,C/O MICHAEL C USHER 502 TURNER ST,ALLENTOWN,18102-39,PA,502 TURNER ST,ALLENTOWN,18012-0,1500280,MICHAEL C USHER,TREASURER,502 TURNER ST ALLENTOWN PA 18012-0 LEHIGH,C/O MICHAEL C USHER 502 TURNER ST ALLENTOWN PA 18102-39
ADVENTURES UNLIMITED INC.,CORPORATION,NAN,C/O LOUISE C HEWITT PO BOX 311,CHARLEROI,15022-63,PA 15022-0 WASHINGTON,RD1 BOX 48G,CHARLEROI,,1500281,LOUISE CHARLOTTE HEWITT,TREASURER,RD1 BOX 48G CHARLEROI PA 15022-0 WASHINGTON,C/O LOUISE C HEWITT PO BOX 311 CHARLEROI PA 15022-63
"GUARANA, INCORPORATED",CORPORATION,NAN,C/O SAAD SHETAYH 615 FAIRWAY ROAD,HENDERSON,89015,PA,635 GRANT ST,ALLENTOWN,18102-0,1500282,SAAD SHETAYH,PRESIDENT,635 GRANT ST ALLENTOWN PA 18102-0 LEHIGH,C/O SAAD SHETAYH 615 FAIRWAY ROAD HENDERSON NV 89015
"STATE COLLEGE RESTAURANT CO., INC.",CORPORATION,PA,1388 STATE RTE 487,BLOOMSBURG,17815-19,PA 17815-0 CLINTON,RD 5 BOX 290,BLOOMSBURG,,1500283,JOHN D KLINGERMAN,PRESIDENT,RD 5 BOX 290 BLOOMSBURG PA 17815-0 CLINTON,1388 STATE RTE 487 BLOOMSBURG PA 17815-19
"PRO-VENTURE, INC.",CORPORATION,NAN,PO BOX 26,JENKINTOWN,19046-46,PA 19111-0 MONTGOMERY,226 ROBBINS AVE,ROCKLEDGE,,1500284,STEPHEN S COMROE,TREASURER,226 ROBBINS AVE ROCKLEDGE PA 19111-0 MONTGOMERY,PO BOX 26 JENKINTOWN PA 19046-46
"VASSALLO AND COMPANY, INC.",CORPORATION,NAN,403 S MAIN ST H205,DOYLESTOWN,18901-09,,,,,1500285,LOUIS VASSALLO JR,TREASURER,403 SOUTH MAIN ST #H205 DOYLESTOWN PA 0 -0 BUCKS,403 S MAIN ST H205 DOYLESTOWN PA 18901-09
"EMPLOYEE BENEFITS, INC.",CORPORATION,NAN,C/O JOSEPHP REILLY 94 ROTTERDAM N,HOLLAND,18966-09,PA,1200 BUSTLETON AVE,SUITE TEN FEASTERVILLE,,1500287,JOSEPH P REILLY,TREASURER,1200 BUSTLETON AVE SUITE TEN FEASTERVILLE PA 19047-0 BUCKS,C/O JOSEPHP REILLY 94 ROTTERDAM N HOLLAND PA 18966-09
"BHWL OF BELLE VERNON, INC.",CORPORATION,NAN,21 S 12TH ST 13TH FL,PHILADELPHIA,19107-51,PA 19107-0 PHILADELPHIA,21 SOUTH 12TH ST 13TH FLOOR,PHILA,,1500289,RITA LIMING,PRESIDENT,21 SOUTH 12TH ST 13TH FLOOR PHILA PA 19107-0 PHILADELPHIA,21 S 12TH ST 13TH FL PHILADELPHIA PA 19107-51
"NEWTECH ENTERPRISES, INC.",CORPORATION,NAN,9208 LEEDS CT,RALEIGH,27615-2042,PA 19425-0 CHESTER,PINE SPRING FARM RD#2 BOX 127,CHESTER SPRINGS,,1500290,SHELDON NEWMAN,TREASURER,PINE SPRING FARM RD#2 BOX 127 CHESTER SPRINGS PA 19425-0 CHESTER,9208 LEEDS CT RALEIGH NC 27615-2042
"ELEGANT GIFTS, INC.",CORPORATION,NAN,,,,PA,13 MAIN ST,LYNDORA,16045-0,1500291,,,13 MAIN ST LYNDORA PA 16045-0 BUTLER,
"ALPHA TELECOMMUNICATIONS, INC.",CORPORATION,NAN,3771 37TH ST EXT,BEAVER FALLS,15010-04,PA,BOX 342 ROUTE 30 RD 2,CLINTON,15026-0,1500292,MARK GRUBER,TREASURER,BOX 342 ROUTE 30 RD 2 CLINTON PA 15026-0 BEAVER,3771 37TH ST EXT BEAVER FALLS PA 15010-04
"ANDREW KREMPASKY, INC.",CORPORATION,NAN,441 WILLOW AVE,HONESDALE,18431-64,PA,441 WILLOW AVENUE,HONESDALE,,1500295,ANDREW KREMPASKY,TREASURER,441 WILLOW AVENUE HONESDALE PA 18431-0 WAYNE,441 WILLOW AVE HONESDALE PA 18431-64
"IANNUZZI CONSTRUCTION CO., INC.",CORPORATION,PA,6309 E VALLEY GREEN RD,FLOURTOWN,19031-46,PA,6309 E VALLEY GREEN RD,FLOURTOWN,19031,1500296,PHILIP IANNUZZI,TREASURER,6309 E VALLEY GREEN RD FLOURTOWN PA 19031 MONTGOMERY,6309 E VALLEY GREEN RD FLOURTOWN PA 19031-46
PEDDLER'S SALES CORP.,CORPORATION,NAN,PICKEREL INN HC 67 BOX 461,DINGMANS FERRY,18328-52,PA,110 E HARFORD ST (MAIL:241 10TH,ST MATAMORAS PA) MILFORD,18337-0,1500297,RAYMOND R SEIGLER,PRESIDENT,110 E HARFORD ST (MAIL:241 10TH ST MATAMORAS PA) MILFORD PA 18337-0,PICKEREL INN HC 67 BOX 461 DINGMANS FERRY PA 18328-52
"WILSON'S DODGE, INC.",CORPORATION,NAN,PO BOX 70,MANSFIELD,16933-0070,,,,,1500299,WAYNE C WILSON,TREASURER,RD #1 ROUTE 15 SOUTH MANSFIELD PA 16933-0 TIOGA,PO BOX 70 MANSFIELD PA 16933-0070
"HENLY BUSINESS SYSTEMS, INC.",CORPORATION,NAN,#B 901 E WILLOW GROVE AVE,PHILADELPHIA,19118-51,PA 19138-0 PHILADELPHIA,7347 N TWENTIETH ST,PHILADELPHIA,,1500300,JERRY G HENLEY,TREASURER,7347 N TWENTIETH ST PHILADELPHIA PA 19138-0 PHILADELPHIA,#B 901 E WILLOW GROVE AVE PHILADELPHIA PA 19118-51
D.W. MILLER CONSTRUCTION AND WOODWORK COMPANY,CORPORATION,PA,41 DOCKAGE RD,BAYVILLE,08721,,,,,1500301,DONALD W MILLER,TREASURER,504 AVE H (MAIL:PO BOX 92 MATAMORAS PA) MATAMORAS PA 18336-0,41 DOCKAGE RD BAYVILLE NJ 08721
"THROCKMORTON SUPERMARKETS, INC.",CORPORATION,PA,100 SUGAR RUN RD,WAYNESBURG,15370-3640,PA,100 SUGAR RUN ROAD,WAYNESBURG,15370,1500302,JOANNA THROCKMORTON,TREASURER,100 SUGAR RUN ROAD WAYNESBURG PA 15370 GREENE,100 SUGAR RUN RD WAYNESBURG PA 15370-3640
"BIG RIDGE BUILDERS, INC.",CORPORATION,NAN,C/O W PETER AHNERT RT 209,BUSHKILL,18324-52,PA,ROUTE 209,BUSHKILL,18324-0,1500303,W PETER AHNERT,PRESIDENT,ROUTE 209 BUSHKILL PA 18324-0 MONROE,C/O W PETER AHNERT RT 209 BUSHKILL PA 18324-52
"KITCHEN PRODUCTS COMPANY, INC.",CORPORATION,NAN,C/O LARRY BREAN 307 TIMBER CT,PITTSBURGH,15238-02,PA 15644-0 WESTMORELAND,14TH AND GASKILL AVENUE,JEANETTE,,1500304,MARCELLA BREAN,SECRETARY,14TH AND GASKILL AVENUE JEANETTE PA 15644-0 WESTMORELAND,C/O LARRY BREAN 307 TIMBER CT PITTSBURGH PA 15238-02
"BIG RIDGE MALL, INC.",CORPORATION,NAN,C/O W PETER AHNERT RT 209,BUSHKILL,18324-52,PA,ROUTE 209,BUSHKILL,18324-0,1500305,W PETER AHNERT,PRESIDENT,ROUTE 209 BUSHKILL PA 18324-0,C/O W PETER AHNERT RT 209 BUSHKILL PA 18324-52
"PENSION MORTGAGE ASSOCIATES, INC.",CORPORATION,NAN,C/O JEFF WILLIAMS 121 EARLINGTON RD,HAVERTOWN,19083-23,PA 19014-0 DELAWARE,500 WEST DUTTONS MILL RD,ASTON,,1500306,JOHN E KARPAC,TREASURER,500 WEST DUTTONS MILL RD ASTON PA 19014-0 DELAWARE,C/O JEFF WILLIAMS 121 EARLINGTON RD HAVERTOWN PA 19083-23
"C G S FUND, INC.",CORPORATION,NAN,C/O S J ALLEVA 745 TANNERY RD,WAYNE,19087-23,PA 19087-0 MONTGOMERY,745 TANNERY RD,WAYNE,,1500307,STEPHEN J ALLEVA,TREASURER,745 TANNERY RD WAYNE PA 19087-0 MONTGOMERY,C/O S J ALLEVA 745 TANNERY RD WAYNE PA 19087-23
"BIG RIDGE REAL ESTATE, INC.",CORPORATION,PA,6100 OLD PARK LANE,ORLANDO,32835,PA,1008 SAND HILL ROAD EAST,STROUDSBURG,18302,1500308,W A WORTHINGTON,PRESIDENT,1008 SAND HILL ROAD EAST STROUDSBURG PA 18302 MONROE,6100 OLD PARK LANE ORLANDO FL 32835
"PAINTED PONIES, INC.",CORPORATION,PA,,,,PA 19353-0 CHESTER,200 PHILIPS RD,LIONVILLE,,1500309,,,200 PHILIPS RD LIONVILLE PA 19353-0 CHESTER,
"SCALLES, INC.",CORPORATION,NAN,2 YORK RD,CARLISLE,17013-2636,PA 17013-0 CUMBERLAND,872 HARRISBURG PIKE,CARLISLE,,1500310,WAYNE MEALS,PRESIDENT,872 HARRISBURG PIKE CARLISLE PA 17013-0 CUMBERLAND,2 YORK RD CARLISLE PA 17013-2636
"BIG RIDGE DEVELOPMENT COMPANY, INC.",CORPORATION,PA,C/O W PETER AHNERT RT 209,BUSHKILL,18324-52,PA,ROUTE 209,BUSHKILL,18324-0,1500311,W PETER AHNERT,PRESIDENT,ROUTE 209 BUSHKILL PA 18324-0 MONROE,C/O W PETER AHNERT RT 209 BUSHKILL PA 18324-52
"THE DRESHER TREATMENT GROUP, P.C.",CORPORATION,PA,,,,PA,200 HIGHPOINT DR SUITE 213,CHALFONT,,1500312,,,200 HIGHPOINT DR SUITE 213 CHALFONT PA 18914-0 BUCKS,
"KINSHIP KENNEL, INC.",CORPORATION,NAN,331 E LISBURN ROAD,MECHANICSBURG,17050,PA 17055-0 CUMBERLAND,331 E LISBURN RD,MECHANICSBURG,,1500313,MOLLY MCCARTHY,PRESIDENT,331 E LISBURN RD MECHANICSBURG PA 17055-0 CUMBERLAND,331 E LISBURN ROAD MECHANICSBURG PA 17050
"BIG RIDGE, INC.",CORPORATION,NAN,C/O W PETER AHNERT RT 209,BUSHKILL,18324-52,PA,ROUTE 209,BUSHKILL,18324-0,1500314,W PETER AHNERT,PRESIDENT,ROUTE 209 BUSHKILL PA 18324-0 MONROE,C/O W PETER AHNERT RT 209 BUSHKILL PA 18324-52
"SKI EQUIPMENT ELECTRONICS, INC.",CORPORATION,NAN,641 AVONDALE RD,ERDENHEIM,19038-7334,PA 19118-0 MONTGOMERY,641 AVONDALE ROAD,ERDENHEIM,,1500315,WILLIAM C MILLER,TREASURER,641 AVONDALE ROAD ERDENHEIM PA 19118-0 MONTGOMERY,641 AVONDALE RD ERDENHEIM PA 19038-7334
"PHOENIX 5000, INC.",CORPORATION,PA,STE 5790,PITTSBURGH RD BUTLER,16002-4032,PA,764 PITTSBURGH RD,BUTLER,16001-0,1500316,PAUL L TAYLOR,SECRETARY,764 PITTSBURGH RD BUTLER PA 16001-0 BUTLER,STE 5790 PITTSBURGH RD BUTLER PA 16002-4032
"DALTON LABORATORIES, INCORPORATED",CORPORATION,NAN,C/O GEORGE CEHOVIC 500 EVANS STREET,CLARKS SUMMIT,18411-35,PA 18471-0 LACKAWANNA,102 UPLAND TERRACE,WAVERLY,,1500317,GEORGES CEHOVIC,TREASURER,102 UPLAND TERRACE WAVERLY PA 18471-0 LACKAWANNA,C/O GEORGE CEHOVIC 500 EVANS STREET CLARKS SUMMIT PA 18411-35
"PET RIGHT, INC.",CORPORATION,NAN,C/O HARGOVIND GOVANI 49 ASPEN DR,LIVINGSTON,07039,,,,,1500318,HARGOVIND GOVANI,TREASURER,LAMON TOWNSHIP TUNKHANNOCK PA 18757-0 WYOMING,C/O HARGOVIND GOVANI 49 ASPEN DR LIVINGSTON NJ 07039
"ALTMEYER FABRICATING, LTD.",CORPORATION,NAN,RD L BOX 233A,KITTANNING,16201-03,,,,,1500319,TERRI ALTMEYER,TREASURER,RD 1 BOX 250A KITTANNING PA 16201-0 ARMSTRONG,RD L BOX 233A KITTANNING PA 16201-03
"MAINTENANCE UNLIMITED, INC.",CORPORATION,PA,C/O WILLIAM SCHWEIGLER500 WALNUT STREET B3,LEMOYNE,17043-21,PA 17103-0 DAUPHIN,2740 PENBROOK AVE,HARRISBURG,,1500320,WILLIAM SCHWEIGLER,TREASURER,2740 PENBROOK AVE HARRISBURG PA 17103-0 DAUPHIN,C/O WILLIAM SCHWEIGLER500 WALNUT STREET B3 LEMOYNE PA 17043-21
"MECHANICAL TECHNOLOGIES CONSULTANTS, INC.",CORPORATION,NAN,C/O R M KEELER JR 31241 ISLAND DRIVE,EVERGREEN,80439,PA 19034-0 MONTGOMERY,1487 BARTON DR,FORT WASHINGTON,,1500321,RUSSELL M KEELER JR,TREASURER,1487 BARTON DR FORT WASHINGTON PA 19034-0 MONTGOMERY,C/O R M KEELER JR 31241 ISLAND DRIVE EVERGREEN CO 80439
"ACI-PERRY, INC.",CORPORATION,NAN,C/O GREGG EPSTEIN 7803 OAK LANE RD,CHELTENHAM,19012-46,PA 19012-0 MONTGOMERY,7803 OAK LANE ROAD,CHELTENHAM,,1500322,JEROME P EPSTEIN,TREASURER,7803 OAK LANE ROAD CHELTENHAM PA 19012-0 MONTGOMERY,C/O GREGG EPSTEIN 7803 OAK LANE RD CHELTENHAM PA 19012-46
"AMERWAY, INC.",CORPORATION,NAN,3701 BEALE AVE,ALTOONA,16601-1317,PA,3701 BEALE AVE,ALTOONA,,1500324,TERRY A BUCK,SECRETARY,3701 BEALE AVE ALTOONA PA 16601-0 BLAIR,3701 BEALE AVE ALTOONA PA 16601-1317
"A.J. VISCOMI COMPANY, INCORPORATED",CORPORATION,PA,PO BOX 864,EXTON,19341-15,PA 19335-0 CHESTER,108 HICKORY DR,DOWNINGTOWN,,1500325,CYNTHIA L VISCOMI,TREASURER,108 HICKORY DR DOWNINGTOWN PA 19335-0 CHESTER,PO BOX 864 EXTON PA 19341-15
"ALTMEYER DISTRIBUTING, LTD.",CORPORATION,NAN,C/O JOHN ALTMEYER R D 1 BOX 250A,KITTANNING,16201-03,,,,,1500326,TERRI ALTMEYER,TREASURER,RD 1 BOX 250A KITTANNING PA 16201-0 ARMSTRONG,C/O JOHN ALTMEYER R D 1 BOX 250A KITTANNING PA 16201-03
"KEYSTONE FINANCIAL COLLECTION SERVICES, INC.",CORPORATION,NAN,C/O ROBERT S SYMS 1632 BUSTLETON PIKE,FEASTERVILLE,19047-09,PA,1632 BUSTLETON PIKE,FEASTERVILLE,,1500327,ROBERT S SYMS,TREASURER,1632 BUSTLETON PIKE FEASTERVILLE PA 19047-0 BUCKS,C/O ROBERT S SYMS 1632 BUSTLETON PIKE FEASTERVILLE PA 19047-09
ACADEMY BUILDERS INC.,CORPORATION,NAN,C/O GLORIA M MERRON 20 SWALLOW RD,HOLLAND,18966-09,PA,1022 COLONIAL AVE SUITE 200,BENSALEM,,1500328,GLORIA M MERRON,TREASURER,1022 COLONIAL AVE SUITE 200 BENSALEM PA 19020-0 BUCKS,C/O GLORIA M MERRON 20 SWALLOW RD HOLLAND PA 18966-09
NICK CUA LANDSCAPING INC.,CORPORATION,PA,2033 WAVERLY ST,PITTSBURGH,15218-02,PA 15218-0 ALLEGHENY,2033 WAVERLY AVENUE,PITTSBURGH,,1500329,MARY M CUA,TREASURER,2033 WAVERLY AVENUE PITTSBURGH PA 15218-0 ALLEGHENY,2033 WAVERLY ST PITTSBURGH PA 15218-02
"MASTHOPE MEDIA GROUP, INC.",CORPORATION,NAN,C/O SAM BARRETTA 12 RICHARD ST.,HICKSVILLE,11801,PA,KARL HOPE BLVD,LACKAWAXEN,18435-0,1500330,SAM BARRETTA,TREASURER,KARL HOPE BLVD LACKAWAXEN PA 18435-0,C/O SAM BARRETTA 12 RICHARD ST. HICKSVILLE NY 11801
"CUNNINGHAM PAVING, INC.",CORPORATION,NAN,627 ASHLAND AVE,SECANE,19018-3608,PA 19063-0 DELAWARE,115 N MONROE ST,MEDIA,,1500331,JAMES P CUNNINGHAM,VICEPRESIDENT,115 N MONROE ST MEDIA PA 19063-0 DELAWARE,627 ASHLAND AVE SECANE PA 19018-3608
D & S CAB COMPANY,CORPORATION,NAN,301 BYBERRY RD APT D-12,PHILADELPHIA,19116-51,PA 19116-0 PHILADELPHIA,301 BYBERRY RD APT D-12,PHILADELPHIA,,1500332,SARAH TOVAROVSKY,TREASURER,301 BYBERRY RD APT D-12 PHILADELPHIA PA 19116-0 PHILADELPHIA,301 BYBERRY RD APT D-12 PHILADELPHIA PA 19116-51
"BELL ACRES DAIRY, INC.",CORPORATION,NAN,SCARLETS MILL R D 1 BOX 414,BIRDSBORO,19508-06,PA,RD 1 BOX 414,SCARLETT'S MILL BIRDSBORO,,1500333,ANN W BELL,TREASURER,RD 1 BOX 414 SCARLETT'S MILL BIRDSBORO PA 19508-0 BERKS,SCARLETS MILL R D 1 BOX 414 BIRDSBORO PA 19508-06
MEDICAL HEALTH SERVICES INC.,CORPORATION,NAN,915 SUNSET DR,BERWICK,18603-19,PA 18603-0 COLUMBIA,540 E 11TH ST,BERWICK,,1500334,JOAN E SADOCK,PRESIDENT,540 E 11TH ST BERWICK PA 18603-0 COLUMBIA,915 SUNSET DR BERWICK PA 18603-19
SYMMETRY...PLUS INC.,CORPORATION,NAN,7720 CASTOR AVE,PHILADELPHIA,19152-51,PA 19152-0 PHILADELPHIA,7720 CASTOR AVE,PHILA,,1500335,CYNTHIA CARISEO,TREASURER,7720 CASTOR AVE PHILA PA 19152-0 PHILADELPHIA,7720 CASTOR AVE PHILADELPHIA PA 19152-51
"L'EPICURE GIFTS OF ABINGTON, INC.",CORPORATION,NAN,1360 INDUSTRIAL BLVD,SOUTHAMPTON,18966-09,PA 19001-0 MONTGOMERY,1411 OLD YORK RD,ABINGTON,,1500336,JOSEPH ROCCO,TREASURER,1411 OLD YORK RD ABINGTON PA 19001-0 MONTGOMERY,1360 INDUSTRIAL BLVD SOUTHAMPTON PA 18966-09
"SAM EMPLOYMENT AGENCY, INC.",CORPORATION,NAN,C/O CHAMROEUN SAM 232 W FISHER AVE,PHILADELPHIA,19120-51,PA 19120-0 PHILADELPHIA,232 W FISHER AVE,PHILADELPHIA,,1500337,THAN VONG,TREASURER,232 W FISHER AVE PHILADELPHIA PA 19120-0 PHILADELPHIA,C/O CHAMROEUN SAM 232 W FISHER AVE PHILADELPHIA PA 19120-51
"AU PRINTEMPS, INC.",CORPORATION,NAN,C/O WOONG&JUNG KIM 9206 ALTON ST,PHILADELPHIA,19115-51,PA 19147-0 PHILADELPHIA,505 SOUTH ST,PHILADELPHIA,,1500338,WOONG KIM,TREASURER,505 SOUTH ST PHILADELPHIA PA 19147-0 PHILADELPHIA,C/O WOONG&JUNG KIM 9206 ALTON ST PHILADELPHIA PA 19115-51
DAFNA MELTZER P.C.,CORPORATION,PA,8 WINDSOR AVE,PHILADELPHIA,19126-46,PA 19006-0 MONTGOMERY,699 LONGVIEW DRIVE,HUNTINGDON VALLEY,,1500339,DAFNA MELTZER,TREASURER,699 LONGVIEW DRIVE HUNTINGDON VALLEY PA 19006-0 MONTGOMERY,8 WINDSOR AVE PHILADELPHIA PA 19126-46
BUSINESS LEASING AND SERVICE COMPANY,CORPORATION,NAN,3774 LEWIS RD,COLLEGEVILLE,19426-46,PA 19426-0 MONTGOMERY,3774 LEWIS RD,COLLEGEVILLE,,1500340,PATRICIA M HNAT,TREASURER,3774 LEWIS RD COLLEGEVILLE PA 19426-0 MONTGOMERY,3774 LEWIS RD COLLEGEVILLE PA 19426-46
PROFESSIONAL TESTING SERVICES INC,CORPORATION,NAN,BOX 2001 CAMPUS BLDG 2,UNIONVILLE,19375-15,,,,,1500341,KAREN BAREFOOT,PRESIDENT,BOX 2001 CAMPUS COMPLEX #2 UNIONVILLE PA 19375-0 CHESTER,BOX 2001 CAMPUS BLDG 2 UNIONVILLE PA 19375-15
"BECK'S CONSTRUCTION COMPANY, INC.",CORPORATION,PA,3120 GRENWAY RD,DOVER,17315-67,PA 17315-0 YORK,3120 GRENWAY RD,DOVER,,1500342,WILLIAM R BECK,PRESIDENT,3120 GRENWAY RD DOVER PA 17315-0 YORK,3120 GRENWAY RD DOVER PA 17315-67
"P&J LIQUIDATORS, INC.",CORPORATION,PA,C/O P J RUNTICH 12671 VIRGINIA AVE,ARDARA,15615-65,PA 15615-0 WESTMORELAND,12671 VIRGINIA AVE,ARDARA,,1500343,VICTORIA L RUNTICH,TREASURER,12671 VIRGINIA AVE ARDARA PA 15615-0 WESTMORELAND,C/O P J RUNTICH 12671 VIRGINIA AVE ARDARA PA 15615-65
ABATIS ASSOCIATES INC.,CORPORATION,NAN,500 GREENFIELD AVE,PITTSBURGH,15207-02,PA 15207-0 ALLEGHENY,507 GREENFIELD AVE,PITTSBURGH,,1500345,ROBERT CHRISTNER,PRESIDENT,507 GREENFIELD AVE PITTSBURGH PA 15207-0 ALLEGHENY,500 GREENFIELD AVE PITTSBURGH PA 15207-02
TOWN & COUNTRY ENERGY CORP.,CORPORATION,PA,439 RUTLEDGEDALE RD,EQUINUNK,18417-3010,PA,439 RUTLEDGEDALE RD,EQUINUNK,18417,1500346,JEANNE G RUTLEDGE,VICEPRESIDENT,439 RUTLEDGEDALE RD EQUINUNK PA 18417 WAYNE,439 RUTLEDGEDALE RD EQUINUNK PA 18417-3010
"DAJO DEVELOPMENT, INC.",CORPORATION,NAN,1235 FIVE PINES RD N,HUNTINGDON,15642-65,PA 15137-0 ALLEGHENY,3087 EAST FIFTH AVENUE NORTH,VERSAILLES,,1500347,JOSEPH ROCCO CAVALLARO,PRESIDENT,3087 EAST FIFTH AVENUE NORTH VERSAILLES PA 15137-0 ALLEGHENY,1235 FIVE PINES RD N HUNTINGDON PA 15642-65
"BRENDAN'S, LTD.",CORPORATION,PA,210 W HILLCREST AVE,HAVERTOWN,19083-1316,PA 19083-0 DELAWARE,210 W HILLCREST AVE,HAVERTOWN,,1500348,EUGENE M KELLY,TREASURER,210 W HILLCREST AVE HAVERTOWN PA 19083-0 DELAWARE,210 W HILLCREST AVE HAVERTOWN PA 19083-1316
"BAEHSER & TYLER, HOCKEY ASSOCIATES INC.",CORPORATION,NAN,C/O ROBERT L BAEHSER 3229 RED LION RD,B PHILADELPHIA,19114-51,PA 19114-0 PHILADELPHIA,3229 RED LION RD,B PHILA,,1500349,THOMAS J TYLER,TREASURER,3229 RED LION RD B PHILA PA 19114-0 PHILADELPHIA,C/O ROBERT L BAEHSER 3229 RED LION RD B PHILADELPHIA PA 19114-51
"FINANCIAL RESOURCE ENTERPRISES, INC.",CORPORATION,NAN,C/O BRUCE GOLDSTEIN 3742 SIPLER LN,HUNTINGDON VLY,19006-46,PA 19116-0 PHILADELPHIA,12040 BUSTLETON AVE,PHILADELPHIA,,1500350,BRUCE R GOLDSTEIN,TREASURER,12040 BUSTLETON AVE PHILADELPHIA PA 19116-0 PHILADELPHIA,C/O BRUCE GOLDSTEIN 3742 SIPLER LN HUNTINGDON VLY PA 19006-46
"2223 AMANDA, INC.",CORPORATION,NAN,C/O AMANDA SHEPPARD 2616 W LEHIGH AVE,PHILADELPHIA,19132-51,PA 19132-0 PHILADELPHIA,2223 W SOMERSET ST,PHILADELPHIA,,1500351,AMANDA SHEPPARD,TREASURER,2223 W SOMERSET ST PHILADELPHIA PA 19132-0 PHILADELPHIA,C/O AMANDA SHEPPARD 2616 W LEHIGH AVE PHILADELPHIA PA 19132-51
"CTL ENGINEERING OF PENNSYLVANIA, INC.",CORPORATION,PA,,,,PA 17101-0 DAUPHIN,124 STATE ST,HARRISBURG,,1500352,,,124 STATE ST HARRISBURG PA 17101-0 DAUPHIN,
"TGC ENTERPRISES, INC.",CORPORATION,PA,PO BOX 3752,ALLENTOWN,18106-0752,PA 18015-0 NORTHAMPTON,2005 CHURCH RD,BETHLEHEM,,1500353,TIMOTHY G CLEMMER,TREASURER,2005 CHURCH RD BETHLEHEM PA 18015-0 NORTHAMPTON,PO BOX 3752 ALLENTOWN PA 18106-0752
"T.C. DRYWALL, INC.",CORPORATION,NAN,,,,PA,RD 7 BOX 225,READING,,1500355,CRAIG HARTRANFT,TREASURER,RD 7 BOX 225 READING PA 19606-0 BERKS,R R 3 BOX 183A OLEY PA 19547-06
"C. A. LLOYD, INC.",CORPORATION,PA,C/O CRAIG LLOYD 1041 E SCHUYLKILL RD,POTTSTOWN,19464-46,PA 19464-0 MONTGOMERY,1041 E SCHUYLKILL RD,POTTSTOWN,,1500358,CRAIG LLOYD,TREASURER,1041 E SCHUYLKILL RD POTTSTOWN PA 19464-0 MONTGOMERY,C/O CRAIG LLOYD 1041 E SCHUYLKILL RD POTTSTOWN PA 19464-46
"SINKING SPRING GOLF SHOP, INC.",CORPORATION,NAN,,,,PA,1053 PENN AVE,SINKING SPRING,,1500359,THOMAS OTT,TREASURER,1053 PENN AVE SINKING SPRING PA 19608-0 BERKS,R D 4 BOX 4122 FLEETWOOD PA 19522-06
"CROSS VALLEY INVESTIGATION, INC.",CORPORATION,PA,1073 HIGHWAY 315,WILKES-BARRE,18702-40,PA 18702-0 LUZERNE,1063 HIGHWAY 315 PLAINS,TOWNSHIP,,1500360,LENA SIDELNICK,PRESIDENT,1063 HIGHWAY 315 PLAINS TOWNSHIP PA 18702-0 LUZERNE,1073 HIGHWAY 315 WILKES-BARRE PA 18702-40
GERALDINE DOUGHERTY COMPANY,CORPORATION,PA,7050 FRANKFORD AVE,PHILADELPHIA,19135-51,PA 19135-0 PHILADELPHIA,7050 FRANKFORD AVE,PHILADELPHIA,,1500361,GERALDINE DOUGHERTY,TREASURER,7050 FRANKFORD AVE PHILADELPHIA PA 19135-0 PHILADELPHIA,7050 FRANKFORD AVE PHILADELPHIA PA 19135-51
"OMNISOURCE, INC.",CORPORATION,PA,6323 BROOKVIEW PL,ELKINS PARK,19027-46,PA 19095-0 MONTGOMERY,1315 CHURCH ROAD,WYNCOTE,,1500363,LEONARD A SNYDER,PRESIDENT,1315 CHURCH ROAD WYNCOTE PA 19095-0 MONTGOMERY,6323 BROOKVIEW PL ELKINS PARK PA 19027-46
"MASTERS GROUP, INC.",CORPORATION,PA,,,,PA 19382-0 CHESTER,16 E MARKET ST,WEST CHESTER,,1500364,GARY SCHULZE,TREASURER,16 E MARKET ST WEST CHESTER PA 19382-0 CHESTER,R D 5 BOX 2 HORSESHOE TRAIL MALVERN PA 19355-15
"C & O ASSOCIATES, INC.",CORPORATION,NAN,294 DEVON LN,WEST CHESTER,19380-15,PA 19380-0 CHESTER,294 DEVON LANE,WEST CHESTER,,1500365,OWEN MCINTYRE,TREASURER,294 DEVON LANE WEST CHESTER PA 19380-0 CHESTER,294 DEVON LN WEST CHESTER PA 19380-15
"DIVERSIFIED SYSTEMS, INC.",CORPORATION,PA,C/O CHARLES E HOLLAND 1291 E 9TH ST #410,UPLAND,91786,PA 16323-0 FRANKLIN,721 12TH ST,FRANKLIN,,1500366,CHARLES E HOLLAND,TREASURER,721 12TH ST FRANKLIN PA 16323-0 FRANKLIN,C/O CHARLES E HOLLAND 1291 E 9TH ST #410 UPLAND CA 91786
P.G. DEVELOPMENT CORPORATION,CORPORATION,PA,1 PGT WAY,MONACA,15061-2255,PA,ONE PGT WAY,MONACA,15061,1500367,PATRICK A GALLAGHER,TREASURER,ONE PGT WAY MONACA PA 15061 BEAVER,1 PGT WAY MONACA PA 15061-2255
"PICK UP FRESH OF CLARKS SUMMIT, INC.",CORPORATION,NAN,200 S BLAKELY ST,DUNMORE,18512-35,PA 18512-0 LACKAWANNA,200 S BLAKELY ST,DUNMORE,,1500368,DAVID BOTSCHELLER,PRESIDENT,200 S BLAKELY ST DUNMORE PA 18512-0 LACKAWANNA,200 S BLAKELY ST DUNMORE PA 18512-35
GARY M. CHELIAN INC.,CORPORATION,PA,PO BOX 337 510 BRIDGE STREET,PHOENIXVILLE,19460-15,PA,510 BRIDGE ST,PHOENIXVILLE,,1500369,GARY M CHELIAN,PRESIDENT,510 BRIDGE ST PHOENIXVILLE PA 19460-0 BUCKS,PO BOX 337 510 BRIDGE STREET PHOENIXVILLE PA 19460-15
"DONALD R. SWARTZ P.T., P.C.",CORPORATION,NAN,3295 HORIZON DRIVE,LANCASTER,17601-36,,,,,1500370,JANE M SWARTZ,TREASURER,271 HEMPFIELD ANENUE LANDISVILLE PA 17538-0 LANCASTER,3295 HORIZON DRIVE LANCASTER PA 17601-36
B.P.C. GROUP INC.,CORPORATION,PA,C/O JOHN W FARR JR 515 PLYMOUTH RD,GLENSIDE,19038-46,PA 19038-0 MONTGOMERY,515 PLYMOUTH RD,GLENSIDE,,1500371,JOHN W FARR JR,TREASURER,515 PLYMOUTH RD GLENSIDE PA 19038-0 MONTGOMERY,C/O JOHN W FARR JR 515 PLYMOUTH RD GLENSIDE PA 19038-46
"THE DIAMOND EMPORIUM, INC.",CORPORATION,PA,PO BOX 597,BROWNSTOWN,17508-36,PA 17601-0 LANCASTER,1480 HARRISBURG PIKE,LANCASTER,,1500372,TIMOTHY A POLITO,TREASURER,1480 HARRISBURG PIKE LANCASTER PA 17601-0 LANCASTER,PO BOX 597 BROWNSTOWN PA 17508-36
"PRECIOUS ENTERTAINMENT, INC.",CORPORATION,NAN,C/O ELI KWALSKI 20 CHESWOLD DR,SOUTHAMPTON,18966-09,PA 19116-0 PHILADELPHIA,301 BYBERRY RD E-31,PHILADELPHIA,,1500373,ELI KOWALSKI,TREASURER,301 BYBERRY RD E-31 PHILADELPHIA PA 19116-0 PHILADELPHIA,C/O ELI KWALSKI 20 CHESWOLD DR SOUTHAMPTON PA 18966-09
"THE SIDE POCKET, INC.",CORPORATION,NAN,111 ROHRERSTOWN RD,LANCASTER,17603-36,PA 17602-0 LANCASTER,1921-E LINCOLN HIGHWAY,LANCASTER,,1500374,RUSSELL HART,PRESIDENT,1921-E LINCOLN HIGHWAY LANCASTER PA 17602-0 LANCASTER,111 ROHRERSTOWN RD LANCASTER PA 17603-36
"LAMONT COAL CO., INC.",CORPORATION,NAN,131 N MCKEAN ST PO BOX 11,KITTANNING,16201-03,PA 16201-0 ARMSTRONG,131 N MCKEAN ST,ARMSTRONG,,1500375,WILLIAM D MOHNEY,PRESIDENT,131 N MCKEAN ST ARMSTRONG PA 16201-0 ARMSTRONG,131 N MCKEAN ST PO BOX 11 KITTANNING PA 16201-03
"RAU AND HAGUE SERVICE CENTER, INC.",CORPORATION,NAN,209 ROSE LN,READING,19606-3509,PA,4707 PERKIOMEN AVE,READING,,1500376,STEVEN P HAGUE,TREASURER,4707 PERKIOMEN AVE READING PA 19606-0 BERKS,209 ROSE LN READING PA 19606-3509
"J-R HEATING AND AIR CONDITIONING, INC.",CORPORATION,PA,33 SCOUT LN,HUMMELSTOWN,17036-22,PA 17036-0 DAUPHIN,123 SCOUT LANE,HUMMELSTOWN,,1500377,ROBERT A GORDON,PRESIDENT,123 SCOUT LANE HUMMELSTOWN PA 17036-0 DAUPHIN,33 SCOUT LN HUMMELSTOWN PA 17036-22
C-MTBG CORP.,CORPORATION,NAN,BOX 145,PHILIPSBURG,16866-14,PA 16866-0 CLEARFIELD,ROUTE 53 AND 322,PHILIPSBURG,,1500378,ROY V PARKO,SECRETARY,ROUTE 53 AND 322 PHILIPSBURG PA 16866-0 CLEARFIELD,BOX 145 PHILIPSBURG PA 16866-14
"DIAMOND COAL COMPANY, INC.",CORPORATION,NAN,2715 SCOTT ST,MOUNTAIN TOP,18707-40,PA 18224-0 LUZERNE,MAPLE LANE PARK LOT 104 RD#1,FREELAND,,1500379,JAY R STANTON,TREASURER,MAPLE LANE PARK LOT 104 RD#1 FREELAND PA 18224-0 LUZERNE,2715 SCOTT ST MOUNTAIN TOP PA 18707-40
"BULLDOG ASSOCIATES, INC.",CORPORATION,PA,PO BOX 7775,READING,19603-06,PA,230 NORTH FIFTH ST SUITE 510,READING,,1500380,RUSSELL J SCIANNA,TREASURER,230 NORTH FIFTH ST SUITE 510 READING PA 19601-0 BERKS,PO BOX 7775 READING PA 19603-06
"BRIGHTBILL MASONRY, INC.",CORPORATION,NAN,111 MAIL ROUTE RD,READING,19608-9013,,,,,1500381,TODD A BRIGHTBILL,PRESIDENT,BOX 184 RD 8 SINKING SPRING PA 19608-0 BERKS,111 MAIL ROUTE RD READING PA 19608-9013
"FUTURE BUILDING CONCEPTS, INC.",CORPORATION,NAN,C/O GARY COX 96 CIRCLE DR,ELYSBURG,17824-49,PA 17824-0 NORTHUMBERLAND,96 CIRCLE DRIVE,ELYSBURG,,1500382,JOHN H CROWL,SECRETARY,96 CIRCLE DRIVE ELYSBURG PA 17824-0 NORTHUMBERLAND,C/O GARY COX 96 CIRCLE DR ELYSBURG PA 17824-49
"REPFOR SYSTEMS, INC.",CORPORATION,NAN,C/O WALTER E SHOEMAKER44 E PHILA,ST YORK,17401-67,PA 17402-0 YORK,1190 GRAHAM ST,YORK,,1500383,PETER J PLAXA,TREASURER,1190 GRAHAM ST YORK PA 17402-0 YORK,C/O WALTER E SHOEMAKER44 E PHILA ST YORK PA 17401-67
5800 N 16TH ST. CORP.,CORPORATION,NAN,C/O ROBERT E HANKEY 7000 TERMINAL SQ,UPPER DARBY,19084-23,,,,,1500384,ROBERT HANKEY,PRESIDENT,7000 TERMINAL SQUARE UPPER DARBY PA 19084-0 DELAWARE,C/O ROBERT E HANKEY 7000 TERMINAL SQ UPPER DARBY PA 19084-23
"EQUAL CARE FAMILY MANAGEMENT, INC.",CORPORATION,NAN,"C/O HENRY F RAY, II 914 LAKEWOOD DR",HARRISBURG,17109-22,PA 17104-0 DAUPHIN,1700 KING BLVD,HARRISBURG,,1500385,RONALD JONES,PRESIDENT,1700 KING BLVD HARRISBURG PA 17104-0 DAUPHIN,"C/O HENRY F RAY, II 914 LAKEWOOD DR HARRISBURG PA 17109-22"
"GLENN'S CUSTOM UPHOLSTERY, INC.",CORPORATION,NAN,C/O JOHN GLENN 1337 BRANDYWINE ST,PHILADELPHIA,19123-51,PA 19123-0 PHILADELPHIA,1339 BRANDYWINE ST,PHILADELPHIA,,1500386,JOHN GLENN,TREASURER,1339 BRANDYWINE ST PHILADELPHIA PA 19123-0 PHILADELPHIA,C/O JOHN GLENN 1337 BRANDYWINE ST PHILADELPHIA PA 19123-51
"MICHAEL W JOHNSON & ASSOCIATES, INC.",CORPORATION,PA,STE A 1232 LONGFORD RD,WEST CHESTER,19380-15,,,,,1500387,MICHAEL W JOHNSON,TREASURER,1051 PENN CIRCLE SUITE G-104 KING OF PRUSSIA PA 19406-0 MONTGOMERY,STE A 1232 LONGFORD RD WEST CHESTER PA 19380-15
"WINDOW SHOPPING WITH JEAN, INC.",CORPORATION,NAN,C/O JEAN HOLMAN 6631 NW 20TH STREET,MARGATE,33063,PA,385 RUTGERS COURT,BENSALEM,,1500388,JEAN HOLMAN,PRESIDENT,385 RUTGERS COURT BENSALEM PA 19020-0 BUCKS,C/O JEAN HOLMAN 6631 NW 20TH STREET MARGATE FL 33063
"POLPEAR, INC.",CORPORATION,PA,NESHAMINY PLAZA 2 STE,BENSALEM,19020,PA 19130-0 PHILADELPHIA,2401 PENNSYLVANIA AVE APT 17-A-11,PHILADELPHIA,,1500389,SUSAN POLLOCK,TREASURER,2401 PENNSYLVANIA AVE APT 17-A-11 PHILADELPHIA PA 19130-0 PHILADELPHIA,NESHAMINY PLAZA 2 STE BENSALEM PA 19020
"OGDEN STREET DEVELOPERS, INC.",CORPORATION,NAN,C/O ROBERT S WINTER JR45 PAPER MILL LN,NEWTOWN SQUARE,19073-23,PA 19073-0 DELAWARE,% ROBERT S WINTER JR 45 PAPER MILL LANE,NEWTOWN SQUARE,,1500390,ROBERT S WINTER,TREASURER,% ROBERT S WINTER JR 45 PAPER MILL LANE NEWTOWN SQUARE PA 19073-0 DELAWARE,C/O ROBERT S WINTER JR45 PAPER MILL LN NEWTOWN SQUARE PA 19073-23
"CARINO, INC.",CORPORATION,NAN,133 GRANT AVE,VANDERGRIFT,15690-1201,PA 15690-0 WESTMORELAND,133 GRANT AVE,VANDERGRIFT,,1500391,MARK CARINO,TREASURER,133 GRANT AVE VANDERGRIFT PA 15690-0 WESTMORELAND,133 GRANT AVE VANDERGRIFT PA 15690-1201
"WILLIAM F. GROSS FUNERAL HOME, LTD.",CORPORATION,PA,11735 FRANKSTOWN RD,PITTSBURGH,15235-02,PA 15235-0 ALLEGHENY,11735 FRANKSTOWN RD,PITTSBURGH,,1500392,ANN GROSS,PRESIDENT,11735 FRANKSTOWN RD PITTSBURGH PA 15235-0 ALLEGHENY,11735 FRANKSTOWN RD PITTSBURGH PA 15235-02
"NRM CONSULTING, INC.",CORPORATION,PA,WASHINGTON SQ BLDG 2002570 BLVD OF GENERALS,NORRISTOWN,19403-46,,,,,1500393,CHARLES L MALLON III,TREASURER,600 WEST GERMANTOWN PIKE SUITE 380 PLYMOUTH MEETING PA 19462-0 MONTGOMERY,WASHINGTON SQ BLDG 2002570 BLVD OF GENERALS NORRISTOWN PA 19403-46
"DYNAMIX, INC.",CORPORATION,PA,C/O JOSEPH GRALICH JR 3368 MILLER STREET,PHILADELPHIA,19134-51,PA 19134-0 PHILADELPHIA,3368 MILLER ST,PHILA,,1500395,JOSEPH GRALICH JR,TREASURER,3368 MILLER ST PHILA PA 19134-0 PHILADELPHIA,C/O JOSEPH GRALICH JR 3368 MILLER STREET PHILADELPHIA PA 19134-51
"SALVATORE C. VENTURA M.D., P.C.",CORPORATION,NAN,825 N 12TH ST,ALLENTOWN,18102-39,PA,825 N TWELFTH ST,ALLENTOWN,18102-0,1500396,SALVATORE C VENTURA,TREASURER,825 N TWELFTH ST ALLENTOWN PA 18102-0 LEHIGH,825 N 12TH ST ALLENTOWN PA 18102-39
"TOMARK TILE DESIGNS, INC.",CORPORATION,NAN,C/O THOMAS LEWIS 331 STAGHORN LN,WEST CHESTER,19382-15,PA 19382-0 CHESTER,331 STAGHORN LANE,WEST CHESTER,,1500397,THOMAS LEWIS,TREASURER,331 STAGHORN LANE WEST CHESTER PA 19382-0 CHESTER,C/O THOMAS LEWIS 331 STAGHORN LN WEST CHESTER PA 19382-15
"CAPARO RELOCATION, INC.",CORPORATION,NAN,C/O MAILLIE ETAL PO BOX 680,OAKS,19456-46,PA 19428-0 MONTGOMERY,1207 FAYETTE ST,CONSHOHOCKEN,,1500398,MARK V SANTORO,TREASURER,1207 FAYETTE ST CONSHOHOCKEN PA 19428-0 MONTGOMERY,C/O MAILLIE ETAL PO BOX 680 OAKS PA 19456-46
"SMUCKER'S HARNESS SHOP, INC.",CORPORATION,PA,2014 MAIN ST,NARVON,17555-9513,PA 17555-0 LANCASTER,RD3 BOX 115,NARVON,,1500400,MOSES B SMUCKER,PRESIDENT,RD3 BOX 115 NARVON PA 17555-0 LANCASTER,2014 MAIN ST NARVON PA 17555-9513
WILLIAM BEISWENGER INC.,CORPORATION,NAN,503 GALLITZIN ROAD,CRESSON,16630,PA 16630-0 CAMBRIA,150 GALLITZIN ROAD,CRESSON,,1500401,JAMES BEISWENGER,PRESIDENT,150 GALLITZIN ROAD CRESSON PA 16630-0 CAMBRIA,503 GALLITZIN ROAD CRESSON PA 16630
"ENTERTAINMENT SPORTS BAR NIGHTCLUB, INC.",CORPORATION,NAN,GREAT SOUTHERN CTR,BRIDGEVILLE,15017-02,,,,,1500404,THOMAS JAYSON,PRESIDENT,GREAT SOUTHERN CENTER BRIDGEVILLE PA 15017-0 ALLEGHENY,GREAT SOUTHERN CTR BRIDGEVILLE PA 15017-02
"BIG RIDGE COUNTRY CLUB, INC.",CORPORATION,NAN,C/O W PETER AHNERT RT 209,BUSHKILL,18324-52,PA,ROUTE 209,BUSHKILL,18324-0,1500405,W PETER AHNERT,PRESIDENT,ROUTE 209 BUSHKILL PA 18324-0 MONROE,C/O W PETER AHNERT RT 209 BUSHKILL PA 18324-52
"JAMES E. SOLLERS, INC.",CORPORATION,PA,150 VEGAS DR,HANOVER,17331-67,PA 17331-0 YORK,150 VEGAS DRIVE,HANOVER,,1500406,JAMES E SOLLERS,TREASURER,150 VEGAS DRIVE HANOVER PA 17331-0 YORK,150 VEGAS DR HANOVER PA 17331-67
"BIG RIDGE GOLF CLUB, INC.",CORPORATION,NAN,C/O W PETER AHNERT RT 209,BUSHKILL,18324-52,PA,ROUTE 209,BUSHKILL,18324-0,1500408,W PETER AHNERT,PRESIDENT,ROUTE 209 BUSHKILL PA 18324-0 MONROE,C/O W PETER AHNERT RT 209 BUSHKILL PA 18324-52
"WILLIAM L. HARTMAN, INC.",CORPORATION,PA,747 LOCUST RD,WARMINSTER,18974-09,PA,2526 KELLY ROAD,WARRINGTON,,1500409,WILLIAM L HARTMAN,TREASURER,2526 KELLY ROAD WARRINGTON PA 18976-0 BUCKS,747 LOCUST RD WARMINSTER PA 18974-09
"BUNYIN LABOR, INC.",CORPORATION,NAN,C/O BUNYIN YANG 1621 S 6TH ST,PHILADELPHIA,19148-51,PA 19148-0 PHILADELPHIA,1621 SOUTH 6TH ST,PHILADELPHIA,,1500410,BUNYIN YANG,TREASURER,1621 SOUTH 6TH ST PHILADELPHIA PA 19148-0 PHILADELPHIA,C/O BUNYIN YANG 1621 S 6TH ST PHILADELPHIA PA 19148-51
"VERN'S DOG HOUSE OF ERIE, PA, INC.",CORPORATION,NAN,C/O DARLENE A BIELECKI3709 W 38TH ST,ERIE,16506-25,PA,% HAIN & HAIN 717 INDIANA DR,ERIE,,1500411,DARLENE A BIELECKI,TREASURER,% HAIN & HAIN 717 INDIANA DR ERIE PA 16505-0 ERIE,C/O DARLENE A BIELECKI3709 W 38TH ST ERIE PA 16506-25
"PIERCING PLACE PLUS, INC.",CORPORATION,NAN,C/O ROGER B HENDERSON 14 WOODLAND AVE,MALVERN,19355-15,PA 19355-0 CHESTER,14 WOODLAWN AVE,MALVERN,,1500412,ROGER B HENDERSON,TREASURER,14 WOODLAWN AVE MALVERN PA 19355-0 CHESTER,C/O ROGER B HENDERSON 14 WOODLAND AVE MALVERN PA 19355-15
"BIG RIDGE HOTEL & CONVENTION CENTER, INC.",CORPORATION,NAN,C/O W PETER AHNERT RT 209,BUSHKILL,18324-52,PA,ROUTE 209,BUSHKILL,18324-0,1500413,W PETER AHNERT,PRESIDENT,ROUTE 209 BUSHKILL PA 18324-0 MONROE,C/O W PETER AHNERT RT 209 BUSHKILL PA 18324-52
"CREATIONS OF INDIA TRADING, INC.",CORPORATION,NAN,PO BOX 671,BETHLEHEM,18016-68,PA 18017-0 NORTHAMPTON,1845 WATKINS ST G-3,BETHLEHEM,,1500415,STEVEN W JOHNSON,TREASURER,1845 WATKINS ST G-3 BETHLEHEM PA 18017-0 NORTHAMPTON,PO BOX 671 BETHLEHEM PA 18016-68
"CAPARO RESIDENTIAL, INC.",CORPORATION,NAN,C/O MAILLIE ETAL PO BOX 680,OAKS,19456-46,PA 19428-0 MONTGOMERY,1207 FAYETTE ST,CONSHOHOCKEN,,1500416,MARK V SANTORO,TREASURER,1207 FAYETTE ST CONSHOHOCKEN PA 19428-0 MONTGOMERY,C/O MAILLIE ETAL PO BOX 680 OAKS PA 19456-46
"BIG RIDGE SHOPPING CENTER, INC.",CORPORATION,NAN,C/O W PETER AHNERT RT 209,BUSHKILL,18324-52,PA,ROUTE 209,BUSHKILL,18324-0,1500417,W PETER AHNERT,PRESIDENT,ROUTE 209 BUSHKILL PA 18324-0 MONROE,C/O W PETER AHNERT RT 209 BUSHKILL PA 18324-52
"MEASURETRON, INC.",CORPORATION,NAN,156 MERRITT DR,BUTLER,16001-2623,PA,477 AIRORT ROAD,BUTLER,16001-0,1500418,ROBERT G CARROLL,VICEPRESIDENT,477 AIRORT ROAD BUTLER PA 16001-0 BUTLER,156 MERRITT DR BUTLER PA 16001-2623
"A. & J. UNISEX, INC.",CORPORATION,NAN,,,,,,,,1500419,ELIZABETH JONES,PRESIDENT,117 N 15TH ST THE METROPOLITAN STE 1702 PHILA PA 19102-0 PHILADELPHIA,117 N 15TH ST METROPOLITAN STE 1702 PHILADELPHIA PA 19102-51
DALE FOSTER INC.,CORPORATION,PA,402 SOUTH ST,CLARION,16214-16,PA 16214-0 CLARION,402 SOUTH ST,CLARION,,1500420,SANDRA S FOSTER,TREASURER,402 SOUTH ST CLARION PA 16214-0 CLARION,402 SOUTH ST CLARION PA 16214-16
"CAPARO COMMERCIAL, INC.",CORPORATION,NAN,C/O MAILLIE ETAL PO BOX 680,OAKS,19456-46,PA 19428-0 MONTGOMERY,1207 FAYETTE ST,CONSHOHOCKEN,,1500421,MARK V SANTORO,TREASURER,1207 FAYETTE ST CONSHOHOCKEN PA 19428-0 MONTGOMERY,C/O MAILLIE ETAL PO BOX 680 OAKS PA 19456-46
"ERA DELAWARE VALLEY BROKER COUNCIL, INC.",CORPORATION,NAN,C/O BRAD ALDERFER 150 E 8TH ST,PENNSBURG,18073-46,PA 18073-0 MONTGOMERY,150 E 8TH ST,PENNSBURG,,1500423,MIICHAEL J HUGHES,PRESIDENT,150 E 8TH ST PENNSBURG PA 18073-0 MONTGOMERY,C/O BRAD ALDERFER 150 E 8TH ST PENNSBURG PA 18073-46
"RENOVATION & CONSTRUCTION MANAGEMENT, INC.",CORPORATION,NAN,STE 10 200 EAGLE RD,WAYNE,19087-23,PA 19010-0 MONTGOMERY,656 HEATHERWOOD ROAD,ROSEMONT,,1500424,TIMOTHY MCNALLY,PRESIDENT,656 HEATHERWOOD ROAD ROSEMONT PA 19010-0 MONTGOMERY,STE 10 200 EAGLE RD WAYNE PA 19087-23
"ALLIED CONTROL SERVICES, INC.",CORPORATION,PA,PO BOX 234,WEST POINT,19486-0234,PA,611 GARFIELD AVE,WEST POINT,19486,1500426,PAUL MAMZIC,TREASURER,611 GARFIELD AVE WEST POINT PA 19486 MONTGOMERY,PO BOX 234 WEST POINT PA 19486-0234
"DNO FINANCIAL SERVICES, INC",CORPORATION,NAN,3211 SARMIENTO DR,BENSALEM,19020-1729,PA,3211 SARMIENTO DRIVE,BENSALEM,,1500427,THOMAS W DIENNO,TREASURER,3211 SARMIENTO DRIVE BENSALEM PA 19020-0 BUCKS,3211 SARMIENTO DR BENSALEM PA 19020-1729
"D'ANCA & ELLMAN, P.C.",CORPORATION,NAN,150 MUNDY ST,WILKES-BARRE,18702-40,PA 18704-0 LUZERNE,421 MARKET ST,KINGSTON,,1500428,LEON A ELLMAN,TREASURER,421 MARKET ST KINGSTON PA 18704-0 LUZERNE,150 MUNDY ST WILKES-BARRE PA 18702-40
LOGAN LAND DEVELOPMENT CORP.,CORPORATION,NAN,55 LYNN AVE,ORELAND,19075-1303,PA,501 N MAIN ST,DOYLESTOWN,,1500429,JAMES SHERIDAN,VICEPRESIDENT,501 N MAIN ST DOYLESTOWN PA 18901-0 BUCKS,55 LYNN AVE ORELAND PA 19075-1303
"INDEPENDENT STRUCTRUAL INSPECTIONS, INC.",CORPORATION,NAN,C/O R N LIVINGSTON 57 BRAITHWAITE LN,QUAKERTOWN,18951-09,PA,57 BRAITHWAITE LANE,QUAKERTOWN,,1500430,ROBERT N LIVINGSTON,TREASURER,57 BRAITHWAITE LANE QUAKERTOWN PA 18901-0 BUCKS,C/O R N LIVINGSTON 57 BRAITHWAITE LN QUAKERTOWN PA 18951-09
"J. M. R. FOODS, INC.",CORPORATION,NAN,PO BOX 7244,MECHANICSBURG,17055-21,PA 17011-0 CUMBERLAND,% GLEN R GRELL ESQ 3461 MARKET ST STE 101,CAMP HILL,,1500431,MARK WILSON,PRESIDENT,% GLEN R GRELL ESQ 3461 MARKET ST STE 101 CAMP HILL PA 17011-0 CUMBERLAND,PO BOX 7244 MECHANICSBURG PA 17055-21
"DSE, INC.",CORPORATION,PA,C/O ROBERT RAIDA 3704 WILLHAVEN DR,GLENSHAW,15116-02,PA 15225-0 ALLEGHENY,2901 NEVILLE RD,PITTSBURGH,,1500432,ROBERT RAIDA,TREASURER,2901 NEVILLE RD PITTSBURGH PA 15225-0 ALLEGHENY,C/O ROBERT RAIDA 3704 WILLHAVEN DR GLENSHAW PA 15116-02
"I SIMON PHOTOGRAPHY, INC.",CORPORATION,PA,1502 ROUTE 519,EIGHTY FOUR,15330-2844,PA 15207-0 ALLEGHENY,3803 ALEXIS ST,PITTSBURGH,,1500433,MARY P KITCHEN,VICEPRESIDENT,3803 ALEXIS ST PITTSBURGH PA 15207-0 ALLEGHENY,1502 ROUTE 519 EIGHTY FOUR PA 15330-2844
"ROBINSON FARMS, INC.",CORPORATION,NAN,BOX 8,KREAMER,17833-55,PA,BOX 38,KREAMER,17833-0,1500435,WILLIAM D ROBINSON,PRESIDENT,BOX 38 KREAMER PA 17833-0 SNYDER,BOX 8 KREAMER PA 17833-55
P. J. CLOTHING INC.,CORPORATION,NAN,729-31 OAK LANE AVE,PHILADELPHIA,19126-51,PA 19095-0 MONTGOMERY,8150 OGONZ AVE STE 230,WYNCOTE,,1500437,PIL HYUN YU,TREASURER,8150 OGONZ AVE STE 230 WYNCOTE PA 19095-0 MONTGOMERY,729-31 OAK LANE AVE PHILADELPHIA PA 19126-51
"ROBERT J WALTZ KITCHENS, INC.",CORPORATION,PA,PO BOX 293,SHILLINGTON,19607-06,PA,PO BOX 1974 RD 1 HICKORY ROAD,MOHNTON,,1500439,ROBERT J WALTZ,PRESIDENT,PO BOX 1974 RD 1 HICKORY ROAD MOHNTON PA 19540-0 BERKS,PO BOX 293 SHILLINGTON PA 19607-06
"BLUE RIBBON POULTRY, INC.",CORPORATION,NAN,BOX 38 RT 522,KREAMER,17833-55,PA,BOX 38,KREAMER,17833-0,1500440,WILLIAM ROBINSON,PRESIDENT,BOX 38 KREAMER PA 17833-0 SNYDER,BOX 38 RT 522 KREAMER PA 17833-55
"LASERTONE, INC.",CORPORATION,NAN,C/O JOHN B UEHLING 74 EVERETT DR,NEWTOWN,18940-09,PA,74 EVERETT DR,NEWTOWN,,1500441,JOHN BLAIR UEHLING,TREASURER,74 EVERETT DR NEWTOWN PA 18940-0 BUCKS,C/O JOHN B UEHLING 74 EVERETT DR NEWTOWN PA 18940-09
"HEARTLAND COUNTRY, INC.",CORPORATION,NAN,"C/O J PUCILLO,ACCTG SE524 SAGAMORE RD",HAVERTOWN,19083-23,PA 19474-0 MONTGOMERY,4059,SKIPPACK,,1500442,EILEEN M SOLEY,PRESIDENT,4059 SKIPPACK PIKE SKIPPACK PA 19474-0 MONTGOMERY,"C/O J PUCILLO,ACCTG SE524 SAGAMORE RD HAVERTOWN PA 19083-23"
EXCAVAC CORP.,CORPORATION,NAN,PO BOX 135,TRAFFORD,15085-0135,PA 15085-0 WESTMORELAND,575 SIXTH ST,TRAFFORD,,1500443,JOHN F WALKO JR,VICEPRESIDENT,575 SIXTH ST TRAFFORD PA 15085-0 WESTMORELAND,PO BOX 135 TRAFFORD PA 15085-0135
"DARIKA, INC.",CORPORATION,NAN,2165 PHEASANT HILL WAY,LANSDALE,19446-46,PA 19401-0 MONTGOMERY,207 W GERMANTOWN PIKE E,NORRITON,,1500444,VINCENT J URBANO,VICEPRESIDENT,207 W GERMANTOWN PIKE E NORRITON PA 19401-0 MONTGOMERY,2165 PHEASANT HILL WAY LANSDALE PA 19446-46
"M & M CHECK CASHING, INC.",CORPORATION,NAN,C/O MARCIA A MERLINO 1917 HARTRANFT ST,PHILADELPHIA,19145-51,PA 19145-0 PHILADELPHIA,1917 HARTRANFT ST,PHILADELPHIA,,1500445,MARIA A MERLINO,TREASURER,1917 HARTRANFT ST PHILADELPHIA PA 19145-0 PHILADELPHIA,C/O MARCIA A MERLINO 1917 HARTRANFT ST PHILADELPHIA PA 19145-51
"DI GIROLAMO FARMS, INC.",CORPORATION,NAN,5448 HULMEVILLE RD,BENSALEM,19020-09,PA,5448 HULMEVILLE ROAD,BENSALEM,,1500446,MICHELLE FERRIS,TREASURER,5448 HULMEVILLE ROAD BENSALEM PA 19020-0 BUCKS,5448 HULMEVILLE RD BENSALEM PA 19020-09
"PROFESSORS, TWO., INC.",CORPORATION,NAN,C/O R N HANSON 2952 VALLEY VIEW DR,DOYLESTOWN,18901-09,PA,2952 VALLEY VIEW DR,DOYLESTOWN,,1500447,SALLYANN HANSON,TREASURER,2952 VALLEY VIEW DR DOYLESTOWN PA 18901-0 BUCKS,C/O R N HANSON 2952 VALLEY VIEW DR DOYLESTOWN PA 18901-09
"CMK, INC.",CORPORATION,PA,C/O KURT A HAAB 1102 OLD GULPH RD,BRYN MAWR,19010-46,PA 19072-0 MONTGOMERY,510 BEECHWOOD LANE,NARBERTH,,1500448,MEREDITH DE H HAAB NIKPOUR,TREASURER,510 BEECHWOOD LANE NARBERTH PA 19072-0 MONTGOMERY,C/O KURT A HAAB 1102 OLD GULPH RD BRYN MAWR PA 19010-46
NORTHEAST FRUIT & PRODUCE COMPANY,CORPORATION,NAN,C/O YEVGENIA DOLITSKY 8378 LANGDON ST,PHILADELPHIA,19152-51,PA 19152-0 PHILADELPHIA,8378 LANGDON ST,PHILA,,1500449,YEVGENIA DOLITSKY,TREASURER,8378 LANGDON ST PHILA PA 19152-0 PHILADELPHIA,C/O YEVGENIA DOLITSKY 8378 LANGDON ST PHILADELPHIA PA 19152-51
"D-G FARM MARKET, INC.",CORPORATION,NAN,5448 HULMEVILLE RD,BENSALEM,19020-09,PA,5448 HULMEVILLE ROAD,BENSALEM,,1500450,MIKE GALLAGHER,PRESIDENT,5448 HULMEVILLE ROAD BENSALEM PA 19020-0 BUCKS,5448 HULMEVILLE RD BENSALEM PA 19020-09
"ROBINSON & MITCHELL, INC.",CORPORATION,NAN,C/O H E ROBINSON JR 338 FLEETWOOD ST,COATESVILLE,19320-15,PA 19320-0 PHILADELPHIA,338 FLEETWOOD ST,COATESVILLE,,1500451,HARRY E ROBINSON JR,PRESIDENT,338 FLEETWOOD ST COATESVILLE PA 19320-0 PHILADELPHIA,C/O H E ROBINSON JR 338 FLEETWOOD ST COATESVILLE PA 19320-15
AL MECADON & SON OIL CO.,CORPORATION,PA,363 LAUREL ST,PITTSTON,18640-40,PA 18640-0 LUZERNE,363 LAUREL ST,PITTSTON,,1500452,RITA MECADON,TREASURER,363 LAUREL ST PITTSTON PA 18640-0 LUZERNE,363 LAUREL ST PITTSTON PA 18640-40
BALD EAGLE OUTFITTERS INCORPORATED,CORPORATION,NAN,BOX 309 208 W HAMILTON AVE,STATE COLLEGE,16801-14,PA,RD 3 BOX 122L,HOWARD,16841-0,1500453,GEOFFREY L KISHPAUGH,TREASURER,RD 3 BOX 122L HOWARD PA 16841-0 CENTRE,BOX 309 208 W HAMILTON AVE STATE COLLEGE PA 16801-14
INTERNATIONAL PSYCHOSOMATICS INSTITUTE INC,CORPORATION,PA,PO BOX 590065,NEWTON CENTE,02459,PA,333 E LANCASTER AVENUE SUITE 110,WYNNEWOOD,19096,1500454,M LAWRENCE FURST,TREASURER,333 E LANCASTER AVENUE SUITE 110 WYNNEWOOD PA 19096 MONTGOMERY,PO BOX 590065 NEWTON CENTE MA 02459
"VALLEY B. ASSOCIATES, INC.",CORPORATION,NAN,2390 HIGH RD,HUNTINGDON VLY,19006-46,PA 19006-0 MONTGOMERY,2390 HIGH RD,HUNTINGDON VALLEY,,1500455,NORMAN S HAAS JR,PRESIDENT,2390 HIGH RD HUNTINGDON VALLEY PA 19006-0 MONTGOMERY,2390 HIGH RD HUNTINGDON VLY PA 19006-46
KOU-KOU CORPORATION,CORPORATION,NAN,OLYMPIC GARDEN APT 1201 OVERLOOK RD 6,WHITEHALL,18052-39,,,,,1500456,WILLIAM P KOUNOUPIS,PRESIDENT,1 WATER ST SEIDERSVILLE RD#3 BETHLEHEM PA 18015-0 NORTHAMPTON,OLYMPIC GARDEN APT 1201 OVERLOOK RD 6 WHITEHALL PA 18052-39
CPC SYSTEMS CORPORATION,CORPORATION,NAN,PO BOX 1492,EXTON,19341-15,PA 19401-0 MONTGOMERY,2601 SWEDE RD,NORRISTOWN,,1500457,JAY C SWARTLEY,TREASURER,2601 SWEDE RD NORRISTOWN PA 19401-0 MONTGOMERY,PO BOX 1492 EXTON PA 19341-15
"CREATIVE BUSINESS PROMOTIONS, INC.",CORPORATION,NAN,1604 VALLEY GLEN RD.,C/O DAVID GASMAN ELKINS PARK,19117-46,PA 19115-0 PHILADELPHIA,9367 B NEIL ROAD,PHILADELPHIA,,1500459,DAVID GASMAN,TREASURER,9367 B NEIL ROAD PHILADELPHIA PA 19115-0 PHILADELPHIA,1604 VALLEY GLEN RD. C/O DAVID GASMAN ELKINS PARK PA 19117-46
"METZ INTERNATIONAL, INC.",CORPORATION,NAN,8640 PHILLIPS HWY #25,JACKSONVLE,32256,PA 15137-0 ALLEGHENY,219 GREENSBURG PIKE NORTH,VERSAILLES,,1500460,GARY METZ,TREASURER,219 GREENSBURG PIKE NORTH VERSAILLES PA 15137-0 ALLEGHENY,8640 PHILLIPS HWY #25 JACKSONVLE FL 32256
NORTH PENN ENTERPRISES INC.,CORPORATION,NAN,9126 VALLEY VIEW DR,CLARKS SUMMIT,18411-35,PA 18411-0 LACKAWANNA,RD 3 BOX 406A,SUMMIT LAKE ROAD CLARKS SUMMIT,,1500461,MICHAEL PAOLUCCI,TREASURER,RD 3 BOX 406A SUMMIT LAKE ROAD CLARKS SUMMIT PA 18411-0 LACKAWANNA,9126 VALLEY VIEW DR CLARKS SUMMIT PA 18411-35
"J. R. COCHRAN & ASSOCIATES, INCORPORATED",CORPORATION,NAN,301 COLUMBIA DR,ALIQUIPPA,15001-1528,PA,301 COLUMBIA DRIVE,ALIQUIPPA,15001-1528,1500462,ROBERT W COCHRAN,TREASURER,301 COLUMBIA DRIVE ALIQUIPPA PA 15001-1528 BEAVER,301 COLUMBIA DR ALIQUIPPA PA 15001-1528
"FAST COMP, INC.",CORPORATION,NAN,5700 KELL RD,FAIRVIEW,16415-2405,PA,5700 KELL RD,FAIRVIEW,,1500463,GLORIA BORECKY,VICEPRESIDENT,5700 KELL RD FAIRVIEW PA 16415-0 ERIE,5700 KELL RD FAIRVIEW PA 16415-2405
WEST BOMBAY LTD.,CORPORATION,NAN,C/O STEVEN J CARDELL 94 FRANKLIN LN,QUAKERTOWN,18951-09,PA,94 FRANKLIN LANE,QUAKERTOWN,,1500464,STEVEN J CARDELL,TREASURER,94 FRANKLIN LANE QUAKERTOWN PA 18951-0 BUCKS,C/O STEVEN J CARDELL 94 FRANKLIN LN QUAKERTOWN PA 18951-09
"SAILIN' SHOES TRANSPORT, INC.",CORPORATION,NAN,267 STONY MOUNTAIN RD,AUBURN,17922-9060,,,,,1500466,JEFF N PORMANN,VICEPRESIDENT,RD2 BOX 266C AUBURN PA 17922-0 SCHUYLKILL,267 STONY MOUNTAIN RD AUBURN PA 17922-9060
"MAYFAIR CONCRETE CO., INC.",CORPORATION,NAN,2323 REDTAIL RD,AUDUBON,19403-1873,PA 19120-0 PHILADELPHIA,655 MAYFAIR ST,PHILADELPHIA,,1500467,JOSE CARLOS FORMEIRO,TREASURER,655 MAYFAIR ST PHILADELPHIA PA 19120-0 PHILADELPHIA,2323 REDTAIL RD AUDUBON PA 19403-1873
ANSWER SOFTWARE CORP.,CORPORATION,NAN,66 BRAEBOURNE DR,RICHBORO,18954-09,PA 19063-0 DELAWARE,609 W STATE ST,MEDIA,,1500468,JAMES J MCCAFFERTY,PRESIDENT,609 W STATE ST MEDIA PA 19063-0 DELAWARE,66 BRAEBOURNE DR RICHBORO PA 18954-09
R.K.S. CONSTRUCTION CO.,CORPORATION,NAN,19 BUTTERS RD,WILLIAMSPORT,17701-8448,PA 17701-0 LYCOMING,19 BUTTERS RD,WILLIAMSPORT,,1500469,RONNY K SAUERS,TREASURER,19 BUTTERS RD WILLIAMSPORT PA 17701-0 LYCOMING,19 BUTTERS RD WILLIAMSPORT PA 17701-8448
"LAPIN SYSTEMS, INC.",CORPORATION,NAN,1334 GREEN HILL AVE,WEST CHESTER,19380-15,PA 19380-0 CHESTER,1334 GREENHILL AVE,WEST CHESTER,,1500471,SUE P LAPIN,PRESIDENT,1334 GREENHILL AVE WEST CHESTER PA 19380-0 CHESTER,1334 GREEN HILL AVE WEST CHESTER PA 19380-15
"SHANGHAI RESTAURANT, INC.",CORPORATION,NAN,100 FARMSTEAD CIRCLE,LEBANON,17042-38,PA 17042-0 LEBANON,1800 E CUMBERLAND ST,LEBANON,,1500472,TINH T VU,TREASURER,1800 E CUMBERLAND ST LEBANON PA 17042-0 LEBANON,100 FARMSTEAD CIRCLE LEBANON PA 17042-38
"LOUIS COAL CO., INC.",CORPORATION,NAN,ATTN ANGELO MARTARANO 19 SPRUCE ST,ELYSBURG,17824-49,PA 18512-0 LACKAWANNA,771 EAST DRINKER ST,DUNMORE,,1500473,LOUIS PAGNOTTI JR,TREASURER,771 EAST DRINKER ST DUNMORE PA 18512-0 LACKAWANNA,ATTN ANGELO MARTARANO 19 SPRUCE ST ELYSBURG PA 17824-49
LEE MACKOWSKI DEVELOPMENT CORPORATION,CORPORATION,PA,C/O PAULDING ETAL 359 W 26TH ST,ERIE,16508-25,PA,3127 COURT AVENUE,ERIE,,1500474,LEO J MACKOWSKI,TREASURER,3127 COURT AVENUE ERIE PA 16506-0 ERIE,C/O PAULDING ETAL 359 W 26TH ST ERIE PA 16508-25
"SPORTS TRAINING CENTER, INC.",CORPORATION,NAN,2487 COBBLESTONE CIR,NORRISTOWN,19401-46,,,,,1500477,VINCE SBORLINI,TREASURER,2482 COBBLESTONE CIRCLE JEFFERSONVILLE PA 19403-0 MONTGOMERY,2487 COBBLESTONE CIR NORRISTOWN PA 19401-46
INTERNATIONAL COMPUTER TECHNOLOGY CORP.,CORPORATION,NAN,1626 POWELL ST,NORRISTOWN,19401-46,PA 19401-0 MONTGOMERY,505 WEST ELM ST,NORRISTOWN,,1500478,FRANK DX NGUYEN,TREASURER,505 WEST ELM ST NORRISTOWN PA 19401-0 MONTGOMERY,1626 POWELL ST NORRISTOWN PA 19401-46
"JKM ENTERPRISES, INC.",CORPORATION,NAN,C/O JOHN F MUNDORFF 1318 WALNUT ST,CONNELLSVILLE,15425-26,PA 15425-0 FAYETTE,1318 WALNUT ST,CONNELLSVILLE,,1500479,KATHRYN M MUNDORFF,TREASURER,1318 WALNUT ST CONNELLSVILLE PA 15425-0 FAYETTE,C/O JOHN F MUNDORFF 1318 WALNUT ST CONNELLSVILLE PA 15425-26
"OMNI SERVICE MANAGEMENT, INC.",CORPORATION,NAN,1400 STEEPLECHASE DR,DOWNINGTOWN,19335-15,PA 19335-0 CHESTER,1400 STEEPLECHASE DRIVE,DOWNINGTOWN,,1500480,CHARLES W COOPER,PRESIDENT,1400 STEEPLECHASE DRIVE DOWNINGTOWN PA 19335-0 CHESTER,1400 STEEPLECHASE DR DOWNINGTOWN PA 19335-15
"MACHI PRODUCE, INCORPORATED",CORPORATION,NAN,710 5TH AVE 3000,PITTSBURGH,15219-02,PA 15222-0 ALLEGHENY,2549 PENN AVE,PITTSBURGH,,1500481,JOSEPH MACHI,PRESIDENT,2549 PENN AVE PITTSBURGH PA 15222-0 ALLEGHENY,710 5TH AVE 3000 PITTSBURGH PA 15219-02
"THE ELEGANT EDGE, INC.",CORPORATION,PA,10625 SUMMIT MONTAN CT,KNOXVILLE,37922,PA 15222-0 ALLEGHENY,2301 ONE PPG PLACE,PITTSBURGH,,1500482,JOHN W KIMBELL,TREASURER,2301 ONE PPG PLACE PITTSBURGH PA 15222-0 ALLEGHENY,10625 SUMMIT MONTAN CT KNOXVILLE TN 37922
"THE PINE MANOR, INC.",CORPORATION,PA,,,,PA 18201-0 LUZERNE,33 E BIRCH ST,HAZLETON,,1500483,ROBERT L BILLMAN,TREASURER,33 E BIRCH ST HAZLETON PA 18201-0 LUZERNE,C/O RR 1 BOX 1050 DRUMS PA 18222-40
"J.P.L. VIDEO PRODUCTIONS, INC.",CORPORATION,PA,471 JPLWICK DR,HARRISBURG,17111-2556,PA 17111-0 DAUPHIN,471 JPL WICK DRIVE,HARRISBURG,,1500484,STEVEN L KEMPSKI,PRESIDENT,471 JPL WICK DRIVE HARRISBURG PA 17111-0 DAUPHIN,471 JPLWICK DR HARRISBURG PA 17111-2556
"BAVARIAN BAKERY WORKS, INC.",CORPORATION,NAN,1424 FRICK BLDG,PITTSBURGH,15219-02,,,,,1500485,THOMAS C BYRNES,TREASURER,1424 FRICK BLDG PITTSBURGH PA 15219-0 ALLEGHENY,1424 FRICK BLDG PITTSBURGH PA 15219-02
"JET VET, LTD.",CORPORATION,NAN,405 MAPLEWOOD DR,DOUGLASSVILLE,19518-06,PA 19464-0 MONTGOMERY,934 HIGH ST,POTTSTOWN,,1500486,FREDERICK SPIEZIO,TREASURER,934 HIGH ST POTTSTOWN PA 19464-0 MONTGOMERY,405 MAPLEWOOD DR DOUGLASSVILLE PA 19518-06
"ENHANZ, INC.",CORPORATION,NAN,119 S QUEEN ST,LANCASTER,17603-36,PA 17603-0 LANCASTER,119 S QUEEN ST,LANCASTER,,1500487,ALFREDO R BUSTAQUE,TREASURER,119 S QUEEN ST LANCASTER PA 17603-0 LANCASTER,119 S QUEEN ST LANCASTER PA 17603-36
"MARKFIRST, INC.",CORPORATION,NAN,8640 PHILLIPS HWY #25,JACKSONVLE,32256,PA,219 GREENSBURG PIKE NORTH,VERSAILLES,15137-1017,1500488,GARY METZ,TREASURER,219 GREENSBURG PIKE NORTH VERSAILLES PA 15137-1017 ALLEGHENY,8640 PHILLIPS HWY #25 JACKSONVLE FL 32256
TEK CUISINE INCORPORATED,CORPORATION,PA,C 0 BERGDOLL CO137 W MARKET ST,YORK,17401-1322,PA 17403-0 YORK,350 E ROCKDALE AVE,YORK,,1500489,THOMAS E SOMMER,TREASURER,350 E ROCKDALE AVE YORK PA 17403-0 YORK,C 0 BERGDOLL CO137 W MARKET ST YORK PA 17401-1322
"POOL WAREHOUSE, INC.",CORPORATION,NAN,C/O FRANK E ZAITZ 762 MENOCH MNR,GREENSBURG,15601-65,PA 15601-0 WESTMORELAND,762 MENOCH MANOR,GREENSBURG,,1500490,FRANK E ZAITZ,PRESIDENT,762 MENOCH MANOR GREENSBURG PA 15601-0 WESTMORELAND,C/O FRANK E ZAITZ 762 MENOCH MNR GREENSBURG PA 15601-65
"D&P VENTURES, INC.",CORPORATION,PA,STE 417250,MOUNT LEBANON BLVD PITTSBURGH,15234-1249,PA,106 SPRINGBROOKE DRIVE,VENETIA,15367-1054,1500492,PAUL D FRANKE,TREASURER,106 SPRINGBROOKE DRIVE VENETIA PA 15367-1054 WASHINGTON,STE 417250 MOUNT LEBANON BLVD PITTSBURGH PA 15234-1249
