name,business_type,state_registered,street_registered,city_registered,zip5_registered,state_physical,street_physical,city_physical,zip5_physical,filing_number,agent_name,agent_title,raw_physical_address,raw_registered_address
"NORTH STAR AUTO, INC.",CORPORATION,PA,,,,PA 19006-0 MONTGOMERY,101A TOMLINSON RD,HUNTINGDON VALLEY,,2712952,,,101A TOMLINSON RD HUNTINGDON VALLEY PA 19006-0 MONTGOMERY,
CORPORATE INTERIOR OPTIONS,CORPORATION,PA,,,,PA 19003-0 MONTGOMERY,315 GLENN RD,ARDMORE,,2712953,EILEEN KELLY PROCACCI,OWNER,315 GLENN RD ARDMORE PA 19003-0 MONTGOMERY,
RUNKEY PLUMBING INC.,CORPORATION,PA,5048 WINDOVER DR,PITTSBURGH,,PA 15136-0 ALLEGHENY,242 BARBARA DR,MCKEES ROCKS,,2712954,MARK R RUNKEY,PRESIDENT,242 BARBARA DR MCKEES ROCKS PA 15136-0 ALLEGHENY,5048 WINDOVER DR PITTSBURGH PA 15205-9601
"F. W. BASS INTERNATIONAL, INC.",CORPORATION,PA,,,,PA,117 MCLAUGHLIN RD,MOON TOWNSHIP,15108-3819,2712955,,,117 MCLAUGHLIN RD MOON TOWNSHIP PA 15108-3819 ALLEGHENY,
KLINE BUILDER'S INC,CORPORATION,PA,260 ABBEY LN,LEESPORT,,PA,260 ABBEY LANE,LEESPORT,,2712956,CLIFFORD KLINE,VICEPRESIDENT,260 ABBEY LANE LEESPORT PA 19533-0 BERKS,260 ABBEY LN LEESPORT PA 19533-9589
"THE YOGA STUDIO, INC.",CORPORATION,PA,,,,,,,,2712957,,,LOGAN SQUARE VR7 STE 39 NEW HOPE PA 18938-0 BUCKS,
SELF CARE INCORPORATED,CORPORATION,PA,C/O HENRY T PIETRASZEK4951 N AVND DE VIZCAYA,TUCSON,,,,,,2712958,HENRY T PIETRASZEK,PRESIDENT,6712 MANCHESTER FARMS FAIRVIEW PA 16415-0 ERIE,C/O HENRY T PIETRASZEK4951 N AVND DE VIZCAYA TUCSON AZ 85718
"EMERALD LAND MANAGEMENT, INC.",CORPORATION,PA,PO BOX 3,SAINT MARYS,15857-0,PA,900 VINE RD,ST MARYS,15857-0,2712959,RICHARD E LYND,VICEPRESIDENT,900 VINE RD ST MARYS PA 15857-0 ELK,PO BOX 3 SAINT MARYS PA 15857-0003
NORTH HUNTINGDON FLORAL,CORPORATION,PA,,,,PA 15642-0 WESTMORELAND,12591 RT 30 NORTH,HUNTINGDON,,2712960,JUDY A MORGAN,OWNER,12591 RT 30 NORTH HUNTINGDON PA 15642-0 WESTMORELAND,
"AVX, INC.",CORPORATION,PA,C/O JAMES W BUNTING 139 N WATER ST,LANCASTER,,PA 17603-0 LANCASTER,139 N WATER ST,LANCASTER,,2712961,JAMES W BUNTING,PRESIDENT,139 N WATER ST LANCASTER PA 17603-0 LANCASTER,C/O JAMES W BUNTING 139 N WATER ST LANCASTER PA 17603-36
"COUNTRYSIDE VENDORS, INC.",CORPORATION,PA,179 STULLFIELD RD,CHAMBERSBURG,,PA 17201-0 FRANKLIN,179 STULLFIELD RD,CHAMBERSBURG,,2712962,GREGORY M BAILEY,PRESIDENT,179 STULLFIELD RD CHAMBERSBURG PA 17201-0 FRANKLIN,179 STULLFIELD RD CHAMBERSBURG PA 17201-28
IMAGEBOX PRODUCTIONS,CORPORATION,PA,,,,PA 15203-0 ALLEGHENY,2330 E CARSON ST,PITTSBURGH,,2712963,JOHN C MAHOOD,OWNER,2330 E CARSON ST PITTSBURGH PA 15203-0 ALLEGHENY,
"D.A.R. CONSTRUCTION, INC",CORPORATION,PA,425 MAGEE AVE,PHILADELPHIA,,PA 19111-0 PHILADELPHIA,425 MAGEE AVE,PHILADELPHIA,,2712964,DANIEL RODRIGUEZ,TREASURER,425 MAGEE AVE PHILADELPHIA PA 19111-0 PHILADELPHIA,425 MAGEE AVE PHILADELPHIA PA 19111-51
WOODLANDS BUILDING AND MAINTENANCE,CORPORATION,PA,,,,PA,17 HEATHER LANE,LEVITTOWN,,2712965,KENNETH GESSNER,OWNER,17 HEATHER LANE LEVITTOWN PA 19055-0 BUCKS,
"CAPITAL PHYSICAL HEALTH SERVICES, INC.",CORPORATION,NAN,2409 RUDY RD,HARRISBURG,,,,,,2712966,MICHAEL FURJANIC,TREASURER,2120 CHESTNUT ST STE C HARRISBURG PA 17102-0 DAUPHIN,2409 RUDY RD HARRISBURG PA 17104-22
TIMBER! TREE SERVICE,CORPORATION,PA,,,,PA 16117-0 LAWRENCE,123 PGH CIRCLE,ELLWOOD CITY,,2712967,RICHARD BOOTS,OWNER,123 PGH CIRCLE ELLWOOD CITY PA 16117-0 LAWRENCE,
LOGOS ACADEMY,NONPROFIT,PA,,,,PA,250 W. KING STREET,YORK,17405,2712968,,,250 W. KING STREET YORK PA 17405 YORK,
FORUM REMODELING AND CONSTRUCTION,CORPORATION,PA,,,,PA,RD 4 BOX 4512 MOORE RD,MOHNTON,,2712969,MICHAEL P GERTH,OWNER,RD 4 BOX 4512 MOORE RD MOHNTON PA 19540-0 BERKS,
"SHEARER LOCK, SAFE & SECURITY",CORPORATION,PA,,,,PA 17111-0 DAUPHIN,921 EISENHOWER BLVD,HARRISBURG,,2712970,WAYNE D SHEARER,OWNER,921 EISENHOWER BLVD HARRISBURG PA 17111-0 DAUPHIN,
"WILLIAM PENN PTA, INC.",NONPROFIT,PA,,,,PA 15063-0 WASHINGTON,RD #3 BOX 400 WILLIAMSPORT RD,MONONGAHELA,,2712971,,,RD #3 BOX 400 WILLIAMSPORT RD MONONGAHELA PA 15063-0 WASHINGTON,
A*PLUS LAWN CARE SERVICE,CORPORATION,PA,,,,PA 17601-0 LANCASTER,705 DARBY LANE,LANCASTER,,2712972,JOHN R ASHLINE,OWNER,705 DARBY LANE LANCASTER PA 17601-0 LANCASTER,
ASTON PHARMACY HOME HEALTH CENTER,CORPORATION,PA,,,,PA 19014-0 DELAWARE,10 SCHEIVERT AVE,ASTON,,2712973,JOSEPH FUSELLI,OWNER,10 SCHEIVERT AVE ASTON PA 19014-0 DELAWARE,
THE P.I.R.L. GROUP (THE PENNSYLVANIA INDEPENDENT REPRESENTATIVE LINK GROUP),CORPORATION,PA,,,,PA 17315-0 YORK,2960 GRENWAY RD,DOVER,,2712974,RICHARD BROCKLEY,OWNER,2960 GRENWAY RD DOVER PA 17315-0 YORK,
"KIDS N HOPE FOUNDATION, INC.",NONPROFIT,PA,,,,PA 19115-0 PHILADELPHIA,2060 RED LION RD,PHILADELPHIA,,2712975,,,2060 RED LION RD PHILADELPHIA PA 19115-0 PHILADELPHIA,
"SOCIAL, EDUCATIONAL AND ECONOMIC DEVELOPMENT CONCEPTS (S.E.E.D CONCEPTS)",CORPORATION,PA,,,,PA 19143-0 PHILADELPHIA,4705 BALTIMORE AVE 1ST FL,PHILADELPHIA,,2712977,ULYSSES BUTCH SLAUGHTER,OWNER,4705 BALTIMORE AVE 1ST FL PHILADELPHIA PA 19143-0 PHILADELPHIA,
JOHNSTOWN SIDING CO.,CORPORATION,PA,,,,,,,,2712978,THOMAS A GHEZZI,OWNER,137 GLENN JOHNSTOWN PA 15906-0 CAMBRIA,
TOWNE CENTER CONDOMINIUM ASSOCIATION,NONPROFIT,PA,,,,,,,,2712979,,,7848 OLD YORK RD STE 200 ELKINS PARK PA 19027-0 MONTGOMERY,
RINGGOLD AREA VOLUNTEER FIRE COMPANY,NONPROFIT,PA,,,,PA,163 FIREHALL ROAD,RINGGOLD,15770,2712980,,,163 FIREHALL ROAD RINGGOLD PA 15770 JEFFERSON,
TONEBURST RECORDS ONLINE,CORPORATION,PA,,,,PA 19063-0 DELAWARE,43 CEDAR HILL LANE,MEDIA,,2712981,JEFFREY L THORNTON,OWNER,43 CEDAR HILL LANE MEDIA PA 19063-0 DELAWARE,
THE COALITION FOR HUMAN DIGNITY,NONPROFIT,PA,,,,PA 19446-0 MONTGOMERY,% REV ROCK H SCHULER 405 N BROAD ST,LANSDALE,,2712982,,,% REV ROCK H SCHULER 405 N BROAD ST LANSDALE PA 19446-0 MONTGOMERY,
MED-ELECT OF CENTRAL PA-MEDICAL ELECTRONIC BILLING SERVICES,CORPORATION,PA,,,,PA 17057-0 DAUPHIN,84 STEPHANIA DR,MIDDLETOWN,,2712983,DAVID E ZEITER,OWNER,84 STEPHANIA DR MIDDLETOWN PA 17057-0 DAUPHIN,
BLOOMFIELD ARTWORKS,CORPORATION,PA,,,,PA 15224-0 ALLEGHENY,4523 LIBERTY AVE,PITTSBURGH,,2712985,JOHN MOWDER,OWNER,4523 LIBERTY AVE PITTSBURGH PA 15224-0 ALLEGHENY,
COMMUNITECH,CORPORATION,PA,,,,,,,,2712986,PAM ALLESSI,OWNER,3127 LAUREL RIDGE CIRCLE BRIDGEVILLE PA 15017-0 ALLEGHENY,
RUSTY'S TRAVEL AGENCY,CORPORATION,PA,,,,PA 19138-0 PHILADELPHIA,1973 71ST AVE,PHILADELPHIA,,2712987,RUSTY'S TRAVEL AGENCY INC,OWNER,1973 71ST AVE PHILADELPHIA PA 19138-0 PHILADELPHIA,
PROFESSIONAL PLAN EXAMINERS,CORPORATION,PA,,,,PA,90 BUCK RD,HOLLAND,,2712988,BUILDING INSPECTION UNDERWRITERS INC,OWNER,90 BUCK RD HOLLAND PA 18966-0 BUCKS,
CLASSIC AUTOMOTIVE SPECIALTIES,CORPORATION,PA,,,,PA 19006-0 MONTGOMERY,101A TOMLINSON RD,HUNT VALLEY,,2712989,ROBERT MEDYNEC,OWNER,101A TOMLINSON RD HUNT VALLEY PA 19006-0 MONTGOMERY,
EAST COAST STAMPED CONCRETE,CORPORATION,PA,,,,PA,3001 NEW FALLS RD,BRISTOL,,2712990,CHRISTOPHER MCMAHON CONTRACTING INC,OWNER,3001 NEW FALLS RD BRISTOL PA 19007-0 BUCKS,
CREATIVE COMMUNITY ALTERNATIVES,CORPORATION,PA,,,,PA,300 N 5TH ST,READING,,2712992,TEHST INC,OWNER,300 N 5TH ST READING PA 19601-0 BERKS,
RAVIN' RASCALS,CORPORATION,PA,,,,PA 19145-0 PHILADELPHIA,1832-34 S 11TH ST,PHILADELPHIA,,2712993,MARIA B CAMPAGNA,OWNER,1832-34 S 11TH ST PHILADELPHIA PA 19145-0 PHILADELPHIA,
ART BURNS THE ORIGINAL SOUTHERN PLATTER,CORPORATION,PA,,,,PA 15208-0 ALLEGHENY,7032 IDLEWILD ST,PITTSBURGH,,2712995,ART BURNS,OWNER,7032 IDLEWILD ST PITTSBURGH PA 15208-0 ALLEGHENY,
BOBAN'S STUDIO,CORPORATION,PA,,,,PA 19148-0 PHILADELPHIA,532 MCCLELLAN ST,PHILADELPHIA,,2712996,SLOBODAN KLASNIKOV,OWNER,532 MCCLELLAN ST PHILADELPHIA PA 19148-0 PHILADELPHIA,
DENNIS R. MARION PLUMBING,CORPORATION,PA,,,,PA 15084-0 ALLEGHENY,358 REAR WEST 7TH AVE,TARENTUM,,2712997,DENNIS R MARION SR,OWNER,358 REAR WEST 7TH AVE TARENTUM PA 15084-0 ALLEGHENY,
CRYSTAL SPRING FARM ANTIQUES,CORPORATION,PA,,,,PA 19348-0 CHESTER,315 UPLAND RD,KENNETT SQUARE,,2712998,JAN MANOS,OWNER,315 UPLAND RD KENNETT SQUARE PA 19348-0 CHESTER,
TL & G OFFICE SERVICES,CORPORATION,PA,,,,PA,207 CORDAK DR,DARLINGTON,16115-0,2712999,TERRI L HUDAK,OWNER,207 CORDAK DR DARLINGTON PA 16115-0 BEAVER,
TKO PEST CONTROL,CORPORATION,PA,,,,PA 19401-0 MONTGOMERY,1414 HARDING BLVD,NORRISTOWN,,2713000,DAVID W COLLINS,OWNER,1414 HARDING BLVD NORRISTOWN PA 19401-0 MONTGOMERY,
H & T QUALITY SERVICE COMPANY,CORPORATION,PA,,,,PA,405 E LYNNWOOD ST,ALLENTOWN,18103-0,2713001,STEPHEN G HUDAK,OWNER,405 E LYNNWOOD ST ALLENTOWN PA 18103-0 LEHIGH,
KEYSTROKE ADMINISTRATIVE SERVICES,CORPORATION,PA,,,,PA,1624 TEEPEE DR,AUBURN,17922-9323,2713002,CORAL LEE HANSEN,OWNER,1624 TEEPEE DR AUBURN PA 17922-9323 SCHUYLKILL,
BASKET TREASURES,CORPORATION,PA,,,,PA,538 GRANGE RD,BERNVILLE,,2713004,CHRISTINE P SHAEFFER,OWNER,538 GRANGE RD BERNVILLE PA 19506-0 BERKS,
CROSS DOG FARMS,CORPORATION,PA,,,,PA 17113-0 DAUPHIN,910 PENN ST,BRESSLER,,2713005,LAURI RAKOFF,OWNER,910 PENN ST BRESSLER PA 17113-0 DAUPHIN,
DUKE PHYSICAL THERAPY AND REHAB,CORPORATION,PA,,,,PA 17402-0 YORK,109 EISENHOWER DR,YORK,,2713006,FAITH DUKE,OWNER,109 EISENHOWER DR YORK PA 17402-0 YORK,
THE HERALD GROUP,CORPORATION,PA,,,,PA 19106-0 PHILADELPHIA,602 S WASHINGTON SQ APT 2612,PHILADELPHIA,,2713007,CECILIA GALLO,OWNER,602 S WASHINGTON SQ APT 2612 PHILADELPHIA PA 19106-0 PHILADELPHIA,
THE TREE FORUM,CORPORATION,PA,,,,PA,BOX 4512 RD #4 MOORE RD,MOHNTON,,2713008,MICHAEL P GERTH,OWNER,BOX 4512 RD #4 MOORE RD MOHNTON PA 19540-0 BERKS,
"PACIFIC FISH MARKET, INC.",CORPORATION,PA,500 4 W ALLEGHENY AVE,PHILADELPHIA,,PA 19133-0 PHILADELPHIA,500-4 W ALLEGHENY AVE,PHILADELPHIA,,2713009,ISSAM A YOUSEF,TREASURER,500-4 W ALLEGHENY AVE PHILADELPHIA PA 19133-0 PHILADELPHIA,500 4 W ALLEGHENY AVE PHILADELPHIA PA 19133-51
"CRYSTAL LAUNDROMAT, INC.",CORPORATION,PA,500 6 W ALLEGHENY AVE,PHILADELPHIA,,PA 19133-0 PHILADELPHIA,500-6 W ALLEGHENY AVE,PHILADELPHIA,,2713010,FARAG SIYAM,TREASURER,500-6 W ALLEGHENY AVE PHILADELPHIA PA 19133-0 PHILADELPHIA,500 6 W ALLEGHENY AVE PHILADELPHIA PA 19133-51
"MET FOOD OF LIBERTY PLAZA, INC.",CORPORATION,PA,500 W ALLEGHENY AVE,PHILADELPHIA,,PA 19133-0 PHILADELPHIA,500 W ALLEGHENY AVE,PHILADELPHIA,,2713011,FARAG SIYAM,TREASURER,500 W ALLEGHENY AVE PHILADELPHIA PA 19133-0 PHILADELPHIA,500 W ALLEGHENY AVE PHILADELPHIA PA 19133-51
"ROMA PIZZERIA, INC.",CORPORATION,PA,500-2 W ALLEGHENY AVE,PHILADELPHIA,,PA 19133-0 PHILADELPHIA,500-2 W ALLEGHENY AVE,PHILADELPHIA,,2713012,ABDELAZIZ YOUSEF,TREASURER,500-2 W ALLEGHENY AVE PHILADELPHIA PA 19133-0 PHILADELPHIA,500-2 W ALLEGHENY AVE PHILADELPHIA PA 19133-51
"UNITED PARTNERS, LTD.",CORPORATION,PA,301 MULBERRY ST,SCRANTON,18517,PA,27 KANE LANE,STAUFFER INDUSTRIAL TAYLOR,18517,2713013,WILLIAM GAVIGAN,VICEPRESIDENT,27 KANE LANE STAUFFER INDUSTRIAL TAYLOR PA 18517 LACKAWANNA,301 MULBERRY ST SCRANTON PA 18503-1230
"PRECISION FOODS, INC.",CORPORATION,IA,11457 OLDE CABIN RD,SAINT LOUIS,,,,,,2713015,M R DUNSMORE,TREASURER,%CORPORATION SERVICE COMPANY DAUPHIN,11457 OLDE CABIN RD SAINT LOUIS MO 63141-7139
"AMERICAN UNDERGROUND ENGINEERING, INC.",CORPORATION,IL,,,,,,,,2713016,,,% ROBERT H NEMEROFF 7848 OLD YORK RD #200 ELKINS PARK PA 19027-0 MONTGOMERY,
"NDW COMMUNICATIONS, INC.",CORPORATION,DE,C/O NAYLOR ETAL 100 TOURNAMENT STE 100,HORSHAM,,PA 19044-0 MONTGOMERY,% DUDNYK ENTERPRISES 100 TOURNAMENT DR STE 230,HORSHAM,,2713017,JOSEPH TREFALLER,TREASURER,% DUDNYK ENTERPRISES 100 TOURNAMENT DR STE 230 HORSHAM PA 19044-0 MONTGOMERY,C/O NAYLOR ETAL 100 TOURNAMENT STE 100 HORSHAM PA 19044-46
"COOPER AVIATION INDUSTRIES, INC.",CORPORATION,IL,2149 PRATT BLVD,ELK GROVE,,PA 17101-0 DAUPHIN,600 N SECOND ST STE 500,HARRISBURG,,2713018,MARTIN D COOPER,TREASURER,600 N SECOND ST STE 500 HARRISBURG PA 17101-0 DAUPHIN,2149 PRATT BLVD ELK GROVE IL 60007
LIBERTY PLAZA,CORPORATION,PA,,,,PA 19133-0 PHILADELPHIA,500 W ALLEGHENY AVE,PHILADELPHIA,,2713019,FARAG SIYAM,OWNER,500 W ALLEGHENY AVE PHILADELPHIA PA 19133-0 PHILADELPHIA,
PUNSUTAWNEY CORPORATION,CORPORATION,NV,PO BOX 8188,PITTSBURGH,,PA 15217-0 ALLEGHENY,2715-A MURRAY AVE,PITTSBURGH,,2713020,CHARLES D GROSS,PRESIDENT,2715-A MURRAY AVE PITTSBURGH PA 15217-0 ALLEGHENY,PO BOX 8188 PITTSBURGH PA 15217-02
FRS FUND RAISING SERVICES,CORPORATION,PA,,,,PA,801 MAIN ST,STROUDSBURG,18360-0,2713021,NANCY J MILLER,OWNER,801 MAIN ST STROUDSBURG PA 18360-0 MONROE,
GREATER CORS COMPANY,CORPORATION,PA,,,,PA 19104-0 PHILADELPHIA,% THE PARTNERSHIP CDC WEST WING 19 3901 MARKET ST BOX 1949,PHILADELPHIA,,2713022,THE GREATER PHILADELPHIA COMMERCIAL RES,OWNER,% THE PARTNERSHIP CDC WEST WING 19 3901 MARKET ST BOX 1949 PHILADELPHIA PA 19104-0 PHILADELPHIA,
PHILADELPHIA WESTERN CLUB,NONPROFIT,PA,,,,PA 19121-0 PHILADELPHIA,3121 MASTER ST,PHILADELPHIA,,2713023,,,3121 MASTER ST PHILADELPHIA PA 19121-0 PHILADELPHIA,
CATCHER IN THE RYE PRODUCTIONS,CORPORATION,PA,,,,PA 17109-0 DAUPHIN,3004 LOCUST LANE,HARRISBURG,,2713024,SHIRLEY M CONFER,OWNER,3004 LOCUST LANE HARRISBURG PA 17109-0 DAUPHIN,
SAFEGUARDS SECURITY FENCING,CORPORATION,PA,,,,PA,300 HUDSON ST,HACKENSACK,,2713025,SAFEGUARDS TECHNOLOGY INC,OWNER,300 HUDSON ST HACKENSACK PA 7601 -0,
PA HOME INSPECTIONS,CORPORATION,PA,,,,PA 17701-0 LYCOMING,2335 DOVE ST,WILLIAMSPORT,,2713026,KENNETH E GEORGE,OWNER,2335 DOVE ST WILLIAMSPORT PA 17701-0 LYCOMING,
MCL CONSTRUCTION,CORPORATION,PA,,,,PA 19312-0 CHESTER,118 BODINE RD,BERWYN,,2713027,VINCENT J MCLAUGHLIN,OWNER,118 BODINE RD BERWYN PA 19312-0 CHESTER,
MUTUAL DIVERSIFIED FUNDING,CORPORATION,PA,,,,PA 17103-0 DAUPHIN,33 N 16TH ST,HARRISBURG,,2713028,KENNETH COBB,OWNER,33 N 16TH ST HARRISBURG PA 17103-0 DAUPHIN,
THE GEM DUGOUT,CORPORATION,PA,,,,,,,,2713029,PATRICIA L SMITH,OWNER,1652 PRINCETON DR STATE COLLEGE PA 16803-0 CENTRE,
"RPS, A CALIBER SYSTEM COMPANY",CORPORATION,PA,,,,PA 15108-0 ALLEGHENY,1000 RPS DR,CORAOPOLIS,,2713030,RPS INC,OWNER,1000 RPS DR CORAOPOLIS PA 15108-0 ALLEGHENY,
OAK RIDGE PROPERTY OWNERS ASSOCIATION,NONPROFIT,PA,,,,,,,,2713031,,,RR 1 BOX 299H MCCONNELLSBURG PA 17233-0 FULTON,
SAMSON AUTO BODY,CORPORATION,PA,,,,PA,RD 5 BOX 5112,LAKE ARIEL,,2713032,SHAWN SAMSON,OWNER,RD 5 BOX 5112 LAKE ARIEL PA 18436-0 WAYNE,
WIN BUFFET,CORPORATION,PA,,,,PA,70 BUCKWALTER RD,ROYERFORD,19468-0,2713033,CUI HUA HUANG,OWNER,70 BUCKWALTER RD ROYERFORD PA 19468-0,
ULTRA CLEAN CARPET CLEANING AND SERVICES,CORPORATION,PA,,,,PA 17214-0 FRANKLIN,15888 EAST AVE,BLUE RIDGE SUMMIT,,2713035,ALLEN F BIRD,OWNER,15888 EAST AVE BLUE RIDGE SUMMIT PA 17214-0 FRANKLIN,
"PLUM TRAIL COUNCIL, INC.",NONPROFIT,PA,,,,PA 15239-0 ALLEGHENY,118 PINE COURT DR,PLUM,,2713036,,,118 PINE COURT DR PLUM PA 15239-0 ALLEGHENY,
LEISURE LIFE SPAS,CORPORATION,PA,,,,PA 17315-0 YORK,4230 SCHOOLHOUSE RD,DOVER,,2713037,DAVE V CRONE,OWNER,4230 SCHOOLHOUSE RD DOVER PA 17315-0 YORK,
"MAY JAY PARTNERS, L.P.",PARTNERSHIP,PA,,,,PA 19035-0 MONTGOMERY,% JOHN A PFISTER SR 230 GLENMOOR RD,GLADWYNE,,2713038,JPM ASSOCIATES INC,GENPARTNER,% JOHN A PFISTER SR 230 GLENMOOR RD GLADWYNE PA 19035-0 MONTGOMERY,PA
CONTRACTOR INFORMATION SYSTEMS,CORPORATION,PA,,,,PA 15636-0 WESTMORELAND,10 HIGHVIEW CIRCLE,HARRISON CITY,,2713040,CLARE M SEKOWSKI,OWNER,10 HIGHVIEW CIRCLE HARRISON CITY PA 15636-0 WESTMORELAND,
THE HUNSBERGER LIMITED PARTNERSHIP,PARTNERSHIP,PA,,,18612,PA,2 CHURCH ROAD,DALLAS,18612,2713041,CHARLES L HUNSBERGER JR,GENPARTNER,2 CHURCH ROAD DALLAS PA 18612 LUZERNE,PA
P & P INTERPRETERS,CORPORATION,PA,,,,PA 17046-0 LEBANON,433 N PARTRIDGE ST,LEBANON,,2713043,PRASOEU A LENG,OWNER,433 N PARTRIDGE ST LEBANON PA 17046-0 LEBANON,
"CORONATION, INC.",CORPORATION,OH,944 FIELD ST NW,CANTON,,PA 15012-0 FAYETTE,119 PERRY AVE,BELLE VERNON,,2713044,LORI L SIKORSZKY,PRESIDENT,119 PERRY AVE BELLE VERNON PA 15012-0 FAYETTE,944 FIELD ST NW CANTON OH 44709
TRATTORIA FRATELLI,CORPORATION,PA,,,,PA 17046-0 LEBANON,502 E LEHMAN ST,LEBANON,,2713045,FRATELLOS' RISTORANTE INC,OWNER,502 E LEHMAN ST LEBANON PA 17046-0 LEBANON,
HAZLETON SURGICAL ASSOCIATES,CORPORATION,PA,,,,PA 18201-0 LUZERNE,1201 N CHURCH ST,HAZLETON,,2713046,CLARK D GERHART MD,OWNER,1201 N CHURCH ST HAZLETON PA 18201-0 LUZERNE,
"KLEIN MANAGEMENT SYSTEMS, INC.",CORPORATION,NY,259 S MIDDLETOWN RD,NANUET,,PA 19355-0 CHESTER,C/O CENTECOR INC 200 GREAT VALLEY PKWY,MALVERN,,2713047,DAVID KLEIN,PRESIDENT,C/O CENTECOR INC 200 GREAT VALLEY PKWY MALVERN PA 19355-0 CHESTER,259 S MIDDLETOWN RD NANUET NY 10954-3327
HAIR TODAY BY... LAUREL,CORPORATION,PA,,,,PA 17540-0 LANCASTER,215 W MAIN ST,LEOLA,,2713048,LAUREL L BEYER,OWNER,215 W MAIN ST LEOLA PA 17540-0 LANCASTER,
INTEGRITY INFORMATION SERVICES,CORPORATION,PA,,,,PA 19023-0 DELAWARE,423,DARBY,,2713050,RUPUS C NANCE,OWNER,423 DARBY TERRACE DARBY PA 19023-0 DELAWARE,
DISK ENTERPRISE INC.,CORPORATION,CA,1476 BRADDOCK LN,WYNNEWOOD,,PA 19096-0 MONTGOMERY,1476 BRADDOCK LANE,WYNNEWOOD,,2713051,YU XING,PRESIDENT,1476 BRADDOCK LANE WYNNEWOOD PA 19096-0 MONTGOMERY,1476 BRADDOCK LN WYNNEWOOD PA 19096-46
MORGAN MILLS,CORPORATION,PA,,,,PA 18252-0 SCHUYLKILL,RD 2 RT 54 PO BOX 390,TAMAQUA,,2713052,J E MORGAN KNITTING MILLS INC,OWNER,RD 2 RT 54 PO BOX 390 TAMAQUA PA 18252-0 SCHUYLKILL,
THE GREATER PHILADELPHIA COMMERCIAL RESIDENTIAL SERVICES COMPANY,CORPORATION,PA,4020 MARKET ST,PHILADELPHIA,,PA 19104-0 PHILADELPHIA,4020 MARKET ST STE 300,PHILADELPHIA,,2713053,TIM STYER,PRESIDENT,4020 MARKET ST STE 300 PHILADELPHIA PA 19104-0 PHILADELPHIA,4020 MARKET ST PHILADELPHIA PA 19104-3003
"PRO-TEC RESTORATION, INC.",CORPORATION,PA,3301 DISSTON ST,PHILADELPHIA,,PA 19149-0 PHILADELPHIA,6396 CASTOR AVE,PHILADELPHIA,,2713055,JAMES C HASHER,TREASURER,6396 CASTOR AVE PHILADELPHIA PA 19149-0 PHILADELPHIA,3301 DISSTON ST PHILADELPHIA PA 19149-2009
"ROMANTIC BANTER MUSIC, INC.",CORPORATION,PA,2600 N 2ND ST,PHILADELPHIA,,PA 19133-0 PHILADELPHIA,2600 N 2ND ST,PHILADELPHIA,,2713056,RANDY ALAN RAPOPORT,PRESIDENT,2600 N 2ND ST PHILADELPHIA PA 19133-0 PHILADELPHIA,2600 N 2ND ST PHILADELPHIA PA 19133-51
"HUMAN RESOURCE STRATEGIES, INC.",CORPORATION,PA,395 OAK HILL RD,MOUNTAIN TOP,,PA 17603-0 LANCASTER,1032 SHADOWSTONE DR,LANCASTER,,2713057,PHILLIP AMEND,PRESIDENT,1032 SHADOWSTONE DR LANCASTER PA 17603-0 LANCASTER,395 OAK HILL RD MOUNTAIN TOP PA 18707-2148
APARTMENT RESTORATION CORPORATION,CORPORATION,PA,160 CLUBHOUSE ROAD,KNG OF PRUSSA,,,,,,2713058,MITCHELL L MORGAN,TREASURER,160 CLUBHOUSE RD KING OF PRUSSIA PA 19406-0 MONTGOMERY,160 CLUBHOUSE ROAD KNG OF PRUSSA PA 19406-46
"ALL THINGS BORON CONSULTING SERVICES, INC.",CORPORATION,PA,,,,PA,407 LINCOLN AVE,MARS,16046-0,2713059,,,407 LINCOLN AVE MARS PA 16046-0 BUTLER,
"PARAGON PEDALCAB, INC.",CORPORATION,PA,527 W CHURCH RD,KNG OF PRUSSA,,PA 19107-0 PHILADELPHIA,2700 ARAMARK TOWER 1101 MARKET ST,PHILADELPHIA,,2713060,JONAH SCHLACHTERMAN,TREASURER,2700 ARAMARK TOWER 1101 MARKET ST PHILADELPHIA PA 19107-0 PHILADELPHIA,527 W CHURCH RD KNG OF PRUSSA PA 19406-46
PROFESSIONAL MEDICAL SERVICES PLACEMENT AND COUNSELING,CORPORATION,PA,,,,PA 17225-0 FRANKLIN,43 HEARTHSIDE LANE,GREENCASTLE,,2713061,WANDA FAY LENHARR,OWNER,43 HEARTHSIDE LANE GREENCASTLE PA 17225-0 FRANKLIN,
J. & J. BUSINESS ASSOCIATES INC.,CORPORATION,PA,3135 NEW GERMANY RD SUITE 35,EBENSBURG,,PA 15931-0 CAMBRIA,600 W HIGHLAND AVE,EBENSBURG,,2713062,JAMES B LONG,TREASURER,600 W HIGHLAND AVE EBENSBURG PA 15931-0 CAMBRIA,3135 NEW GERMANY RD SUITE 35 EBENSBURG PA 15931-11
R&R REAL ESTATE REMODELING,CORPORATION,PA,,,,PA,351 S NULTON AVE,EASTON,18045,2713063,RICHARD A BURNHAUSER,OWNER,351 S NULTON AVE EASTON PA 18045 NORTHAMPTON,
BW COMPUTER SCHOOL,CORPORATION,PA,,,,PA 16830-0 CLEARFIELD,464 GRAHAM AVE,CLEARFIELD,,2713064,KATHLEEN S WOLFORD,OWNER,464 GRAHAM AVE CLEARFIELD PA 16830-0 CLEARFIELD,
HAIR EXTRODINAIR,CORPORATION,PA,,,,PA,296 EVERGREEN AVE,WARMINSTER,,2713065,MARIA SANCHEZ,OWNER,296 EVERGREEN AVE WARMINSTER PA 18974-0 BUCKS,
AMERIFIRST CARD SERVICES,CORPORATION,PA,,,,,,,,2713066,RAJA DHOBLE,OWNER,45 E CITY LINE AVE STE 45 BALA CYNWYD PA 19004-0 MONTGOMERY,
ADULT DAY CARE GROUP,CORPORATION,PA,,,,PA 19422-0 MONTGOMERY,3 RAMSGATE COURT,BLUE BELL,,2713067,SUZANNE R SPIRER,OWNER,3 RAMSGATE COURT BLUE BELL PA 19422-0 MONTGOMERY,
CLASSIC LANES,CORPORATION,PA,,,,PA,2230 BROAD ST,ERIE,,2713068,PERRY PLAZA CLASSIC LANES INC,OWNER,2230 BROAD ST ERIE PA 16503-0 ERIE,
LEWIE YOUR FISHMAN,CORPORATION,PA,2802 BROADWAY BLVD,MONROEVILLE,,,,,,2713071,"LEWIE YOUR FISHMAN, LLC",OWNER,306 RIZZI DR PENN TOWNSHIP PA 15642-0 WESTMORELAND,2802 BROADWAY BLVD MONROEVILLE PA 15146
PASSION,CORPORATION,PA,,,,PA,529 BETHLEHEM RD,CATASAUQUA,18032-0,2713072,SAM AZAR,OWNER,529 BETHLEHEM RD CATASAUQUA PA 18032-0 LEHIGH,
AQUA-DYNE FINANCIAL,CORPORATION,PA,,,,,,,,2713073,WALNUT EQUIPMENT LEASING CO INC,OWNER,1 BELMONT AVE STE 200 BALA CYNWYD PA 19004-0 MONTGOMERY,
DELCO PUBLISHING,CORPORATION,PA,,,,PA 19050-0 DELAWARE,269 N WYCOMBE AVE,LANSDOWNE,,2713074,MICHAEL P BIGIONI,OWNER,269 N WYCOMBE AVE LANSDOWNE PA 19050-0 DELAWARE,
M.E. CHANDLER & ASSOCIATES,CORPORATION,PA,,,,PA 19038-0 MONTGOMERY,8603 TRUMBAUER DR,WYNDMOOR,,2713075,MORRIS E CHANDLER,OWNER,8603 TRUMBAUER DR WYNDMOOR PA 19038-0 MONTGOMERY,
DIANE'S UNIQUE BOUTIQUE,CORPORATION,PA,,,,PA,33 POCONO BLVD,MOUNT POCONO,18444-0,2713076,DIANE HYLAND,OWNER,33 POCONO BLVD MOUNT POCONO PA 18444-0 MONROE,
THE OTHER WOMAN,CORPORATION,PA,,,,PA 15146-0 ALLEGHENY,415 CALIFORNIA AVE,MONROEVILLE,,2713077,MS HOLLY GAETANO,OWNER,415 CALIFORNIA AVE MONROEVILLE PA 15146-0 ALLEGHENY,
JEANNETTE CITY TRANSIT,CORPORATION,PA,2 S. CHURCH STREET,MOUNT PLEASANT,15683,PA,506 MULBERRY ST.,SCOTTDALE,15683,2713078,"FRANCIS CRINER , JR.",OWNER,506 MULBERRY ST. SCOTTDALE PA 15683 WESTMORELAND,2 S. CHURCH STREET MOUNT PLEASANT PA 15666
ATLANTIC COAST PUBLISHING,CORPORATION,PA,,,,PA 15206-0 ALLEGHENY,1116 DUFFIELD ST,PITTSBURGH,,2713079,JOSHUA L MARINOV,OWNER,1116 DUFFIELD ST PITTSBURGH PA 15206-0 ALLEGHENY,
PINAFORE,CORPORATION,PA,,,,PA 15139-0 ALLEGHENY,850 ALLEGHENY RIVER BLVD,OAKMONT,,2713081,FRANCINE R CONWAY,OWNER,850 ALLEGHENY RIVER BLVD OAKMONT PA 15139-0 ALLEGHENY,
ZOOM RESIDENTIAL CLEANING SERVICE,CORPORATION,PA,,,,PA 15046-219 ARMSTRONG,5 SCHOOL ST #1 PO BOX 219,GLENWILLARD,,2713082,VILMA G REINARD,OWNER,5 SCHOOL ST #1 PO BOX 219 GLENWILLARD PA 15046-219 ARMSTRONG,
GGB ENTERPRISES,CORPORATION,PA,,,,PA,226 STANFORD RD,FAIRLESS HILLS,,2713083,GRAZYNA T BOCZKOWSKA,OWNER,226 STANFORD RD FAIRLESS HILLS PA 19030-0 BUCKS,
INTEGRATED COMMUNICATION SYSTEMS,CORPORATION,PA,,,,PA 15235-0 ALLEGHENY,3726 HENLEY DR,PITTSBURGH,,2713084,GARY G THEOFILIS,OWNER,3726 HENLEY DR PITTSBURGH PA 15235-0 ALLEGHENY,
PENNPRO ENGINEERS,CORPORATION,PA,,,,PA 19428-0 MONTGOMERY,1801 BUTLER PIKE APT 6,CONSHOHOCKEN,,2713085,ALOIS STRANSKY,OWNER,1801 BUTLER PIKE APT 6 CONSHOHOCKEN PA 19428-0 MONTGOMERY,
MCDAVITT SIGNS & AWARDS,CORPORATION,PA,549 POCONO BOULEVARD,MOUNT POCONO,18344,PA,549 POCONO BLVD,MOUNT POCONO,18344,2713086,"C & S BROTHERS, INC.",OWNER,549 POCONO BLVD MOUNT POCONO PA 18344 MONROE,549 POCONO BOULEVARD MOUNT POCONO PA 18344
MOMSENSE,CORPORATION,PA,,,,PA 18505-0 LACKAWANNA,4 PEN-Y-BRYN DR,SCRANTON,,2713088,TERRY FLEIG,OWNER,4 PEN-Y-BRYN DR SCRANTON PA 18505-0 LACKAWANNA,
AMS SYSTEMS,CORPORATION,PA,,,,PA,506 HOGAN COURT,DOYLESTOWN,,2713089,WALTER RUNIEWICZ,OWNER,506 HOGAN COURT DOYLESTOWN PA 18901-0 BUCKS,
MOBILE ONE FINANCIAL SERVICES,CORPORATION,PA,,,,PA 18644-0 LUZERNE,34 W 8TH ST,WYOMING,,2713091,JOSEPH J HODLE,OWNER,34 W 8TH ST WYOMING PA 18644-0 LUZERNE,
PRIMAL URGE,CORPORATION,PA,,,,PA,115 SOUTH MAIN ST,NEW HOPE,,2713092,R ROTATORI,OWNER,115 SOUTH MAIN ST NEW HOPE PA 18938-0 BUCKS,
"SHERRY MINNICK, INC.",CORPORATION,PA,RR 1 BOX 119,GREENSBORO,15338-0,PA,RD 1 BOX 119,GREENSBORO,15338-0,2713093,SHERRY A MINNICK,PRESIDENT,RD 1 BOX 119 GREENSBORO PA 15338-0 GREENE,RR 1 BOX 119 GREENSBORO PA 15338-30
"PHOTOGRAPHIC IMAGES, INC.",CORPORATION,PA,738 PINE ST,PHILADELPHIA,,PA 19106-0 PHILADELPHIA,738 PINE ST,PHILADELPHIA,,2713096,MARK HOWARTH,PRESIDENT,738 PINE ST PHILADELPHIA PA 19106-0 PHILADELPHIA,738 PINE ST PHILADELPHIA PA 19106-51
"EVANS PETTY ASSOCIATES USA, LTD.",CORPORATION,PA,2400 W WSTMRLND ST,PHILADELPHIA,,PA 19129-0 PHILADELPHIA,2400 W WESTMORELAND ST,PHILADELPHIA,,2713097,NIGEL PETTY,PRESIDENT,2400 W WESTMORELAND ST PHILADELPHIA PA 19129-0 PHILADELPHIA,2400 W WSTMRLND ST PHILADELPHIA PA 19129-51
"EVERLAST ROOFING, INC.",CORPORATION,PA,10 ENTERPRISE CT,LEBANON,17042,PA,10 ENTERPRISE COURT,LEBANON,17042,2713098,ROBERT N ZIMMERMAN,TREASURER,10 ENTERPRISE COURT LEBANON PA 17042 LEBANON,10 ENTERPRISE CT LEBANON PA 17042-8206
COMMUNICATIONS WIRING GROUP,CORPORATION,PA,,,,,,,,2713099,WALTER H HASLETT SR,OWNER,2811 COLONY DR APT B-11 AUDUBON PA 19403-0 MONTGOMERY,
"NEW MILLENNIUM HEALTH PARTNERS, P.C.",CORPORATION,PA,C/O ROBERT PEARLSTEIN 1236 GULPH CREEK RD,RADNOR,,,,,,2713100,ROBERT J PEARLSTEIN,TREASURER,2 BALA PLAZA STE 300 BALA CYNWYD PA 19004-0 MONTGOMERY,C/O ROBERT PEARLSTEIN 1236 GULPH CREEK RD RADNOR PA 19087-23
B & G MORTGAGE ASSOCS.,CORPORATION,PA,PO BOX 426 19 BIG ROAD,ZIEGLERVILLE,,PA 19012-0 MONTGOMERY,47 TOOKANY CREEK PKWY,CHELTENHAM,,2713102,MARY M BOHLEY,PRESIDENT,47 TOOKANY CREEK PKWY CHELTENHAM PA 19012-0 MONTGOMERY,PO BOX 426 19 BIG ROAD ZIEGLERVILLE PA 19492-46
"IMA-SURPLUS, INC.",CORPORATION,PA,140 KINGSWOOD CT,GLEN MILLS,,PA 19342-0 DELAWARE,140 KINGSWOOD COURT,GLEN MILLS,,2713104,EDWARD J MCKENNA,PRESIDENT,140 KINGSWOOD COURT GLEN MILLS PA 19342-0 DELAWARE,140 KINGSWOOD CT GLEN MILLS PA 19342-23
"CLAUDE SIMMONS, II, INC.",CORPORATION,PA,,,,PA 19110-0 PHILADELPHIA,% JACK M BERNARD ESQ 2121 LAND TITLE BLD 100 S BROAD ST,PHILADELPHIA,,2713105,CLAUDE SIMMONS,TREASURER,% JACK M BERNARD ESQ 2121 LAND TITLE BLD 100 S BROAD ST PHILADELPHIA PA 19110-0 PHILADELPHIA,
"JEAN BERGER ASSOCIATES, INC.",CORPORATION,PA,216 FREELAND DR,COLLEGEVILLE,,PA 19426-0 MONTGOMERY,216 FREELAND DR,COLLEGEVILLE,,2713106,JEAN BERGER,PRESIDENT,216 FREELAND DR COLLEGEVILLE PA 19426-0 MONTGOMERY,216 FREELAND DR COLLEGEVILLE PA 19426-46
NATIONAL HOMEWORKERS INFORMATION,CORPORATION,PA,,,,PA,1049 PA AVE,MATAMORAS,18336-0,2713107,MARYROSE ROECKELL,OWNER,1049 PA AVE MATAMORAS PA 18336-0,
"CELLSOURCE, INC.",CORPORATION,PA,STE 430 5001 BAUM BLVD,PITTSBURGH,,PA 15213-0 ALLEGHENY,5001 BAUM BLVD,PITTSBURGH,,2713108,MARCILLE PILKINGTON,TREASURER,5001 BAUM BLVD PITTSBURGH PA 15213-0 ALLEGHENY,STE 430 5001 BAUM BLVD PITTSBURGH PA 15213-02
A & T CAB CO.,CORPORATION,PA,APT 221 6063 ROOSEVELT BLVD,PHILADELPHIA,,PA 19149-0 PHILADELPHIA,6063 ROOSEVELT BLVD APT 221,PHILADELPHIA,,2713109,ASIM F MOHAMED,PRESIDENT,6063 ROOSEVELT BLVD APT 221 PHILADELPHIA PA 19149-0 PHILADELPHIA,APT 221 6063 ROOSEVELT BLVD PHILADELPHIA PA 19149-51
SOIL AND LAND PLANNING CONSULTANTS,CORPORATION,PA,,,,,,,,2713110,GARY W PETERSEN,OWNER,111 WESTWOOD CIRCLE STATE COLLEGE PA 16803-0 CENTRE,
"QUALITY SYSTEMS ENGINEERING & DESIGN, INC.",CORPORATION,PA,,,,PA 17538-0 LANCASTER,106 MAIN ST,SALUNGA,,2713111,,,106 MAIN ST SALUNGA PA 17538-0 LANCASTER,
"SYDNEY A. BECKETT & ASSOCIATES, INC.",CORPORATION,PA,7015 SPRAGUE ST,PHILADELPHIA,,PA 19119-0 PHILADELPHIA,7015 SPRAGUE ST,PHILADELPHIA,,2713112,SYDNEY A BECKETT,PRESIDENT,7015 SPRAGUE ST PHILADELPHIA PA 19119-0 PHILADELPHIA,7015 SPRAGUE ST PHILADELPHIA PA 19119-51
DISABILITY LAW FIRM OF BRODE AND SULLIVAN,CORPORATION,PA,,,,PA 16335-0 CRAWFORD,305 WALNUT ST,MEADVILLE,,2713113,R CHRISTOPHER BRODE,OWNER,305 WALNUT ST MEADVILLE PA 16335-0 CRAWFORD,
"SUSQUEHANNA SCUBA CENTER, INC.",CORPORATION,PA,252 MILL STREET,DANVILLE,,PA 17801-0 NORTHUMBERLAND,357 MARKET ST,SUNBURY,,2713114,VICKI VANPELT,VICEPRESIDENT,357 MARKET ST SUNBURY PA 17801-0 NORTHUMBERLAND,252 MILL STREET DANVILLE PA 17821-47
DAR-LO FARMS,CORPORATION,PA,,,,PA 17846-0 COLUMBIA,RR #2 BOX 335,MILLVILLE,,2713115,LOIS M WILSON,OWNER,RR #2 BOX 335 MILLVILLE PA 17846-0 COLUMBIA,
"ENTERTAINMENT VIDEO PRODUCTIONS, INC.",CORPORATION,PA,811 PIN OAK DR,MOUNTAIN TOP,,PA 18707-0 LUZERNE,811 PIN OAK DR,MOUNTAINTOP,,2713116,CHRISTOPHER KOREY,TREASURER,811 PIN OAK DR MOUNTAINTOP PA 18707-0 LUZERNE,811 PIN OAK DR MOUNTAIN TOP PA 18707-40
"A C RENTALS, INC.",CORPORATION,PA,PO BOX 763,CRANBERRY,16374,PA,219 ELIZABETH LANE,KENNERDELL,16374,2713117,CHRISTOPHER T SMITH,TREASURER,219 ELIZABETH LANE KENNERDELL PA 16374 VENANGO,PO BOX 763 CRANBERRY PA 16319-0763
MOUNTAINEER CAFE,CORPORATION,PA,,,,PA,1137 VAN VOORHIS RD,MORGANTOWN,26505-0,2713118,SHERRY A MINNICK,OWNER,1137 VAN VOORHIS RD MORGANTOWN PA 26505-0,
"UNIONTOWN MEDICAL REHABILITATION, P.C.",CORPORATION,PA,60D CONNELLSVILLE STRE,UNIONTOWN,,PA 15401-0 FAYETTE,500 W BERKELEY ST,UNIONTOWN,,2713120,RICHARD S KAPLAN,PRESIDENT,500 W BERKELEY ST UNIONTOWN PA 15401-0 FAYETTE,60D CONNELLSVILLE STRE UNIONTOWN PA 15401
UNIVERSITY VIEW APTS.,CORPORATION,PA,,,,PA 16319-0 VENANGO,RR 1 BOX 99B,CRANBERRY,,2713121,ERIC R BAYLOR,OWNER,RR 1 BOX 99B CRANBERRY PA 16319-0 VENANGO,
"PHL NATIONAL TRADE, INC.",CORPORATION,PA,4744 PENNELL RD,ASTON,19014,PA,4744 PENNELL ROAD,ASTON,19014,2713123,HARRY NGO,TREASURER,4744 PENNELL ROAD ASTON PA 19014 DELAWARE,4744 PENNELL RD ASTON PA 19014-1864
L.A.G. SALES COMPANY,CORPORATION,PA,,,,PA 15233-0 ALLEGHENY,1106 REEDSDALE ST STE 201,PITTSBURGH,,2713124,HOCKEY DEVELOPMENT CORPORATION,OWNER,1106 REEDSDALE ST STE 201 PITTSBURGH PA 15233-0 ALLEGHENY,
"RHETWING, INC.",CORPORATION,PA,86 ROCK STREET,LEHIGHTON,18235-0,PA,4740 LONG RUN RD,LEHIGHTON,18235-0,2713125,DONNA M FOWLER,TREASURER,4740 LONG RUN RD LEHIGHTON PA 18235-0 CARBON,86 ROCK STREET LEHIGHTON PA 18235-13
"NORTHERN COMMERCIAL SERVICE, INC.",CORPORATION,PA,709 PERRY HIGHWAY,PITTSBURGH,,PA 15229-0 ALLEGHENY,709 PERRY HIGHWAY,PITTSBURGH,,2713126,ARCH W MILLER,PRESIDENT,709 PERRY HIGHWAY PITTSBURGH PA 15229-0 ALLEGHENY,709 PERRY HIGHWAY PITTSBURGH PA 15229-02
SEWICKLEY SYSTEMS GROUP,CORPORATION,PA,,,,PA 15212-0 ALLEGHENY,3801 WEALTH ST APT #1,PITTSBURGH,,2713127,EDWARD SMALL,OWNER,3801 WEALTH ST APT #1 PITTSBURGH PA 15212-0 ALLEGHENY,
MAC'S PLACE,CORPORATION,PA,,,,PA 15642-0 WESTMORELAND,1837 GRANDVIEW AVE,IRWIN,,2713128,CANDY SMOGER,OWNER,1837 GRANDVIEW AVE IRWIN PA 15642-0 WESTMORELAND,
"D & L ARROWS, INC.",CORPORATION,PA,RR 2 BOX 1011,NEW ALEXANDRIA,,PA 15670-0 WESTMORELAND,RD 2 BOX 1011,NEW ALEXANDRIA,,2713129,LINDA J SMITH,TREASURER,RD 2 BOX 1011 NEW ALEXANDRIA PA 15670-0 WESTMORELAND,RR 2 BOX 1011 NEW ALEXANDRIA PA 15670-65
WANNA BEARS,CORPORATION,PA,,,,PA 19095-0 MONTGOMERY,406 E GLENSIDE AVE,WYNCOTE,,2713130,ARTISTS AGAINST ABUSE INC,OWNER,406 E GLENSIDE AVE WYNCOTE PA 19095-0 MONTGOMERY,
"GREENE CUSTOM HOMES, INC.",CORPORATION,PA,554 AUSTIN ST,GREENSBURG,,PA 15601-0 WESTMORELAND,240 WYOMING ST,GREENSBURG,,2713131,KEVIN B GREENE,TREASURER,240 WYOMING ST GREENSBURG PA 15601-0 WESTMORELAND,554 AUSTIN ST GREENSBURG PA 15601-4900
READING MEDICAL WEST,CORPORATION,PA,,,,PA,6-A PARKSIDE AVE,SHILLINGTON,19607-1198,2713132,WEBB MEDICAL SYSTEMS INC,OWNER,6-A PARKSIDE AVE SHILLINGTON PA 19607-1198 BERKS,
"FLY FISHING FOREVER, INC.",CORPORATION,PA,J.GREASER \0 E. CHURCH ROAD,TELFORD,,PA 19440-0 MONTGOMERY,715A FORTY FOOT RD,HATFIELD,,2713133,JONATHAN G GREASER,TREASURER,715A FORTY FOOT RD HATFIELD PA 19440-0 MONTGOMERY,J.GREASER \0 E. CHURCH ROAD TELFORD PA 18969-46
EASTERN COSMETIC SURGERY INSTITUTE,CORPORATION,PA,,,,,,,,2713134,TIMOTHY M GRECO MD PC,OWNER,122 LANKENAU MEDICAL BLDG S 1OO LANCASTER AVE WYNNEWOOD PA 19096-0 MONTGOMERY,
"SCHOOLHOUSE SWEETS, INC.",CORPORATION,PA,2344 E ROCK RD,PERKASIE,,PA,SCHOOLHOUSE RD & BETHLEHEM PIKE,TELFORD,,2713135,JENNIFER CRAWFORD,PRESIDENT,SCHOOLHOUSE RD & BETHLEHEM PIKE TELFORD PA 18969-0 BUCKS,2344 E ROCK RD PERKASIE PA 18944-2002
SONGFINDER MUSIC,CORPORATION,PA,,,,PA 15228-0 ALLEGHENY,351 ATLANTA DR,PITTSBURGH,,2713136,PATRICIA A TRAVIS,OWNER,351 ATLANTA DR PITTSBURGH PA 15228-0 ALLEGHENY,
"BALTIC BUILDERS, INC.",CORPORATION,PA,5927 MICHAEL DR,C/O ANDREW TYRA BENSALEM,,PA,5927 MICHAEL DR,BENSALEM,,2713137,ANDREW TYRA,PRESIDENT,5927 MICHAEL DR BENSALEM PA 19020-0 BUCKS,5927 MICHAEL DR C/O ANDREW TYRA BENSALEM PA 19020-09
COLONIAL DELUXE CLEANERS,CORPORATION,PA,,,,PA 19106-0 PHILADELPHIA,64 N 3RD ST,PHILADELPHIA,,2713140,WAYNE J WHITTAKER,OWNER,64 N 3RD ST PHILADELPHIA PA 19106-0 PHILADELPHIA,
MAINTENANCE AND GENERAL SERVICE COMPANY,CORPORATION,PA,,,,PA 18603-0 COLUMBIA,1101 E 16TH ST,BERWICK,,2713141,MEDICAL GAS SERVICES INC,OWNER,1101 E 16TH ST BERWICK PA 18603-0 COLUMBIA,
DIBERT CONSTRUCTION,CORPORATION,PA,,,,PA,1038 HOWARD AVE (PO BOX 229,SIDMAN,15955),2713142,MICHAEL DIBERT,OWNER,1038 HOWARD AVE (PO BOX 229 SIDMAN PA 15955) BEAVERDALE PA 15921-0 CAMBRIA,
AFFORDABLE TREE EXPERTS,CORPORATION,PA,,,,PA,686 2ND,ST PIKE SOUTHAMPTON,,2713143,RICH MIDTHASSEL,OWNER,686 2ND ST PIKE SOUTHAMPTON PA 18966-0 BUCKS,
THE SETTLE-IN,CORPORATION,PA,,,,PA 17370-0 YORK,2955 GRANDVIEW DR,YORK HAVEN,,2713144,MORRELL SIPE,OWNER,2955 GRANDVIEW DR YORK HAVEN PA 17370-0 YORK,
STRASBURG COUNTRY CORNER,CORPORATION,PA,,,,PA 17579-0 LANCASTER,300 N STAR RD,STRASBURG,,2713145,PATRICIA A BITTS,OWNER,300 N STAR RD STRASBURG PA 17579-0 LANCASTER,
I DO SHOPPE,CORPORATION,PA,,,,PA 15666-0 WESTMORELAND,333 MAIN ST MT,PLEASANT,,2713146,KELLY M MURPHY,OWNER,333 MAIN ST MT PLEASANT PA 15666-0 WESTMORELAND,
CONVENIENT CARE,CORPORATION,PA,,,,PA 15717-0 INDIANA,RD 4 BOX 392,BLAIRSVILLE,,2713147,REBECCA SPADE,OWNER,RD 4 BOX 392 BLAIRSVILLE PA 15717-0 INDIANA,
THE VILLAGE GREENERY,CORPORATION,PA,,,,PA 18643-0 LUZERNE,620 WYOMING AVE,WEST PITTSTON,,2713148,CHERYL L BUTERA,OWNER,620 WYOMING AVE WEST PITTSTON PA 18643-0 LUZERNE,
D & H ASPHALT SEAL COATING,CORPORATION,PA,,,,PA 18640-0 LUZERNE,63 MAIN ST,PITTSTON,,2713149,MARK A LAVERDI,OWNER,63 MAIN ST PITTSTON PA 18640-0 LUZERNE,
MAD NOMAD,CORPORATION,PA,,,,,,,,2713150,JAMES R BEVAN,OWNER,2780 ALNWICK RD PO BOX 715 BRYN ATHYN PA 19009-0 MONTGOMERY,
GENEALOGY BOOKS,CORPORATION,PA,,,,PA 18219-0 LUZERNE,288 MAIN ST,CONYNGHAM,,2713151,ROGAN H MOORE,OWNER,288 MAIN ST CONYNGHAM PA 18219-0 LUZERNE,
PAYNE & CHESTNUT EXCAVATING,CORPORATION,PA,,,,PA 17370-0 YORK,3600 OLD TRAIL RD,YORK HAVEN,,2713152,DUSTIN T CHESTNUT,OWNER,3600 OLD TRAIL RD YORK HAVEN PA 17370-0 YORK,
CJF ENTERPRISES,CORPORATION,PA,,,,PA,116 GERALD AVE,SHILLINGTON,,2713154,JENNIFER A HOON,OWNER,116 GERALD AVE SHILLINGTON PA 19607-0 BERKS,
THE CHIROPRACTIC WELLNESS CENTER,CORPORATION,PA,,,,,,,,2713155,LORI PUSKAR DC,OWNER,160 AIRPORT RD BLDG B HAZLETON PA 18201-0 LUZERNE,
INTERACTIVE RECRUITMENT SOLUTIONS,CORPORATION,PA,,,,PA,3440 LEHIGH ST STE 281,ALLENTOWN,18103-0,2713156,INGRID BAREFIELD,OWNER,3440 LEHIGH ST STE 281 ALLENTOWN PA 18103-0 LEHIGH,
D'N'R CONSULTING,CORPORATION,PA,,,,PA 18834-0 SUSQUEHANNA,286 MAIN ST PO BOX 779,NEW MILFORD,,2713157,WARREN R KRAMER,OWNER,286 MAIN ST PO BOX 779 NEW MILFORD PA 18834-0 SUSQUEHANNA,
A & D HOME IMPROVEMENT,CORPORATION,PA,,,,PA 17701-0 LYCOMING,1835 HAYES AVE,WILLIAMSPORT,,2713158,DONALD H ROAN JR,OWNER,1835 HAYES AVE WILLIAMSPORT PA 17701-0 LYCOMING,
LASTING IMAGES,CORPORATION,PA,,,,PA 18834-0 SUSQUEHANNA,286 MAIN ST PO BOX 779,NEW MILFORD,,2713159,WARREN R KRAMER,OWNER,286 MAIN ST PO BOX 779 NEW MILFORD PA 18834-0 SUSQUEHANNA,
D'N'R CRAFTS,CORPORATION,PA,,,,PA 18834-0 SUSQUEHANNA,286 MAIN ST PO BOX 779,NEW MILFORD,,2713160,WARREN R KRAMER,OWNER,286 MAIN ST PO BOX 779 NEW MILFORD PA 18834-0 SUSQUEHANNA,
KIM BEAUTY COLLEGE,CORPORATION,PA,,,,PA 19125-0 PHILADELPHIA,2554-56 KENSINGTON AVE,PHILADELPHIA,,2713161,KIM HONG THI NGUYE,OWNER,2554-56 KENSINGTON AVE PHILADELPHIA PA 19125-0 PHILADELPHIA,
K & K DESIGNS,CORPORATION,PA,,,,PA 19363-0 CHESTER,6602 BALTIMORE PIKE,OXFORD,,2713163,KIMBERLY BLAKEY,OWNER,6602 BALTIMORE PIKE OXFORD PA 19363-0 CHESTER,
"FOUR SEASONS TRAVEL AGENCY, INC.",CORPORATION,PA,118 MAIN ST,PARKESBURG,,PA 19365-0 CHESTER,RD #1 BOX #4,PARKESBURG,,2713164,JILL ESHLEMAN,PRESIDENT,RD #1 BOX #4 PARKESBURG PA 19365-0 CHESTER,118 MAIN ST PARKESBURG PA 19365-1128
"CREATIVE WRITING FOR BUSINESS, INC.",CORPORATION,PA,473 PINECREST RD,SPRINGFIELD,19116,PA,1262 SOUITHAMPTON ROAD,PHILADELPHIA,19116,2713165,ROBERT I GIULIANO,PRESIDENT,1262 SOUITHAMPTON ROAD PHILADELPHIA PA 19116 PHILADELPHIA,473 PINECREST RD SPRINGFIELD PA 19064-3311
"M & T HOMES, INC.",CORPORATION,PA,1106 LIZARD CREEK,LEHIGHTON,18030-0,PA,322 WHITE ST,BOWMANSTOWN,18030-0,2713167,TERRY BONO,PRESIDENT,322 WHITE ST BOWMANSTOWN PA 18030-0 CARBON,1106 LIZARD CREEK LEHIGHTON PA 18235-13
"TONY'S AUTO SALES & SERVICE, INC.",CORPORATION,PA,4571 OLD,PITTSBURGH RO WAMPUM,,,,,,2713168,ANTHONY SOTIRIOU,TREASURER,RR-2 BOX 2148-D WAMPUM PA 16157-0 LAWRENCE,4571 OLD PITTSBURGH RO WAMPUM PA 16157-37
KIMMEL CORP.,CORPORATION,PA,STE 3800 1735 MARKET ST,PHILADELPHIA,,PA 19103-0 PHILADELPHIA,1735 MARKET ST STE 3800,PHILADELPHIA,,2713169,SIDNEY KIMMEL,TREASURER,1735 MARKET ST STE 3800 PHILADELPHIA PA 19103-0 PHILADELPHIA,STE 3800 1735 MARKET ST PHILADELPHIA PA 19103-51
INDEPENDENT REHABILITATION CONSULTANTS,CORPORATION,PA,,,,PA,405 ALLEGHENY ST,HOLLIDAYSBURG,,2713170,DIANNE S RUDEL,OWNER,405 ALLEGHENY ST HOLLIDAYSBURG PA 16648-0 BLAIR,
DUNBAR ROOFING & SIDING CO.,CORPORATION,PA,601,BERWYN,,PA 19312-0 CHESTER,601,BERWYN,,2713171,DENNIS F DUNBAR,TREASURER,601 BERWYN AVE BERWYN PA 19312-0 CHESTER,601 BERWYN AVE BERWYN PA 19312-1608
"SELAH MINISTRIES, INC.",NONPROFIT,PA,,,,,,,,2713172,,,%CORPORATION SERVICE COMPANY DAUPHIN,
UCS (ULTIMATE CAD SOLUTIONS),CORPORATION,PA,,,,PA,226 VIRGINIA AVE,WHITEHALL,18052-0,2713175,WENDY MEYERS,OWNER,226 VIRGINIA AVE WHITEHALL PA 18052-0 LEHIGH,
SPEEDY CARPET CLEAN,CORPORATION,PA,,,,PA 19143-0 PHILADELPHIA,5951 WARRINGTON AVE,PHILADELPHIA,,2713177,JOHN SEWELL,OWNER,5951 WARRINGTON AVE PHILADELPHIA PA 19143-0 PHILADELPHIA,
V.I.P. MAGAZINE,CORPORATION,PA,,,,PA 19026-0 DELAWARE,4032 LASHER RD,DREXEL HILL,,2713178,JHL PUBLISHING INC,OWNER,4032 LASHER RD DREXEL HILL PA 19026-0 DELAWARE,
PHOTERRIFIC,CORPORATION,PA,,,,PA 15212-0 ALLEGHENY,957 STANFORD RD,PITTSBURGH,,2713179,MARK SKINGER,OWNER,957 STANFORD RD PITTSBURGH PA 15212-0 ALLEGHENY,
OFF TRACK SOUVENIRS,CORPORATION,PA,,,,PA 18603-0 COLUMBIA,RT 11 RD #1 BOX 1825,BERWICK,,2713180,PAMELA SPENCER PIATT,OWNER,RT 11 RD #1 BOX 1825 BERWICK PA 18603-0 COLUMBIA,
COMPUSONIC TECHNOLOGIES,CORPORATION,PA,,,,PA 17201-0 FRANKLIN,25 WARWICK DR,CHAMBERSBURG,,2713181,MICHAEL S BROWN,OWNER,25 WARWICK DR CHAMBERSBURG PA 17201-0 FRANKLIN,
AARDVARK EXTERMINATING,CORPORATION,PA,,,,PA,124 BEECHWOOD AVE PO BOX 381,WHEATLAND,16161-381,2713182,DANIEL L VAN HORN,OWNER,124 BEECHWOOD AVE PO BOX 381 WHEATLAND PA 16161-381 MERCER,
ROSEMARY'S GARDEN-HOUSE OF HERBS AND SPICES,CORPORATION,PA,,,,PA 15068-0 WESTMORELAND,1040 KNOLLWOOD RD,NEW KENSINGTON,,2713183,GRETCHEN J SCHMITT,OWNER,1040 KNOLLWOOD RD NEW KENSINGTON PA 15068-0 WESTMORELAND,
LEHIGH VALLEY SIGN & DESIGN,CORPORATION,PA,,,,PA,1302 N IRVING ST,ALLENTOWN,18103-0,2713184,VALLEY FASTENERS INC,OWNER,1302 N IRVING ST ALLENTOWN PA 18103-0 LEHIGH,
GREENE MOTELS LIMITED PARTNERSHIP,PARTNERSHIP,PA,,,15370-0,PA,1 COMFORT LANE,WAYNESBURG,15370-0,2713185,WILLISON MCNAY CORPORATION,GENPARTNER,1 COMFORT LANE WAYNESBURG PA 15370-0 GREENE,PA
CLAUDIA'S CREATIONS,CORPORATION,PA,,,,PA,110 INWOOD AVE,CARMICHAELS,15320-0,2713186,CLAUDIA J SHIPLEY,OWNER,110 INWOOD AVE CARMICHAELS PA 15320-0 GREENE,
GRANDVIEW ASSOCIATES SHOPPING CENTER L.P.,PARTNERSHIP,PA,,,,,,,,2713187,GRANDVIEW REALTY ASSOCIATES INC,GENPARTNER,%CORPORATION SERVICE COMPANY BUCKS,PA
"NORTH ABINGTON REALTY PARTNERS, L.P.",PARTNERSHIP,PA,636 OLD YORK ROAD,JENKINTOWN,19046,PA,636 OLD YORK RD,SECOND FLOOR JENKINTOWN,19046,2713188,NORTH ABINGTON GP LLC,GENPARTNER,636 OLD YORK RD SECOND FLOOR JENKINTOWN PA 19046 MONTGOMERY,636 OLD YORK ROAD JENKINTOWN PA 19046
"CHADWELL ASSOCIATES, L.P.",PARTNERSHIP,PA,,,,,,,,2713190,"CHADWELL REALTY, INC.",GENPARTNER,1595 PAOLI PIKE WEST CHESTER PA 19380-0 CHESTER,PA
"ATWELL ASSOCIATES, L.P.",PARTNERSHIP,PA,,,,,,,,2713191,"ATWELL REALTY, INC.",GENPARTNER,1595 PAOLI PIKE WEST CHESTER PA 19380-0 CHESTER,PA
"PERCIBALLI & WILLIAMS, LLC",LLC,PA,,,,PA 17701-0 LYCOMING,429 MARKET ST,WILLIAMSPORT,,2713194,,,429 MARKET ST WILLIAMSPORT PA 17701-0 LYCOMING,
HOLIDAY SPIRIT INC.,CORPORATION,PA,18 COLORADO AVE,SINKING SPRING,,,,,,2713195,MICHAEL J KUFRO,PRESIDENT,% MICHAEL J KUFRO 2876-B WILSON SCHOOL COURT SINKING SPRING PA 19608-0 BERKS,18 COLORADO AVE SINKING SPRING PA 19608-9363
"CAST ALUMINUM TECHNOLOGY, INC.",CORPORATION,PA,15 STONE HEDGE DR,LEBANON,17042,PA,15 STONE HEDGE DR,LEBANON,17042,2713196,SHELIA M FAIR,TREASURER,15 STONE HEDGE DR LEBANON PA 17042 LEBANON,15 STONE HEDGE DR LEBANON PA 17042-38
"SOLVAY FLUORIDES, INC.",CORPORATION,DE,3333 RICHMOND AVE,HOUSTON,,,,,,2713197,VANCE ERICKSON,VICEPRESIDENT,C/O CORPORATION SERVICE COMPANY PA DAUPHIN,3333 RICHMOND AVE HOUSTON TX 77098-3007
CITADEL OF FAITH EVANGELISTIC CHURCH,NONPROFIT,PA,,,,PA 19132-0 PHILADELPHIA,3139 N 15TH ST,PHILADELPHIA,,2713202,,,3139 N 15TH ST PHILADELPHIA PA 19132-0 PHILADELPHIA,
UNISTED MORTGAGE SERVICES,CORPORATION,PA,,,,,,,,2713203,JAY M BERGER,OWNER,211 CORNELL DR BRYN MAWR PA 19010-0 DELAWARE,
SANDWICH MILL,CORPORATION,PA,,,,PA 19443-0 MONTGOMERY,1700 SUMNEYTOWN PO BOX 1299,KULPSVILLE,,2713204,KULPSVILLE TOWN CENTER INC,OWNER,1700 SUMNEYTOWN PO BOX 1299 KULPSVILLE PA 19443-0 MONTGOMERY,
PA HA'S CAFE,CORPORATION,PA,,,,PA 16214-0 CLARION,507 MAIN ST,CLARION,,2713205,HOLLY ASKARI,OWNER,507 MAIN ST CLARION PA 16214-0 CLARION,
DAWNETTE,CORPORATION,PA,,,,PA 16240-0 CLARION,RR 1 BOX 6A,MAYPORT,,2713206,EVERETT STAHLMAN,OWNER,RR 1 BOX 6A MAYPORT PA 16240-0 CLARION,
"""HARVEST TIME"" SPORT AND TAXIDERMY",CORPORATION,PA,,,,PA,13255 RT 6,CORRY,,2713207,DUANE L VANDERHOOF,OWNER,13255 RT 6 CORRY PA 16407-0 ERIE,
PROFESSIONAL HEALTH NETWORK,CORPORATION,PA,,,,PA 19012-0 MONTGOMERY,% LEGAL DEPARTMENT 100 W LAUREL AVE,CHELTENHAM,,2713208,ALLEGHENY INTEGRATED HEALTH GROUP,OWNER,% LEGAL DEPARTMENT 100 W LAUREL AVE CHELTENHAM PA 19012-0 MONTGOMERY,
"CHRISTINA ENTERPRISES, INC.",CORPORATION,PA,243 DICKINSON ST,PHILADELPHIA,,PA 19147-0 PHILADELPHIA,243 DICKINSON ST,PHILADELPHIA,,2713209,ROBERT PIRELLO,PRESIDENT,243 DICKINSON ST PHILADELPHIA PA 19147-0 PHILADELPHIA,243 DICKINSON ST PHILADELPHIA PA 19147-51
RENNIE HARRIS PURE MOVEMENT,NONPROFIT,PA,,,,PA,326 LAUREL RD,SHARON HILL,19079,2713210,,,326 LAUREL RD SHARON HILL PA 19079 DELAWARE,
"PREMIER MANAGEMENT SERVICES, INC.",CORPORATION,PA,PO BOX 914,OAKS,19010,PA,935 LAFAYETTE RD,BRYN MAWR,19010,2713211,JOSEPH GRECO,TREASURER,935 LAFAYETTE RD BRYN MAWR PA 19010 MONTGOMERY,PO BOX 914 OAKS PA 19456-0914
"PHETA, INC.",CORPORATION,PA,4557 ASH DR,NAZARETH,,PA,9 SCENIC DR,BERNVILLE,,2713212,SAMUEL SAVOCA,PRESIDENT,9 SCENIC DR BERNVILLE PA 19506-0 BERKS,4557 ASH DR NAZARETH PA 18064-48
"MARSH CREEK EAGLES, INC.",NONPROFIT,PA,,,,PA 19335-0 CHESTER,116 SKYLINE DR,DOWNINGTOWN,,2713213,,,116 SKYLINE DR DOWNINGTOWN PA 19335-0 CHESTER,
"JOHN H. CASSEL JR., INC.",CORPORATION,PA,817 S BROAD ST,LANSDALE,,PA 19446-0 MONTGOMERY,817 S BROAD ST,LANSDALE,,2713214,MERRI F CASSEL,TREASURER,817 S BROAD ST LANSDALE PA 19446-0 MONTGOMERY,817 S BROAD ST LANSDALE PA 19446-46
DARRELL A. YOUNG CORPORATION,CORPORATION,OH,STE 9201801 E 9TH ST,CLEVELAND,,,,,,2713218,JONATHON SHANES,PRESIDENT,%CT CORPORATION SYSTEM PHILADELPHIA,STE 9201801 E 9TH ST CLEVELAND OH 44114-3103
"JANRO COTTAGE, INC.",CORPORATION,PA,1832 MARKET,ST CAMP HILL,,PA 17011-0 CUMBERLAND,312 N 26TH,ST CAMP HILL,,2713219,ROBIN E BALABAN,PRESIDENT,312 N 26TH ST CAMP HILL PA 17011-0 CUMBERLAND,1832 MARKET ST CAMP HILL PA 17011-21
"BDS PROPERTIES, INC.",CORPORATION,PA,STE 829 225 S 15TH ST,PHILADELPHIA,19102,PA,1518 WALNUT ST #1401,PHILADELPHIA,19102,2713220,BRUCE D SELDMAN,TREASURER,1518 WALNUT ST #1401 PHILADELPHIA PA 19102 PHILADELPHIA,STE 829 225 S 15TH ST PHILADELPHIA PA 19102-51
"COLORTYME, INC.",CORPORATION,TX,STE 2105000 LEGACY DR,PLANO,,,,,,2713221,RONALD D DEMOSS,SECRETARY,%CT CORPORATION SYSTEM PHILADELPHIA,STE 2105000 LEGACY DR PLANO TX 75024-3181
"CLUB RESOURCE, INC.",CORPORATION,PA,STE 323C 150 RIDGE PIKE,LAFAYETTE HILL,,PA 19444-0 MONTGOMERY,150 RIDGE PIKE STE 323C,LAFAYETTE HILL,,2713222,JOHN A MULDOON,TREASURER,150 RIDGE PIKE STE 323C LAFAYETTE HILL PA 19444-0 MONTGOMERY,STE 323C 150 RIDGE PIKE LAFAYETTE HILL PA 19444-46
"METROPOLITAN STAFFING, INC.",CORPORATION,PA,2065 COUNTRY CLUB DR,DOYLESTOWN,,PA,2065 COUNTRY CLUB DR,DOYLESTOWN,,2713223,ROSEMARY C LORING,PRESIDENT,2065 COUNTRY CLUB DR DOYLESTOWN PA 18901-0 BUCKS,2065 COUNTRY CLUB DR DOYLESTOWN PA 18901-5908
"AVENUE VALET, INC.",CORPORATION,PA,APT B8 1801 EVARTS ST,PHILADELPHIA,,PA 19152-0 PHILADELPHIA,1801 EVARTS ST APT B-8,PHILADELPHIA,,2713224,ARTHUR S BEITCHMAN,TREASURER,1801 EVARTS ST APT B-8 PHILADELPHIA PA 19152-0 PHILADELPHIA,APT B8 1801 EVARTS ST PHILADELPHIA PA 19152-51
"PREMIER CONSTRUCTION & MAINTENANCE, INC.",CORPORATION,PA,PO BOX 204,SELLERSVILLE,,PA,203 N MAIN ST,SELLERSVILLE,,2713225,JOHN T KRAMME,TREASURER,203 N MAIN ST SELLERSVILLE PA 18960-0 BUCKS,PO BOX 204 SELLERSVILLE PA 18960-09
"ANNIE'S PRETZEL COMPANY, INC.",CORPORATION,PA,1 INDEPENDENCE MALL 615 CHETNUT ST 17 FLR,PHILADELPHIA,,,,,,2713227,TARA MCFILLIN,TREASURER,1 INDEPENDENCE MALL 17TH FLOOR 615 CHESTNUT ST PHILADELPHIA PA 19106-0 PHILADELPHIA,1 INDEPENDENCE MALL 615 CHETNUT ST 17 FLR PHILADELPHIA PA 19106-51
NET-TEL CORPORATION,CORPORATION,FL,1819 H ST NW,WASHINGTON,,,,,,2713228,JAMES F KENEFICK,PRESIDENT,%CT CORPORATION SYSTEM PHILADELPHIA,1819 H ST NW WASHINGTON DC 20006
"BLUEBIRD II, INC.",CORPORATION,PA,,,,,,,,2713229,,,RT 11 FACTORYVILLE PA 18419-0 WYOMING,
ET BLUE GRASS COMPANY,CORPORATION,DE,STE 1700625 LIBERTY AVE,PITTSBURGH,,,,,,2713231,WILLIAM R LUCAS,VICEPRESIDENT,%CT CORPORATION SYSTEM ALLEGHENY,STE 1700625 LIBERTY AVE PITTSBURGH PA 15222-3114
"PMZ, INC.",CORPORATION,PA,101 N PENNSYLVANIA AVE,MORRISVILLE,,PA,101 N PA AVE,MORRISVILLE,,2713232,ROBERT GRAU,PRESIDENT,101 N PA AVE MORRISVILLE PA 19067-0 BUCKS,101 N PENNSYLVANIA AVE MORRISVILLE PA 19067-09
"CLEANING EXPRESS, INC.",CORPORATION,PA,178 E 6TH ST,WYOMING,,PA 18644-0 LUZERNE,178 E 6TH ST,WYOMING,,2713233,FRANCIS P YUREK,TREASURER,178 E 6TH ST WYOMING PA 18644-0 LUZERNE,178 E 6TH ST WYOMING PA 18644-2031
MR. D'S ITALIAN WATER ICE,CORPORATION,PA,,,,PA 19073-0 DELAWARE,3609 CHAPEL RD,NEWTOWN SQUARE,,2713234,TRI-COUNTY TRANSPORT INC,OWNER,3609 CHAPEL RD NEWTOWN SQUARE PA 19073-0 DELAWARE,
A TOUCH OF CRAFTS,CORPORATION,PA,,,,PA,901 PERRY ST,ELLWOOD CITY,16117-0,2713235,LORI HUFFMAN,OWNER,901 PERRY ST ELLWOOD CITY PA 16117-0 BEAVER,
"AMERICAN MAILROOM & CHECKCASHING, INC.",CORPORATION,PA,421 MONTGOMERY AVE,MERION STA,,PA 18042-0 NORTHAMPTON,FIRST UNION BANK BLDG 6 S 3RD ST STE 508,EASTON,,2713236,LARRY SHUSTERMAN,TREASURER,FIRST UNION BANK BLDG 6 S 3RD ST STE 508 EASTON PA 18042-0 NORTHAMPTON,421 MONTGOMERY AVE MERION STA PA 19066-46
PREMIER HOUSEKEEPING,CORPORATION,PA,,,,PA 15116-0 ALLEGHENY,2010 CLEARVIEW RD,GLENSHAW,,2713237,ROBERT A WOLAS,OWNER,2010 CLEARVIEW RD GLENSHAW PA 15116-0 ALLEGHENY,
TALENT CONNECTION,CORPORATION,PA,,,,PA 19026-0 DELAWARE,534 BURMONT RD 2ND FLOOR,DREXEL HILL,,2713238,SHAWN HAMM,OWNER,534 BURMONT RD 2ND FLOOR DREXEL HILL PA 19026-0 DELAWARE,
EXECUTIVE LAWNCARE & SPECIALTIES,CORPORATION,PA,,,,PA 16143-0 LAWRENCE,RD1 BOX 1746,PULASKI,,2713239,WILLIAM R HOGUE,OWNER,RD1 BOX 1746 PULASKI PA 16143-0 LAWRENCE,
KEY HOME EQUITY SERVICES,CORPORATION,PA,,,,,,,,2713240,KEYCORP FINANCE INC,OWNER,8000 MIDLANTIC DR STE 110 SOUTH MT LAUREL PA 8054 -0,
SPRINT PCS,CORPORATION,PA,,,,PA 15276-0 ALLEGHENY,PENN CENTER WEST STE 200,PITTSBURGH,,2713241,SPRINT SPECTRUM LP,OWNER,PENN CENTER WEST STE 200 PITTSBURGH PA 15276-0 ALLEGHENY,
"HOSTETTER GRAIN, INC.",CORPORATION,PA,481 LIMESTONE RD,OXFORD,19363-0,PA,4101 HAYESVILLE CREAM RD,OXFORD,19363-0,2713242,WILMER L HOSTETTER,PRESIDENT,4101 HAYESVILLE CREAM RD OXFORD PA 19363-0 CENTRE,481 LIMESTONE RD OXFORD PA 19363-1293
"CYPRUS, INC.",CORPORATION,PA,1313 W 38TH ST,ERIE,,PA,1313 W 38TH ST,ERIE,,2713243,CINDY NOWAKOWSKI,TREASURER,1313 W 38TH ST ERIE PA 16508-0 ERIE,1313 W 38TH ST ERIE PA 16508-2461
GRAVEYARD ENTERPRISES INCORPORATED,CORPORATION,PA,2333 KELLER ROAD,SAINT THOMAS,,PA 17222-0 FRANKLIN,2454 SMOKETOWN RD,FAYETTEVILLE,,2713244,JAMES R FRY,PRESIDENT,2454 SMOKETOWN RD FAYETTEVILLE PA 17222-0 FRANKLIN,2333 KELLER ROAD SAINT THOMAS PA 17252-28
"L & Y DELI MARKET, INC.",CORPORATION,PA,34 S 11TH ST,PHILADELPHIA,,PA 19107-0 PHILADELPHIA,34 S 11TH ST,PHILADELPHIA,,2713245,KWANG H LEE,TREASURER,34 S 11TH ST PHILADELPHIA PA 19107-0 PHILADELPHIA,34 S 11TH ST PHILADELPHIA PA 19107-51
"HOFFMAN DESIGN GROUP, INC.",CORPORATION,PA,900 CARPENTERS XING,FOLCROFT,,PA 19014-0 DELAWARE,10 CROZERVILLE RD,ASTON,,2713246,BRYAN HOFFMAN,PRESIDENT,10 CROZERVILLE RD ASTON PA 19014-0 DELAWARE,900 CARPENTERS XING FOLCROFT PA 19032-2021
"NEUDECKER DEVELOPMENT CORPORATION, INC.",CORPORATION,PA,538 BRADFORD AVE,WARRINGTON,,PA,538 BRADFORD AVE,WARRINGTON,,2713247,KENNETH W NEUDECKER,TREASURER,538 BRADFORD AVE WARRINGTON PA 18976-0 BUCKS,538 BRADFORD AVE WARRINGTON PA 18976-09
"FREDLANE ENTERPRISES, INC.",CORPORATION,PA,148 W KING STREET,WAYNESBORO,,PA 17268-0 FRANKLIN,7575 ANTHONY HWY,WAYNESBORO,,2713248,LANE I SPECTOR,TREASURER,7575 ANTHONY HWY WAYNESBORO PA 17268-0 FRANKLIN,148 W KING STREET WAYNESBORO PA 17268-28
"QUEENSGATE DENTAL PRACTICE, INC.",CORPORATION,PA,2087 SPRINGWOOD RD,YORK,,PA 17403-0 YORK,2081 SPRINGWOOD RD,YORK,,2713249,WILLIAM H CLOYD,PRESIDENT,2081 SPRINGWOOD RD YORK PA 17403-0 YORK,2087 SPRINGWOOD RD YORK PA 17403-4827
"KEYSTONE BUILDERS, INC.",CORPORATION,PA,325 JEFFERSON ST,BRIDGEPORT,,PA 19405-0 MONTGOMERY,325 JEFFERSON ST,BRIDGEPORT,,2713250,EDWARD LACHOWICZ,PRESIDENT,325 JEFFERSON ST BRIDGEPORT PA 19405-0 MONTGOMERY,325 JEFFERSON ST BRIDGEPORT PA 19405-46
"DAVID-RICHARD, INCORPORATED",CORPORATION,PA,704 E 4TH ST,BOYERTOWN,19512,PA,704 EAST FOURTH ST,BOYERTOWN,19512,2713251,RICHARD K HARMON JR,PRESIDENT,704 EAST FOURTH ST BOYERTOWN PA 19512 BERKS,704 E 4TH ST BOYERTOWN PA 19512-2120
"STANTECH, INC.",CORPORATION,PA,104 WALDEN WAY,IMPERIAL,,PA 15126-0 ALLEGHENY,104 WALDEN WAY,IMPERIAL,,2713252,STANLEY F SIRANOVICH,TREASURER,104 WALDEN WAY IMPERIAL PA 15126-0 ALLEGHENY,104 WALDEN WAY IMPERIAL PA 15126-02
"KLINE & MCYANG, PC",CORPORATION,PA,ONE OXFORD CENTRE 40 FC/O WESLEY YANG,PITTSBURGH,,,,,,2713253,WESLEY YANG,TREASURER,%CT CORPORATION SYSTEM ALLEGHENY,ONE OXFORD CENTRE 40 FC/O WESLEY YANG PITTSBURGH PA 15222-02
PARATEL INC,CORPORATION,PA,1945 BROADWAY SUITE 20B,NEW YORK,,PA 19046-0 MONTGOMERY,% ALEX RABEY 1040 COATES RD,MEADOWBROOK,,2713254,ALEX RABEY,PRESIDENT,% ALEX RABEY 1040 COATES RD MEADOWBROOK PA 19046-0 MONTGOMERY,1945 BROADWAY SUITE 20B NEW YORK NY 10023
"RELIANT TECHNOLOGIES, INC.",CORPORATION,PA,C/O BRIAN EVERETT PO BOX 893,COCHRANTON,,PA 16314-0 CRAWFORD,138 SMITH ST PO BOX 893,COCHRANTON,,2713255,GERARD D PRZYBYLEK,VICEPRESIDENT,138 SMITH ST PO BOX 893 COCHRANTON PA 16314-0 CRAWFORD,C/O BRIAN EVERETT PO BOX 893 COCHRANTON PA 16314-20
KINGDOM OF VEGETARIANS CHINESE RESTAURANT INC,CORPORATION,PA,2605 S HANCOCK ST,PHILADELPHIA,,,,,,2713256,SOK VONG,VICEPRESIDENT,129 N 11TH ST 1ST FL PHILADELPHIA PA 19107-0 PHILADELPHIA,2605 S HANCOCK ST PHILADELPHIA PA 19148-51
"GENERATIONS MARKETING, INC.",CORPORATION,PA,STE 21010 12TH,ST ALTOONA,,,,,,2713257,MARK L HELSEL,VICEPRESIDENT,536 WESTERLY PARK STATE COLLEGE PA 16801-0 CENTRE,STE 21010 12TH ST ALTOONA PA 16601-3471
"HOSTETTER MARKETS, INC.",CORPORATION,PA,481 LIMESTONE RD,OXFORD,,PA 19363-0 CHESTER,7900 LIMESTONE RD,OXFORD,,2713258,WILMER L HOSTETTER,PRESIDENT,7900 LIMESTONE RD OXFORD PA 19363-0 CHESTER,481 LIMESTONE RD OXFORD PA 19363-15
"S & S RECYCLING, INC.",CORPORATION,PA,540 BASIN DR,WINDBER,,PA 15531-0 SOMERSET,1011 KLINES MILL RD,BOSWELL,,2713260,EDWARD A USNIK,TREASURER,1011 KLINES MILL RD BOSWELL PA 15531-0 SOMERSET,540 BASIN DR WINDBER PA 15963-56
"PHILLIPS PROPERTIES, INC.",CORPORATION,PA,643 SUGAR RUN RD,MILL HALL,,,,,,2713262,CARL L PHILLIPS,TREASURER,RD #2 BOX 279 MILL HALL PA 17751-0 CLINTON,643 SUGAR RUN RD MILL HALL PA 17751-8579
"ATLANTIC REAL ESTATE INVESTORS, INC.",CORPORATION,PA,846 CHURCHVILLE RD,SOUTHAMPTON,,PA,846 CHURCHVILLE RD,UPPER SOUTH HAMPTON,,2713263,SARAH ANN SCHOLEK,TREASURER,846 CHURCHVILLE RD UPPER SOUTH HAMPTON PA 18966-0 BUCKS,846 CHURCHVILLE RD SOUTHAMPTON PA 18966-09
"VIRTUAL ROUTES, INC.",CORPORATION,PA,3813 NEW FRANKLIN RD,CHAMBERSBURG,,PA 17201-0 FRANKLIN,3813 NEW FRANKLIN RD,CHAMBERSBURG,,2713264,RANDY L BRENIZE,SECRETARY,3813 NEW FRANKLIN RD CHAMBERSBURG PA 17201-0 FRANKLIN,3813 NEW FRANKLIN RD CHAMBERSBURG PA 17201-28
"CARDIOTHORACIC AND VASCULAR SURGICAL ASSOCIATES, INC.",CORPORATION,PA,,,,PA 15224-0 ALLEGHENY,4815 LIBERTY AVE,PITTSBURGH,,2713265,,,4815 LIBERTY AVE PITTSBURGH PA 15224-0 ALLEGHENY,
S & T LIMITED FAMILY PARTNERSHIP,PARTNERSHIP,PA,,,,PA 15601-0 WESTMORELAND,109 CHESHIRE DR,GREENSBURG,,2713268,JOHN W CURNOW,GENPARTNER,109 CHESHIRE DR GREENSBURG PA 15601-0 WESTMORELAND,PA
THE CARLSON FAMILY LIMITED PARTNERSHIP,PARTNERSHIP,PA,,,16743-0,PA,302 E MILL ST PORT,ALLEGANY,16743-0,2713270,PHILIP L CARLSON JR,GENPARTNER,302 E MILL ST PORT ALLEGANY PA 16743-0 MCKEAN,PA
TROOPER MHP LIMITED PARTNERSHIP,PARTNERSHIP,PA,,,,PA 19403-0 MONTGOMERY,% EAGLE MANAGEMENT GROUP 2833 RIDGE PIKE,NORRISTOWN,,2713271,R PETER BRANDT,GENPARTNER,% EAGLE MANAGEMENT GROUP 2833 RIDGE PIKE NORRISTOWN PA 19403-0 MONTGOMERY,PA
M.E.I. GENERAL CONTRACTORS,CORPORATION,PA,,,,PA,8351 LEESBURG PIKE,VIENNA,22182-0,2713272,MINORITY ENTERPRISES INC,OWNER,8351 LEESBURG PIKE VIENNA PA 22182-0,
M.E.I. GENERAL CONTRACTORS,CORPORATION,NJ,1402 SHEPARD DR STE 101,STERLING,15059-0,PA,245 WILDWOOD RD,MIDLAND,15059-0,2713274,DAVID GIULIANI,PRESIDENT,245 WILDWOOD RD MIDLAND PA 15059-0 BEAVER,1402 SHEPARD DR STE 101 STERLING VA 20164
"AMERICAN HOMESTEAD COLLECTION, INC.",CORPORATION,DE,981 HWY 98 EAST UNIT 9,DESTIN,,PA,2150 KNECHT BRIDGE ROAD,SPRINGTOWN,,2713275,DAVID H WRIGHT,VICEPRESIDENT,2150 KNECHT BRIDGE ROAD SPRINGTOWN PA 18081-0 BUCKS,981 HWY 98 EAST UNIT 9 DESTIN FL 32541
"BEST BUSINESS SOLUTIONS, INC.",CORPORATION,NJ,STE 6,BROWNTWN OFFICE COMPLX OLD BRIDGE,,,,,,2713276,DOLLY PATEL,PRESIDENT,3440 LEIGH ST BAPT #224 ALLENTOWN PA 18103-0 LEHIGH,STE 6 BROWNTWN OFFICE COMPLX OLD BRIDGE NJ 08857
"CONSOLIDATED FINANCIAL INVESTMENTS, INC.",CORPORATION,DE,STE 17 5155 W WOODMILL DR,WILMINGTON,,,,,,2713277,ROBERT J KOSSAK,PRESIDENT,1700 SAMPSON ST 10TH FL PHILADELPHIA PA 19103-0 PHILADELPHIA,STE 17 5155 W WOODMILL DR WILMINGTON DE 19808
WOMEN'S INTERNATIONAL LEAGUE FOR PEACE AND FREEDOM - U.S. SECTION,NONPROFIT,PA,,,,,,,,2713282,,,"%AAAGENT SERVICES, LLC DAUPHIN",
"FAITH, HOPE, LOVE CHINESE CHURCH",NONPROFIT,PA,,,,,,,,2713283,,,TOWNSHIP LINE & CONCORD AVE HAVERTOWN PA 19083-0 DELAWARE,
ASIAN-AMERICAN CULTURAL SOCIETY,NONPROFIT,PA,,,,PA 19124-0 PHILADELPHIA,500 E LUZERNE ST,PHILADELPHIA,,2713284,,,500 E LUZERNE ST PHILADELPHIA PA 19124-0 PHILADELPHIA,
HEMPFIELD BRETHREN IN CHRIST CHURCH,NONPROFIT,PA,,,,PA 17601-0 LANCASTER,818 HILLAIRE RD,LANCASTER,,2713285,,,818 HILLAIRE RD LANCASTER PA 17601-0 LANCASTER,
TURBOTVILLE COMMUNITY HALL CORPORATION,NONPROFIT,PA,,,,PA,41 CHURCH ST,TURBOTVILLE,17772-0313,2713286,,,41 CHURCH ST TURBOTVILLE PA 17772-0313 NORTHUMBERLAND,
"INSTITUTE FOR CELTIC STUDIES IN AMERICA, INC.",NONPROFIT,PA,,,,PA 15102-0 ALLEGHENY,3266 APPEL RD,BETHEL PARK,,2713287,,,3266 APPEL RD BETHEL PARK PA 15102-0 ALLEGHENY,
"RENFREW COMMITTEE, INC.",NONPROFIT,PA,,,,PA 17268-0 FRANKLIN,1010 E MAIN ST,WAYNESBORO,,2713288,,,1010 E MAIN ST WAYNESBORO PA 17268-0 FRANKLIN,
ULTIMATE DELIGHTS CAFE,CORPORATION,PA,,,,PA,RT 115 & STATE RD,EFFORT,18330-0,2713290,ADEL A ATTIA,OWNER,RT 115 & STATE RD EFFORT PA 18330-0 MONROE,
WEST HAZLETON VETERINARY HOSPITAL,CORPORATION,PA,,,,PA 18201-0 LUZERNE,45 MONROE AVE,WEST HAZLETON,,2713291,VETERINARY CARE CENTER LLC,OWNER,45 MONROE AVE WEST HAZLETON PA 18201-0 LUZERNE,
IMAGE MATTERS,CORPORATION,PA,,,,,,,,2713292,KATHLEEN BUVEL-REILLY,OWNER,228 CORWEN TERRACE WEST CHESTER PA 19380-0 CHESTER,
EPICUREAN FOOD EQUIPMENT,CORPORATION,PA,,,,PA,349 JEFFERSON AVE STE 2,BRISTOL,,2713293,MARK D DEIBLER,OWNER,349 JEFFERSON AVE STE 2 BRISTOL PA 19007-0 BUCKS,
THE CHANGING CLOSET,CORPORATION,PA,,,,PA 16833-0 CLEARFIELD,568 STATE ST,CURWENSVILLE,,2713294,MICHELLE LEZZER,OWNER,568 STATE ST CURWENSVILLE PA 16833-0 CLEARFIELD,
R.J.'S MINI MART AND PIZZERIA,CORPORATION,PA,,,,PA 16102-0 LAWRENCE,2108 MORRIS ST,NEW CASTLE,,2713296,RICHARD J CAPPIELLO,OWNER,2108 MORRIS ST NEW CASTLE PA 16102-0 LAWRENCE,
LEIBY WHOLESALE,CORPORATION,PA,,,,PA 19341-0 CHESTER,611 N POTTSTOWN PIKE,EXTON,,2713297,BLOSSOM BOUTIQUE FLORIST INC,OWNER,611 N POTTSTOWN PIKE EXTON PA 19341-0 CHESTER,
B & J ELECTRONICS,CORPORATION,PA,,,,PA 15376-0 WASHINGTON,1035 MCGUFFEY RD,WEST ALEXANDER,,2713298,EUGENE F RUPERTO,OWNER,1035 MCGUFFEY RD WEST ALEXANDER PA 15376-0 WASHINGTON,
SIZE 13 MUSIC,CORPORATION,PA,,,,PA,57 SADDLEBROOK DR,NORTH WALES,19454-3633,2713299,DANIEL M EAST,OWNER,57 SADDLEBROOK DR NORTH WALES PA 19454-3633 MONTGOMERY,
GOLDFINGER'S THERAPEUTIC MASSAGE,CORPORATION,PA,,,,PA,131 S PUGH ST,STATE COLLEGE,16801-0,2713300,TIMOTHY PRESCOTT,OWNER,131 S PUGH ST STATE COLLEGE PA 16801-0 CENTRE,
PROBITY,CORPORATION,PA,,,,PA 19390-0 CHESTER,159 W EVERGREEN ST,WEST GROVE,,2713301,PROBITY INFORMATION TECHNOLOGIES CORPORA,OWNER,159 W EVERGREEN ST WEST GROVE PA 19390-0 CHESTER,
WHITE HAWK COMMUNICATIONS,CORPORATION,PA,,,,PA,232 YANKEE RD #247,QUAKERTOWN,,2713302,JEFF KULP,OWNER,232 YANKEE RD #247 QUAKERTOWN PA 18951-0 BUCKS,
UPLIFT ENTERPRISES,CORPORATION,PA,,,,PA 15717-0 INDIANA,111 KENDALL LANE,BLAIRSVILLE,,2713303,PHYLLIS KENDALL,OWNER,111 KENDALL LANE BLAIRSVILLE PA 15717-0 INDIANA,
PIVOTAL DESIGN,CORPORATION,PA,,,,PA 19106-0 PHILADELPHIA,423 SPRUCE ST #3,PHILADELPHIA,,2713304,JOSEPH G BRIN,OWNER,423 SPRUCE ST #3 PHILADELPHIA PA 19106-0 PHILADELPHIA,
FIT FOR A KID,CORPORATION,PA,,,,PA 15425-0 FAYETTE,127 N 8TH ST,CONNELLSVILLE,,2713305,PAMELA THOMAS,OWNER,127 N 8TH ST CONNELLSVILLE PA 15425-0 FAYETTE,
CANTERBURY TOURS,CORPORATION,PA,,,,PA 18411-0 LACKAWANNA,103 SEAN DR,CLARKS SUMMIT,,2713306,M SUSAN BREEN,OWNER,103 SEAN DR CLARKS SUMMIT PA 18411-0 LACKAWANNA,
SIDINGPROS,CORPORATION,PA,,,,PA 17055-0 CUMBERLAND,4 OSAGE WAY,MECHANICSBURG,,2713307,CHARLES R DORWART,OWNER,4 OSAGE WAY MECHANICSBURG PA 17055-0 CUMBERLAND,
JOHN'S CUSTOM PERFORMANCE,CORPORATION,PA,,,,PA 17067-0 LEBANON,RR #5 BOX 140,MYERSTOWN,,2713308,JOHN J SIMNISKIS JR,OWNER,RR #5 BOX 140 MYERSTOWN PA 17067-0 LEBANON,
PC STRATEGIES,CORPORATION,PA,,,,PA,1824-A N 3RD ST,HARRISBURG,17102-1816,2713311,STEVEN N BURNS,OWNER,1824-A N 3RD ST HARRISBURG PA 17102-1816 DAUPHIN,
SIZE THIRTEEN MUSIC,CORPORATION,PA,,,,PA,57 SADDLEBROOK DR,NORTH WALES,19454-3633,2713312,DANIEL M EAST,OWNER,57 SADDLEBROOK DR NORTH WALES PA 19454-3633 MONTGOMERY,
GENESIS CHIROPRACTIC CENTER,CORPORATION,PA,,,,PA 17078-0 LEBANON,1317 E MAIN ST,PALMYRA,,2713313,BRUCE L GINGRICH JR DC,OWNER,1317 E MAIN ST PALMYRA PA 17078-0 LEBANON,
SIDDHA YOGA MEDITATION CENTER OF PHILADELPHIA,CORPORATION,PA,,,,PA 19119-0 PHILADELPHIA,6429 WAYNE AVE,PHILADELPHIA,,2713315,SIDDHA YOGA DHAM AFFILI,OWNER,6429 WAYNE AVE PHILADELPHIA PA 19119-0 PHILADELPHIA,
FRANKLIN MEDICAL ASSOCIATES,CORPORATION,PA,,,,PA 17110-0 DAUPHIN,1800 LINGLESTOWN RD STE 307,HARRISBURG,,2713316,GRANT FRANKLIN KOHER,OWNER,1800 LINGLESTOWN RD STE 307 HARRISBURG PA 17110-0 DAUPHIN,
DAVE'S PEST CONTROL,CORPORATION,PA,,,,,,,,2713317,DAVID DYSON,OWNER,386 WELLS TERRACE WEST CHESTER PA 19380-0 CHESTER,
JIREH DISTRIBUTOR/PUBLISHING COMPANY,CORPORATION,PA,,,,PA 19132-0 PHILADELPHIA,2213 N NATRONA ST,PHILADELPHIA,,2713318,PATRICIA WILLIAMS,OWNER,2213 N NATRONA ST PHILADELPHIA PA 19132-0 PHILADELPHIA,
ULTRA HOME IMPROVEMENT,CORPORATION,PA,,,,PA 16214-0 CLARION,RD 2 BOX 169,CLARION,,2713319,JOHN M KRUPNIK,OWNER,RD 2 BOX 169 CLARION PA 16214-0 CLARION,
CHUCK'S MOBILE CAR WASH,CORPORATION,PA,,,,PA 19143-0 PHILADELPHIA,5843 OSAGE AVE,PHILADELPHIA,,2713321,OSCAR ROBINSON,OWNER,5843 OSAGE AVE PHILADELPHIA PA 19143-0 PHILADELPHIA,
TREASURED MEMORIES PHOTOGRAPHY,CORPORATION,PA,,,,PA 15774-0 INDIANA,9210 RT 422 W PO BOX 253,SHELOCTA,,2713323,VALERIE DAVIS,OWNER,9210 RT 422 W PO BOX 253 SHELOCTA PA 15774-0 INDIANA,
K D SPORTS & PROMOS,CORPORATION,PA,,,,PA 19320-0 CHESTER,826 W KINGS HWY,COATESVILLE,,2713324,KAREN D FREAS,OWNER,826 W KINGS HWY COATESVILLE PA 19320-0 CHESTER,
SHEILA'S SCISSOR IN STYLE,CORPORATION,PA,,,,PA,PO BOX 103 MAIN ST,NEW FREEPORT,15352-103,2713325,SHEILA JOHNSON,OWNER,PO BOX 103 MAIN ST NEW FREEPORT PA 15352-103 GREENE,
TWO DUDE'S MOWING,CORPORATION,PA,,,,PA 17543-0 LANCASTER,37 S BROAD ST APT #2,LITITZ,,2713326,KEVIN MOHLER,OWNER,37 S BROAD ST APT #2 LITITZ PA 17543-0 LANCASTER,
ANABOLISTIC ARTWORKS,CORPORATION,PA,,,,PA 17043-0 CUMBERLAND,815 HUMMEL AVE,LEMOYNE,,2713327,WADE W WILEY,OWNER,815 HUMMEL AVE LEMOYNE PA 17043-0 CUMBERLAND,
PAGEMASTER COMMUNICATIONS,CORPORATION,PA,,,,PA 19446-0 MONTGOMERY,1899 RAMPART LANE,LANSDALE,,2713328,MARYBETH LORD,OWNER,1899 RAMPART LANE LANSDALE PA 19446-0 MONTGOMERY,
UNION REMODELING,CORPORATION,PA,,,,PA 19006-0 MONTGOMERY,1015 OAKWOOD DR,HUNTINGDON VALLEY,,2713329,"UNION REMODELING, LLC",OWNER,1015 OAKWOOD DR HUNTINGDON VALLEY PA 19006-0 MONTGOMERY,
B/D PROPERTIES,CORPORATION,PA,,,,PA 15232-0 ALLEGHENY,5870-A ELLSWORTH AVE,PITTSBURGH,,2713330,MICHAEL SMALIS,OWNER,5870-A ELLSWORTH AVE PITTSBURGH PA 15232-0 ALLEGHENY,
L.S. RENOVATION COMPANY,CORPORATION,PA,,,,PA 15147-0 ALLEGHENY,7632 MOUNT CARMEL RD,VERONA,,2713331,LEON SLOAN SR,OWNER,7632 MOUNT CARMEL RD VERONA PA 15147-0 ALLEGHENY,
FRANKLIN PEDIATRICS BUILDING COMPANY,CORPORATION,PA,,,,PA 16323-0 VENANGO,110 N 13TH ST,FRANKLIN,,2713332,CURTIS W COOKE,OWNER,110 N 13TH ST FRANKLIN PA 16323-0 VENANGO,
STILLPOINT,CORPORATION,PA,,,,PA 15211-0 ALLEGHENY,444 OLYMPIA RD,PITTSBURGH,,2713333,TIM KENNEDY,OWNER,444 OLYMPIA RD PITTSBURGH PA 15211-0 ALLEGHENY,
RACETRACT DEVELOPMENT COMPANY,CORPORATION,PA,,,,PA 15317-0 WASHINGTON,118 OVERLOOK DR,MCMURRAY,,2713334,JOSEPH J JACKOVIC,OWNER,118 OVERLOOK DR MCMURRAY PA 15317-0 WASHINGTON,
"D. E. DUFFEY & SONS, INC., TRADING AS JAMES A STIMMLER FUEL OIL COMPANY",CORPORATION,PA,,,,,,,,2713335,D E DUFFEY & SONS INC,OWNER,1982 BUTLER PIKE PLYMOUTH MEETING PA 19462-0 MONTGOMERY,
GALAXY GAMES,CORPORATION,PA,,,,PA,103 MAKEFIELD RD,MORRISVILLE,,2713336,JOHN M PETRUCCI,OWNER,103 MAKEFIELD RD MORRISVILLE PA 19067-0 BUCKS,
TIRAS CONSTRUCTION,CORPORATION,PA,,,,PA 19115-0 PHILADELPHIA,851 RED LION RD UNIT E-3,PHILADELPHIA,,2713337,SERGUEI PETOUHOV,OWNER,851 RED LION RD UNIT E-3 PHILADELPHIA PA 19115-0 PHILADELPHIA,
A.R.D. VENTURES,CORPORATION,PA,,,,PA 19320-0 CHESTER,125 DAVIS RD,COATESVILLE,,2713338,ROBIN DUNFEE,OWNER,125 DAVIS RD COATESVILLE PA 19320-0 CHESTER,
SUSQUEHANNA BUSINESS CENTER,CORPORATION,PA,,,,PA 17360-0 YORK,RD #1 BOX 131AA,SEVEN VALLEYS,,2713339,KINSLEY EQUITIES II LIMITED PARTNERSHIP,OWNER,RD #1 BOX 131AA SEVEN VALLEYS PA 17360-0 YORK,
HOME MATTERS HOTLINE,CORPORATION,PA,,,,PA 19106-0 PHILADELPHIA,225 ARCH ST,PHILADELPHIA,,2713340,BANYAN PRODUCTIONS INC,OWNER,225 ARCH ST PHILADELPHIA PA 19106-0 PHILADELPHIA,
LABELS & BAR CODES PLUS,CORPORATION,PA,,,,PA 19446-0 MONTGOMERY,461 CEDAR ST,LANSDALE,,2713341,JOHN J BRECHTEL,OWNER,461 CEDAR ST LANSDALE PA 19446-0 MONTGOMERY,
YUMMIE YAMS & MORE,CORPORATION,PA,,,,PA 19464-0 MONTGOMERY,247 MASTER ST,POTTSTOWN,,2713342,WILLIAM K NOBLE,OWNER,247 MASTER ST POTTSTOWN PA 19464-0 MONTGOMERY,
CHARLES R. WALTER REAL ESTATE,CORPORATION,PA,,,,PA 19031-0 MONTGOMERY,720 BETHLEHEM PIKE,FLOURTOWN,,2713343,CHARLES R WALTER,OWNER,720 BETHLEHEM PIKE FLOURTOWN PA 19031-0 MONTGOMERY,
OL' TIME TREATS,CORPORATION,PA,,,,PA,6010 CHATHAM DR,MORGANTOWN,,2713344,THOMAS FERRANTE,OWNER,6010 CHATHAM DR MORGANTOWN PA 19543-0 BERKS,
COVERED BRIDGE CRAFTS,CORPORATION,PA,,,,,,,,2713345,JOYCE A WOLFE,OWNER,RR 3 BOX 216 C CATAWISSA PA 17820-0 COLUMBIA,
GN JEWELRY,CORPORATION,PA,,,,PA,2184 E VILLAGE RD,HOLLAND,,2713347,GENNADY NIRENBERG,OWNER,2184 E VILLAGE RD HOLLAND PA 18966-0 BUCKS,
CT'S HONG KONG BUFFET,CORPORATION,PA,,,,,,,,2713348,FOUR TREASURE RESTAURANT INC,OWNER,4341-43 LINCOLN HWY DOWNINGTOWN PA 19335-0 CHESTER,
SHATTERED RECORDS,CORPORATION,PA,,,,PA 19114-0 PHILADELPHIA,9306 CAMPUS LANE,PHILADELPHIA,,2713349,WILLIAM E SHAW III,OWNER,9306 CAMPUS LANE PHILADELPHIA PA 19114-0 PHILADELPHIA,
