name,business_type,state_registered,street_registered,city_registered,zip5_registered,state_physical,street_physical,city_physical,zip5_physical,filing_number,agent_name,agent_title,raw_physical_address,raw_registered_address
THE CORPORAL'S CREASE,CORPORATION,PA,,,,PA 19149-0 PHILADELPHIA,3242 WELLINGTON ST,PHILADELPHIA,,3082900,JOHN KENNY,OWNER,3242 WELLINGTON ST PHILADELPHIA PA 19149-0 PHILADELPHIA,
OLGA'S CELEBRATION'S & MORE,CORPORATION,PA,,,,PA 19111-0 PHILADELPHIA,928 LEVICK ST,PHILADELPHIA,,3082901,OLGA FONTAN,OWNER,928 LEVICK ST PHILADELPHIA PA 19111-0 PHILADELPHIA,
ABX MULTIMEDIA GROUP,CORPORATION,PA,,,,,,,,3082902,CAVALIER GROUP INC,OWNER,1744 DEKALB PIKE STE 155 BLUE BELL PA 19422-0 MONTGOMERY,
SKYWAY JANITORIAL SERVICE,CORPORATION,PA,,,,PA,4632 S CLEARVIEW DR,CAMP HILL,17011-4017,3082903,DAVID THOMAS,OWNER,4632 S CLEARVIEW DR CAMP HILL PA 17011-4017 CUMBERLAND,
UPPER BUCKS BUILDING GROUP,CORPORATION,PA,,,,PA,6232 DURHAM RD,PIPERSVILLE,,3082904,CHRISTOPHER B SHIVO,OWNER,6232 DURHAM RD PIPERSVILLE PA 18947-0 BUCKS,
J.R. HOME IMPROVEMENT,CORPORATION,PA,,,,PA 19130-0 PHILADELPHIA,1834 W GIRARD AVE,PHILADELPHIA,,3082905,CLARENCE GUICE,OWNER,1834 W GIRARD AVE PHILADELPHIA PA 19130-0 PHILADELPHIA,
"MILSTEIN MEDICAL GROUP, INC.",CORPORATION,PA,1123 WOODWARD DR,GREENSBURG,,PA 15601-0 WESTMORELAND,RD 6 BOX 560,GREENSBURG,,3082907,SCOTT MILSTEIN,TREASURER,RD 6 BOX 560 GREENSBURG PA 15601-0 WESTMORELAND,1123 WOODWARD DR GREENSBURG PA 15601-6416
MAD DOG DESIGN GROUP,CORPORATION,PA,,,,PA,1155 N ULSTER ST,ALLENTOWN,18109-0,3082908,TRACEY WASHITZKO,OWNER,1155 N ULSTER ST ALLENTOWN PA 18109-0 LEHIGH,
INCITE HEALTHCARE STAFFING INC,CORPORATION,PA,228 E CHELTEN AVE,PHILADELPHIA,,PA 19119-0 PHILADELPHIA,218 E CLIVEDEN ST,PHILADELPHIA,,3082909,TERRI BROOKS,PRESIDENT,218 E CLIVEDEN ST PHILADELPHIA PA 19119-0 PHILADELPHIA,228 E CHELTEN AVE PHILADELPHIA PA 19144-51
RESOURCE SELECT,CORPORATION,PA,,,,PA 18343-0 NORTHAMPTON,576 S DELAWARE DR,MOUNT BETHEL,,3082910,VICTORIA K MAVIS,OWNER,576 S DELAWARE DR MOUNT BETHEL PA 18343-0 NORTHAMPTON,
MB DESIGNS INC.,CORPORATION,PA,8405 ARDLEIGH ST,PHILADELPHIA,,PA 19118-0 PHILADELPHIA,8405 ARDLEIGH ST,PHILADELPHIA,,3082911,MICHZEL C BAVELE,PRESIDENT,8405 ARDLEIGH ST PHILADELPHIA PA 19118-0 PHILADELPHIA,8405 ARDLEIGH ST PHILADELPHIA PA 19118-51
GRUMPA'S MOBILE LUNCH,CORPORATION,PA,,,,PA,3102 SEISHOLTZVILLE RD,MACUNGIE,18062-0,3082912,ANDY J CARR,OWNER,3102 SEISHOLTZVILLE RD MACUNGIE PA 18062-0 LEHIGH,
THE PHOTO BARN,CORPORATION,PA,,,,,,,,3082913,THERESA VRABEL,OWNER,6474 SULLIVAN TRAIL WIND GAP PA 18091-0 NORTHAMPTON,
SCOTT'S PLUMBING & HEATING,CORPORATION,PA,,,,PA 18444-0 LACKAWANNA,201 SUNRISE BLVD,MOSCOW,,3082914,SCOTT STANISZEWSKI,OWNER,201 SUNRISE BLVD MOSCOW PA 18444-0 LACKAWANNA,
"A PLANT'S LIFE, INC.",CORPORATION,PA,,,,PA,1267 LISA DR,WARRINGTON,,3082915,,,1267 LISA DR WARRINGTON PA 18976-0 BUCKS,
"KAMINSKI & HAWBAKER, P.C.",CORPORATION,PA,221 LINCOLN WAY E,CHAMBERSBURG,,PA 17201-0 FRANKLIN,221 LINCOLN WAY EAST,CHAMBERSBURG,,3082916,JANICE M HAWBAKER,VICEPRESIDENT,221 LINCOLN WAY EAST CHAMBERSBURG PA 17201-0 FRANKLIN,221 LINCOLN WAY E CHAMBERSBURG PA 17201-2231
FAT CAT CUTS INCORPORATED,CORPORATION,PA,1338 N HUTCHINSON PL,PHILADELPHIA,,PA 19140-0 PHILADELPHIA,4363 N 9TH ST,REAR PHILADELPHIA,,3082917,MICHAEL BENNETT,PRESIDENT,4363 N 9TH ST REAR PHILADELPHIA PA 19140-0 PHILADELPHIA,1338 N HUTCHINSON PL PHILADELPHIA PA 19122-51
DYNAMIC PURCHASING CORPORATION,CORPORATION,PA,438 PELLIS RD STE 200,GREENSBURG,,PA 15601-0 WESTMORELAND,438 PELLIS RD STE 200,GREENSBURG,,3082918,MARC ROBERTSHAW,PRESIDENT,438 PELLIS RD STE 200 GREENSBURG PA 15601-0 WESTMORELAND,438 PELLIS RD STE 200 GREENSBURG PA 15601-65
"RICHWISE EXPRESS, INC.",CORPORATION,PA,10220 SELMER TERRACE,PHILADELPHIA,,PA,9224 E TYBURN RD,MORRISVILLE,,3082919,MAXIM GUDKON,PRESIDENT,9224 E TYBURN RD MORRISVILLE PA 19067-0 BUCKS,10220 SELMER TERRACE PHILADELPHIA PA 19116-51
"RIDGE DOLLAR MART, INC.",CORPORATION,PA,,,,PA 19128-0 PHILADELPHIA,6138-40 RIDGE AVE,PHILADELPHIA,,3082920,,,6138-40 RIDGE AVE PHILADELPHIA PA 19128-0 PHILADELPHIA,
"NORTHERN LIGHT ESPRESSO BAR, INC.",CORPORATION,PA,536 SPRUCE ST,SCRANTON,,PA 18503-0 LACKAWANNA,536 SPRUCE ST,SCRANTON,,3082922,RICHARD DAMIANI,VICEPRESIDENT,536 SPRUCE ST SCRANTON PA 18503-0 LACKAWANNA,536 SPRUCE ST SCRANTON PA 18503-1808
"QBS DESIGN & DEVELOPMENT, INC.",CORPORATION,PA,794 HOLLY RD,WAYNE,,PA 19087-0 CHESTER,794 HOLLY RD,WAYNE,,3082923,TIM SHABAAN,VICEPRESIDENT,794 HOLLY RD WAYNE PA 19087-0 CHESTER,794 HOLLY RD WAYNE PA 19087-23
K & A DEVELOPMENT CORPORATION,CORPORATION,PA,1626 SARATOGA CT,JAMISON,,PA,10 PICKERING DR,NEWTOWN,,3082924,LINDA ANN KOVALIK,VICEPRESIDENT,10 PICKERING DR NEWTOWN PA 18940-0 BUCKS,1626 SARATOGA CT JAMISON PA 18929-1666
"RELIABLE PRODUCTS, INC.",CORPORATION,PA,4 TERRY DRIVE SUITE 3 PO BOX 1382,NEWTOWN,,,,,,3082925,KIRAN VEPURI,PRESIDENT,%CORPORATION SERVICE COMPANY DAUPHIN,4 TERRY DRIVE SUITE 3 PO BOX 1382 NEWTOWN PA 18940-09
"T&C TEXAS WEINERS, INC.",CORPORATION,PA,,,,PA 18512-0 LACKAWANNA,208 E DRINKER ST,DUNMORE,,3082926,,,208 E DRINKER ST DUNMORE PA 18512-0 LACKAWANNA,
"WEBBFOOT, INC.",CORPORATION,PA,350 STRALEYS RD,LITTLESTOWN,,PA,350 STRALEY RD,LITTLESTOWN,,3082927,MICHAEL SCHUMAN,PRESIDENT,350 STRALEY RD LITTLESTOWN PA 17340-0 ADAMS,350 STRALEYS RD LITTLESTOWN PA 17340-9675
"E-TEAM RESTORATION, INC.",CORPORATION,PA,3119 BIRCHWOOD DR,ALLENTOWN,18103-0,PA,2945 SOUTH PIKE AVE,ALLENTOWN,18103-0,3082928,MARY LEES,VICEPRESIDENT,2945 SOUTH PIKE AVE ALLENTOWN PA 18103-0 LEHIGH,3119 BIRCHWOOD DR ALLENTOWN PA 18103-39
SOUTHSIDE CLEANERS INC.,CORPORATION,PA,,,,PA 19152-0 PHILADELPHIA,2511 WINCHESTER AVE,PHILADELPHIA,,3082929,,,2511 WINCHESTER AVE PHILADELPHIA PA 19152-0 PHILADELPHIA,
SILVANIA CONSTRUCTION INC.,CORPORATION,PA,3568 BROOKVIEW RD,PHILADELPHIA,,PA 19154-0 PHILADELPHIA,3568 BROOKVIEW RD,PHILADELPHIA,,3082930,ANTONIO C DESOUZA,PRESIDENT,3568 BROOKVIEW RD PHILADELPHIA PA 19154-0 PHILADELPHIA,3568 BROOKVIEW RD PHILADELPHIA PA 19154-4040
OPPENHEIMER GROUP INC.,CORPORATION,PA,265 BLOOMFIELD DR,LITITZ,,,,,,3082931,JOHN OPPENHEIMER,PRESIDENT,2305 GREYSTONE DR MOON TOWNSHIP PA 15108-0 ALLEGHENY,265 BLOOMFIELD DR LITITZ PA 17543-7757
"MOON AREA AQUA CLUB, INC.",CORPORATION,PA,1023 CHANTICLEER DR,GLENNWILLARD,,PA 15046-0 ALLEGHENY,1023 CHANTICLEER DR,CRESCENT,,3082932,JAMIE L MORTON,PRESIDENT,1023 CHANTICLEER DR CRESCENT PA 15046-0 ALLEGHENY,1023 CHANTICLEER DR GLENNWILLARD PA 15046-02
"AMBIENCE INTERACTIVE, INC.",CORPORATION,PA,4903 OLD WILLIAM PENN HWY,MONROEVILLE,,PA 15226-0 ALLEGHENY,702 BROOKLINE BLVD STE 1,PITTSBURGH,,3082933,TIMOTHY M KACHURIAK,PRESIDENT,702 BROOKLINE BLVD STE 1 PITTSBURGH PA 15226-0 ALLEGHENY,4903 OLD WILLIAM PENN HWY MONROEVILLE PA 15146-3709
CONNORS CONSULTING GROUP INC.,CORPORATION,PA,510 A ABBOTT DT,BROOMALL,,PA 19335-0 CHESTER,811 WILLIAMSBURG BLVD,DOWNINGTOWN,,3082934,JAMES KELLY,PRESIDENT,811 WILLIAMSBURG BLVD DOWNINGTOWN PA 19335-0 CHESTER,510 A ABBOTT DT BROOMALL PA 19008-23
CUSTOM HOME CARE INC.,CORPORATION,PA,1266 HARVEST DR,DENVER,,PA 19401-0 MONTGOMERY,1007 N FOREST AVE,NORRISTOWN,,3082935,TRACY M SMITH,PRESIDENT,1007 N FOREST AVE NORRISTOWN PA 19401-0 MONTGOMERY,1266 HARVEST DR DENVER PA 17517-8813
"TOTONNO PIZZERIA, INC.",CORPORATION,PA,2409 CHADWICK DR,PHILADELPHIA,,PA 19145-0 PHILADELPHIA,2409 CHADWICK DR,PHILADELPHIA,,3082936,WILLIAM DAMBROSIA,PRESIDENT,2409 CHADWICK DR PHILADELPHIA PA 19145-0 PHILADELPHIA,2409 CHADWICK DR PHILADELPHIA PA 19145-51
"MANHATTAN FINANCIAL, INC.",CORPORATION,PA,PO BOX 22099,PHILADELPHIA,,PA,918 GOLLS GARDEN LANE,BENSALEM,,3082938,ANTHONY CANCELLIERE,PRESIDENT,918 GOLLS GARDEN LANE BENSALEM PA 19020-0 BUCKS,PO BOX 22099 PHILADELPHIA PA 19136-7099
"NEW YEAR'S EVE, INC.",CORPORATION,PA,1828 S BROAD ST,PHILADELPHIA,,PA 19145-0 PHILADELPHIA,1828 S BROAD ST,PHILADELPHIA,,3082941,JOSEPH BONGIOVANNI,PRESIDENT,1828 S BROAD ST PHILADELPHIA PA 19145-0 PHILADELPHIA,1828 S BROAD ST PHILADELPHIA PA 19145-2303
"CHESTNUT WOODS, INC.",CORPORATION,PA,2965 W GERMANTOWN PK,NORRISTOWN,,PA 19403-0 MONTGOMERY,2965 W GERMANTOWN PIKE,NORRISTOWN,,3082942,MICHAEL J CLEMENT,SECRETARY,2965 W GERMANTOWN PIKE NORRISTOWN PA 19403-0 MONTGOMERY,2965 W GERMANTOWN PK NORRISTOWN PA 19403-46
"ARAMINGO DOLLAR MART, INC",CORPORATION,PA,,,,PA 19125-0 PHILADELPHIA,2415 E LEHIGH AVE,PHILADELPHIA,,3082943,,,2415 E LEHIGH AVE PHILADELPHIA PA 19125-0 PHILADELPHIA,
"LWI & ASSOCIATES, INC.",CORPORATION,PA,4258 W 28TH ST,ERIE,,PA,4258 W 28TH ST,ERIE,,3082944,LARRY W ISHLER,PRESIDENT,4258 W 28TH ST ERIE PA 16506-0 ERIE,4258 W 28TH ST ERIE PA 16506-1702
"BEAUTY CREATIONS, INC.",CORPORATION,PA,656 ROUTE 739,LORDS VALLEY,18328-0,PA,115 SAINT VINCENTS DR,MILFORD,18328-0,3082945,DONNA HAMILTON,PRESIDENT,115 SAINT VINCENTS DR MILFORD PA 18328-0,656 ROUTE 739 LORDS VALLEY PA 18428-6143
CYCLAVERE CORPORATION,CORPORATION,CA,43801 MISSION BLVD STE 202,FREMONT,,,,,,3082946,DEBBIE GURNEY,PRESIDENT,"%NATIONAL REGISTERED AGENTS, INC. DAUPHIN",43801 MISSION BLVD STE 202 FREMONT CA 94539
"RICHWISE TRANSPORTATION, INC.",CORPORATION,PA,10220 SELMER TERRACE,PHILADELPHIA,,,,,,3082949,VILDOR VASILENKO,PRESIDENT,%CORPORATION GUARANTEE AND TRUST COMPANY BUCKS,10220 SELMER TERRACE PHILADELPHIA PA 19116-51
"TEXAS INSURANCE AGENCY, INC.-SAN ANTONIO",CORPORATION,TX,,,,,,,,3082950,KIRK P PRESSLEY,TREASURER,%CT CORPORATION SYSTEM PHILADELPHIA,15 20TH ST S MAILCODE AL BI CH ACT BIRMINGHAM AL 35233
"ACCELL, INC.",CORPORATION,PA,1060 PINELAND RD,BIRDSBORO,19508,PA,1060 PINELAND ROAD,BIRDSBORO,19508,3082951,JEFFREY G SCHWEGMANN,VICEPRESIDENT,1060 PINELAND ROAD BIRDSBORO PA 19508 BERKS,1060 PINELAND RD BIRDSBORO PA 19508-8669
"STROUD CLEANERS, INC.",CORPORATION,PA,64 N 3RD ST,STROUDSBURG,18360-0,PA,64 N 3RD ST,STROUDSBURG,18360-0,3082952,STEVEN S CHUNG,TREASURER,64 N 3RD ST STROUDSBURG PA 18360-0 MONROE,64 N 3RD ST STROUDSBURG PA 18360-2452
"AVIATION ANALYSTS, INC.",CORPORATION,DE,263 LITTLE CREEK RD,LANCASTER,,PA 17601-0 LANCASTER,263 LITTLE CREEK RD,LANCASTER,,3082953,RICHARD L DANZ,PRESIDENT,263 LITTLE CREEK RD LANCASTER PA 17601-0 LANCASTER,263 LITTLE CREEK RD LANCASTER PA 17601-5513
"OCEAN DREAMS PROPERTY, INC.",CORPORATION,PA,302 FOREST HILLS RD,RED LION,,PA 17356-0 YORK,302 FORREST HILLS RD,RED LION,,3082954,TERRY SUTTON,PRESIDENT,302 FORREST HILLS RD RED LION PA 17356-0 YORK,302 FOREST HILLS RD RED LION PA 17356-9159
"EXADEL, INC.",CORPORATION,CA,STE 1801850 GATEWAY BLVD,CONCORD,,,,,,3082957,EFIM KATZ,PRESIDENT,%CT CORPORATION SYSTEM PHILADELPHIA,STE 1801850 GATEWAY BLVD CONCORD CA 94520-3299
"ONE WORLD RECRUITERS, INC.",NONPROFIT,PA,STE 122850,APPLETON ST CAMP HILL,,PA 17011-0 CUMBERLAND,2850 APPLETON,ST CAMP HILL,,3082959,JAMES A STOUDT,PRESIDENT,2850 APPLETON ST CAMP HILL PA 17011-0 CUMBERLAND,STE 122850 APPLETON ST CAMP HILL PA 17011-8036
PARSONS COMMERCIAL TECHNOLOGY GROUP INC.,CORPORATION,DE,100 W WALNUT ST,PASADENA,,,,,,3082960,VIRGINIA GREBBIEN,PRESIDENT,%CT CORPORATION SYSTEM PHILADELPHIA,100 W WALNUT ST PASADENA CA 91124-0001
CIKO INTERNATIONAL,CORPORATION,PA,,,,PA 19355-0 CHESTER,110 ELIZABETH COURT,MALVERN,,3082961,QIAN CHEN,OWNER,110 ELIZABETH COURT MALVERN PA 19355-0 CHESTER,
SWARTHMORE GULF STATION INC.,CORPORATION,PA,111 SHARLOW DR,WALLINGFORD,,PA 19081-0 DELAWARE,523 S CHESTER RD,SWARTHMORE,,3082962,MOUSSA FARHAT,PRESIDENT,523 S CHESTER RD SWARTHMORE PA 19081-0 DELAWARE,111 SHARLOW DR WALLINGFORD PA 19086-23
"EXECUTIVE MARKETING CONCEPTS, INC.",CORPORATION,PA,48 GARRETT RD,UPPER DARBY,,PA 19082-0 DELAWARE,50 GARRET RD,UPPER DARBY,,3082964,SAMUEL JONES,PRESIDENT,50 GARRET RD UPPER DARBY PA 19082-0 DELAWARE,48 GARRETT RD UPPER DARBY PA 19082-2303
SOMETHING N COMMON,CORPORATION,PA,,,,PA 18705-0 LUZERNE,30 WOODWARD ST,WILKES-BARRE,,3082965,TRACY A GURDOCK,OWNER,30 WOODWARD ST WILKES-BARRE PA 18705-0 LUZERNE,
JEDS VENTURES INC.,CORPORATION,PA,2157 MARKET,ST CAMP HILL,,PA 17011-0 CUMBERLAND,2157 MARKET,ST CAMP HILL,,3082966,JAMES A MILLER,PRESIDENT,2157 MARKET ST CAMP HILL PA 17011-0 CUMBERLAND,2157 MARKET ST CAMP HILL PA 17011-21
"FIELDS OF FASHION, INC.",CORPORATION,PA,,,,PA 19464-0 MONTGOMERY,22 N EVANS ST,POTTSTOWN,,3082967,,,22 N EVANS ST POTTSTOWN PA 19464-0 MONTGOMERY,
"ST. STEPHEN'S REFORMED CHURCH OF LEBANON, PENNSYLVANIA",NONPROFIT,PA,,,,PA,1100 HUNTER'S CHASE LANE,LEBANON,17046-1575,3082968,,,1100 HUNTER'S CHASE LANE LEBANON PA 17046-1575 LEBANON,
AMERIPLAN BENEFIT CORPORATION,CORPORATION,TN,STE B5910 TOOLE DR,KNOXVILLE,,,,,,3082969,HOWARD W SHERROD,PRESIDENT,%CORPORATION SERVICE COMPANY DAUPHIN,STE B5910 TOOLE DR KNOXVILLE TN 37919-4178
"DAVID T. BECKWITH ENTERPRISES, INC.",CORPORATION,PA,2740 LITTLE MEADOWS RD,WARREN CENTER,,,,,,3082970,DAVID T BECKWITH,PRESIDENT,HCR 34 BOX 30B WARREN CENTER PA 18851-0 BRADFORD,2740 LITTLE MEADOWS RD WARREN CENTER PA 18851-7732
"MIDATLANTIC LIMOUSINE, INC.",CORPORATION,PA,1401 LARCH LN,WEST CHESTER,19380,PA,1401 LARCH LN,WEST CHESTER,19380,3082972,JOHN A SCHORN,PRESIDENT,1401 LARCH LN WEST CHESTER PA 19380 CHESTER,1401 LARCH LN WEST CHESTER PA 19380-6209
"ML GOOD, INCORPORATED",CORPORATION,PA,,,,PA 17522-0 LANCASTER,22 ORIOLE DR,EPHRATA,,3082973,,,22 ORIOLE DR EPHRATA PA 17522-0 LANCASTER,
"M & J TREE SERVICE, INC.",CORPORATION,PA,PO BOX 3051,MCKEESPORT,,PA 15642-0 WESTMORELAND,281 ROBINHOOD DR,IRWIN,,3082974,MICHAEL R GILES,PRESIDENT,281 ROBINHOOD DR IRWIN PA 15642-0 WESTMORELAND,PO BOX 3051 MCKEESPORT PA 15131-02
"JMS CONSULTING, INC",CORPORATION,PA,4313 STOUDTS FERRY BR,READING,,PA,4313 STOUDTS FERRY BR RD,READING,,3082975,JOHN SCARPACI,TREASURER,4313 STOUDTS FERRY BR RD READING PA 19605-0 BERKS,4313 STOUDTS FERRY BR READING PA 19605
"J.A.G., INC.",CORPORATION,PA,4011 ALBERMARLE AVE,DREXEL HILL,,PA 19026-0 DELAWARE,4011 ALBERMARLE AVE,DREXEL HILL,,3082976,JOHN GAUDINSKI,PRESIDENT,4011 ALBERMARLE AVE DREXEL HILL PA 19026-0 DELAWARE,4011 ALBERMARLE AVE DREXEL HILL PA 19026-23
"GALLAGHER AUCTIONS, INC.",CORPORATION,PA,5112 SUGAR HILL COURT,DOYLESTOWN,,PA,5112 SUGAR HILL CT,DOYLESTOWN,,3082977,KRISTI KOLZ,VICEPRESIDENT,5112 SUGAR HILL CT DOYLESTOWN PA 18901-0 BUCKS,5112 SUGAR HILL COURT DOYLESTOWN PA 18901-09
"SPENGLER ENTERPRISES, INC.",CORPORATION,PA,2230 N LEHIGH AVE,WHITEHALL,18052-0,PA,2230 N LEHIGH AVE,WHITEHALL,18052-0,3082978,WILLIAM J SPENGLER SR,PRESIDENT,2230 N LEHIGH AVE WHITEHALL PA 18052-0 LEHIGH,2230 N LEHIGH AVE WHITEHALL PA 18052-39
"KEY LEADERSHIP INITIATIVES, INC.",CORPORATION,PA,STE F100150 N,RADNOR,19087,PA,150,RADNOR,19087,3082979,PAULETTE GABRIEL,PRESIDENT,150 RADNOR CHESTER RD STE F100 RADNOR PA 19087 DELAWARE,STE F100150 N RADNOR CHESTER RD RADNOR PA 19087-5265
"JAYANN SUBS, INC.",CORPORATION,PA,,,,PA 15486-122 FAYETTE,291 TOWN COUNTRY RD,VANDERBILT,,3082980,,,291 TOWN COUNTRY RD VANDERBILT PA 15486-122 FAYETTE,
ELGOOD MAYO CO.,CORPORATION,PA,1701 DUNN AVENUE,MEMPHIS,,PA 17601-0 LANCASTER,1817 COLONIAL VILLAGE LANE,LANCASTER,,3082981,BRENT LEISENRING,PRESIDENT,1817 COLONIAL VILLAGE LANE LANCASTER PA 17601-0 LANCASTER,1701 DUNN AVENUE MEMPHIS TN 38106
"WYNDMOOR PLAZA, L.P.",PARTNERSHIP,PA,,,,PA 19038-0 MONTGOMERY,805 EAST WILLOW GROVE AVE STE 2B,WYNDMOOR,,3082982,WYNDMOOR PLAZA GP INC.,GENPARTNER,805 EAST WILLOW GROVE AVE STE 2B WYNDMOOR PA 19038-0 MONTGOMERY,PA
CASTLEVIEW ESTATES CONDOMINIUM ASSOCIATION,NONPROFIT,PA,,,,PA 15239-0 ALLEGHENY,772 PINE VALLEY DR,PITTSBURGH,,3082983,,,772 PINE VALLEY DR PITTSBURGH PA 15239-0 ALLEGHENY,
"DUNMORE NATIONAL NIGHT OUT, INC.",NONPROFIT,PA,,,,PA 18512-0 LACKAWANNA,400 S BLAKELY ST,DUNMORE,,3082984,,,400 S BLAKELY ST DUNMORE PA 18512-0 LACKAWANNA,
"FRIENDS OF THE DUNMORE FIREFIGHTERS, INC.",NONPROFIT,PA,,,,PA 18512-0 LACKAWANNA,400 S BLAKELY ST,DUNMORE,,3082985,,,400 S BLAKELY ST DUNMORE PA 18512-0 LACKAWANNA,
THE DOGS DEN,NONPROFIT,PA,,,,PA,127 SAN-JO DR,GRANTVILLE,17028-0,3082986,,,127 SAN-JO DR GRANTVILLE PA 17028-0,
"HAMOT ESTATES PROPERTY OWNERS ASSOCIATION, INC.",NONPROFIT,PA,8570 HAMOT RD,ERIE,16509,PA,8570 HAMOT RD,ERIE,16509,3082988,JOHN MIR,PRESIDENT,8570 HAMOT RD ERIE PA 16509 ERIE,8570 HAMOT RD ERIE PA 16509
DELAWARE VALLEY IRISH HALL OF FAME,NONPROFIT,PA,,,,PA 19119-0 PHILADELPHIA,6815 EMLEN ST,PHILADELPHIA,,3082989,,,6815 EMLEN ST PHILADELPHIA PA 19119-0 PHILADELPHIA,
"CHAMBERSBURG TRADES AND TECHNOLOGY CENTER ASSOCIATION, INC.",NONPROFIT,PA,,,,PA 17201-0 FRANKLIN,475 PHOENIX DR,CHAMBERSBURG,,3082990,,,475 PHOENIX DR CHAMBERSBURG PA 17201-0 FRANKLIN,
WELLINGTON MANOR HOMEOWNERS ASSOCIATION,NONPROFIT,PA,,,,PA,3405 N. 6TH ST.,HARRISBURG,17110,3082991,,,3405 N. 6TH ST. HARRISBURG PA 17110 DAUPHIN,
B & B 4 BIRDS,NONPROFIT,PA,,,,PA 17109-0 DAUPHIN,317 S 31ST STREET,HARRISBURG,,3082992,,,317 S 31ST STREET HARRISBURG PA 17109-0 DAUPHIN,
FROM THE THRONE MINISTRIES,NONPROFIT,PA,,,,PA,418 W CHEW AVE,PHILADELPHIA,19120,3082993,,,418 W CHEW AVE PHILADELPHIA PA 19120 PHILADELPHIA,
"THE NATIONAL CIVILIAN VOLUNTEER DEFENSE SECURITY COUNCIL, INC.",NONPROFIT,PA,,,,PA 19103-0 PHILADELPHIA,117 S 17TH ST STE 1200,PHILADELPHIA,,3082995,,,117 S 17TH ST STE 1200 PHILADELPHIA PA 19103-0 PHILADELPHIA,
"CEP COMMERCE, LLC",LLC,DE,,,,,,,,3082996,,,TWO NORTH NINTH ST ALLENTOWN PA 18101-0 LEHIGH,
"HSV, INC.",CORPORATION,DE,500,FRANKLIN,,,,,,3082997,TERENCE P MORIARTY,VICEPRESIDENT,%CT CORPORATION SYSTEM UNKNOWN,500 FRANKLIN VILLAGE SUITE 204 FRANKLIN MA 02038
"NATIONAL PET IMAGING OF HAVERFORD, L.P.",PARTNERSHIP,PA,,,,PA 19103-0 PHILADELPHIA,1919 WALNUT ST,PHILADELPHIA,,3082998,NATIONAL MEDICAL IMAGING HOLDING COMPANY,GENPARTNER,1919 WALNUT ST PHILADELPHIA PA 19103-0 PHILADELPHIA,PA
"G. E. T. REAL PARTNERS, L.P.",PARTNERSHIP,PA,2660 S OCEAN BLVD APT 606S,PALM BEACH,15222,PA,339 6TH AVE 8TH FL,PITTSBURGH,15222,3082999,"FOUR SCORE LTD, A FLORIDA LIMITED PARTNERSHIP",GENPARTNER,339 6TH AVE 8TH FL PITTSBURGH PA 15222 ALLEGHENY,2660 S OCEAN BLVD APT 606S PALM BEACH FL 33480
"TPG 65, LP",PARTNERSHIP,PA,,,18969,PA,65 W MADISON AVE,TELFORD,18969,3083000,TPG 65 LLC,GENPARTNER,65 W MADISON AVE TELFORD PA 18969 MONTGOMERY,PA
"HBF PROPERTIES, L.P.",PARTNERSHIP,PA,,,,PA 19154-0 PHILADELPHIA,12700 TOWNSEND RD,PHILADELPHIA,,3083001,HBF PROPERTIES INC,GENPARTNER,12700 TOWNSEND RD PHILADELPHIA PA 19154-0 PHILADELPHIA,PA
"STEPHENS PROPERTIES, LP",PARTNERSHIP,PA,,,16055-0,PA,171 BEAR CREEK RD,SARVER,16055-0,3083002,STEPHENS MANAGEMENT COMPANY INC,GENPARTNER,171 BEAR CREEK RD SARVER PA 16055-0 BUTLER,PA
"DYMAC PROPERTIES, LLC",LLC,PA,,,,PA 15367-0 WASHINGTON,312 DOUBLETREE DR,VENETIA,,3083006,,,312 DOUBLETREE DR VENETIA PA 15367-0 WASHINGTON,
"BCD CONSTRUCTION, LLC",LLC,PA,,,,PA 19311-0 CHESTER,102 PINE VALLEY DR,AVONDALE,,3083007,,,102 PINE VALLEY DR AVONDALE PA 19311-0 CHESTER,
RAC TOURS LLC,LLC,PA,,,,PA 19143-0 PHILADELPHIA,1245 S 53RD ST,PHILADELPHIA,,3083008,,,1245 S 53RD ST PHILADELPHIA PA 19143-0 PHILADELPHIA,
"1-877-DESTRUC, LLC",LLC,PA,,,,PA 19123-0 PHILADELPHIA,501 CALLOWHILL ST,PHILADELPHIA,,3083009,,,501 CALLOWHILL ST PHILADELPHIA PA 19123-0 PHILADELPHIA,
"HIGHLAND COMMUNICATIONS GROUP, LLC",LLC,PA,,,,PA 15206-0 ALLEGHENY,229 YARDLEY WAY,PITTSBURGH,,3083010,,,229 YARDLEY WAY PITTSBURGH PA 15206-0 ALLEGHENY,
"TOMORROW'S SOLUTIONS, LLC",LLC,PA,,,,PA,8201 CEDAR RD,ELKINS PARK,19027,3083011,,,8201 CEDAR RD ELKINS PARK PA 19027 MONTGOMERY,
"U K CONSULTING, LLC",LLC,PA,,,,PA,80 WINONA LAKES EAST,STROUDSBURG,18301-0,3083012,,,80 WINONA LAKES EAST STROUDSBURG PA 18301-0 MONROE,
"BLUESTONEUS, L.L.C.",LLC,PA,,,,PA 18801-0 SUSQUEHANNA,25 PUBLIC AVE,MONTROSE,,3083013,,,25 PUBLIC AVE MONTROSE PA 18801-0 SUSQUEHANNA,
MIRCH MARSALA CANTEEN LLC,LLC,PA,,,,,,,,3083014,,,AMTRACK 30TH STREET STATION PHILADELPHIA PA 19104-0 PHILADELPHIA,
SHOES TO BOOT,CORPORATION,PA,,,,,,,,3083015,840 INVESTMENTS LLC,OWNER,845 W LANCASTER AVE BRYN MAWR PA 19010-0 MONTGOMERY,
MARCELLA SORET,CORPORATION,PA,,,,,,,,3083016,840 INVESTMENTS LLC,OWNER,845 W LANCASTER AVE BRYN MAWR PA 19010-0 MONTGOMERY,
TRIPONI PIZZA & DELI CAFE LLC,LLC,PA,,,,,,,,3083017,,,AMTRACK 30TH STREET STATION PHILADELPHIA PA 19104-0 PHILADELPHIA,
"PARSONS INTERSTATE FORD, LLC",LLC,PA,,,,PA 17257-0 CUMBERLAND,196 WALNUT BOTTOM RD,SHIPPENSBURG,,3083019,,,196 WALNUT BOTTOM RD SHIPPENSBURG PA 17257-0 CUMBERLAND,
"MURPHY WEIHBRECHT DEVELOPERS, L.L.C.",LLC,PA,,,,PA 17011-0 CUMBERLAND,429 S 18TH,ST CAMP HILL,,3083020,,,429 S 18TH ST CAMP HILL PA 17011-0 CUMBERLAND,
MDY ACQUISITION COMPANY,LLC,PA,,,,PA 17402-0 YORK,3455 E MARKET ST,YORK,,3083021,,,3455 E MARKET ST YORK PA 17402-0 YORK,
"TPG 65, LLC",LLC,PA,,,,PA 18969-0 MONTGOMERY,65 WEST MADISON AVE,TELFORD,,3083023,,,65 WEST MADISON AVE TELFORD PA 18969-0 MONTGOMERY,
"DREAM REAL ESTATE INVESTMENTS, LLC",LLC,PA,,,,PA,525 ELM ST,READING,,3083025,,,525 ELM ST READING PA 19601-0 BERKS,
BUGSY'S PIZZA LLC,LLC,PA,,,,PA 16201-0 ARMSTRONG,180 S JEFFERSON ST,KITTANNING,,3083026,,,180 S JEFFERSON ST KITTANNING PA 16201-0 ARMSTRONG,
"CEP PROPERTIES, LLC",LLC,PA,,,,PA 19131-0 PHILADELPHIA,3600 CONSHOHOCKEN AVE #1811,PHILADELPHIA,,3083027,,,3600 CONSHOHOCKEN AVE #1811 PHILADELPHIA PA 19131-0 PHILADELPHIA,
"DICESARO SPINE & SPORT CHIROPRACTIC, LLC",LLC,PA,,,,PA 15227-0 ALLEGHENY,608 GLOWOOD DR,PITTSBURGH,,3083028,,,608 GLOWOOD DR PITTSBURGH PA 15227-0 ALLEGHENY,
"PI MANAGEMENT, LLC",LLC,PA,,,,PA 19422-0 MONTGOMERY,80 NORRISTOWN RD,BLUE BELL,,3083029,,,80 NORRISTOWN RD BLUE BELL PA 19422-0 MONTGOMERY,
"S.M. SLENN STUDIOS, L.L.C.",LLC,PA,,,,PA 19151-0 PHILADELPHIA,6446 OVERBROOK AVE,PHILADELPHIA,,3083030,,,6446 OVERBROOK AVE PHILADELPHIA PA 19151-0 PHILADELPHIA,
CW MASONRY & PAINTING LLC,LLC,PA,,,,PA 19083-0 DELAWARE,117 WOOD LN,HAVERTOWN,,3083032,,,117 WOOD LN HAVERTOWN PA 19083-0 DELAWARE,
"FIRST CAPITAL SETTLEMENT SERVICES, LLC",LLC,PA,,,,PA,41 CINEMA DRIVE,YORK,17402,3083033,,,41 CINEMA DRIVE YORK PA 17402 YORK,
"ARMORY MUSIC GROUP, LLC",LLC,PA,,,,PA 19143-0 PHILADELPHIA,5726 PENTRIDGE ST,PHILADELPHIA,,3083034,,,5726 PENTRIDGE ST PHILADELPHIA PA 19143-0 PHILADELPHIA,
"BLUE GECKO, LTD.",LLC,PA,,,,PA,42 UNDERWOOD RD,LEVITTOWN,,3083035,,,42 UNDERWOOD RD LEVITTOWN PA 19056-0 BUCKS,
"S&O MANAGEMENT, LLC",LLC,PA,,,,PA 19475-0 CHESTER,630 HOFFMAN BLVD,SPRING CITY,,3083036,,,630 HOFFMAN BLVD SPRING CITY PA 19475-0 CHESTER,
FOX RUN REALTY LLC.,LLC,PA,,,,PA,2200 HAMILTON BLVD STE 312,ALLENTOWN,18104-0,3083037,,,2200 HAMILTON BLVD STE 312 ALLENTOWN PA 18104-0 LEHIGH,
"FREDERICK CONSTRUCTION, LLC",LLC,PA,,,,PA,2887 VALLEY VIEW DR,DOYLESTOWN,,3083038,,,2887 VALLEY VIEW DR DOYLESTOWN PA 18901-0 BUCKS,
"ARCUS PROPERTIES, LLC",LLC,PA,,,,PA 17101-0 DAUPHIN,600 N 2ND ST STE 104,HARRISBURG,,3083039,,,600 N 2ND ST STE 104 HARRISBURG PA 17101-0 DAUPHIN,
ARONSON LLC,LLC,PA,,,,PA 19116-0 PHILADELPHIA,11175 HENDRIX ST,PHILADELPHIA,,3083041,,,11175 HENDRIX ST PHILADELPHIA PA 19116-0 PHILADELPHIA,
KRISHNA PROPERTY LLC,LLC,PA,,,,PA 17225-0 FRANKLIN,ATRIM TOWNSHIP 50 PINE DR,GREENCASTLE,,3083042,,,ATRIM TOWNSHIP 50 PINE DR GREENCASTLE PA 17225-0 FRANKLIN,
"39TH STREET COMMONS, LLC",LLC,PA,,,,PA,102 LAKELAND DR,MARS,16046-0,3083043,,,102 LAKELAND DR MARS PA 16046-0 BUTLER,
"ROUND TABLE INVESTMENTS, LLC",LLC,PA,,,,PA,31 MUSTANG COURT,HOLLAND,,3083044,,,31 MUSTANG COURT HOLLAND PA 18966-0 BUCKS,
THOMAS J PORRECCA REAL ESTATE LLC,LLC,PA,,,,PA 19403-0 MONTGOMERY,536 N TROOPER RD,NORRISTOWN,,3083046,,,536 N TROOPER RD NORRISTOWN PA 19403-0 MONTGOMERY,
"JANIS CONCESSIONS, LLC.",LLC,PA,,,,PA 15241-0 ALLEGHENY,220 CLAIRMONT DR,PITTSBURGH,,3083047,,,220 CLAIRMONT DR PITTSBURGH PA 15241-0 ALLEGHENY,
SOCCER SCHOOL OF EXCELLENCE,CORPORATION,PA,,,,PA 19301-0 CHESTER,27 E CENTRAL AVE APT C-9,PAOLI,,3083051,MARK WAGNER,OWNER,27 E CENTRAL AVE APT C-9 PAOLI PA 19301-0 CHESTER,
TEACHING IS POWER,CORPORATION,PA,,,,PA 19026-0 DELAWARE,28 DREXELBROOK DR #13,DREXEL HILL,,3083052,PAUL TRITLE,OWNER,28 DREXELBROOK DR #13 DREXEL HILL PA 19026-0 DELAWARE,
POOL TABLE DOCTOR,CORPORATION,PA,,,,PA 19044-0 MONTGOMERY,108 ALLISON RD,HORSHAM,,3083053,CAROLYN HUNTSMAN,OWNER,108 ALLISON RD HORSHAM PA 19044-0 MONTGOMERY,
LIGHTING PRODUCTS INTERNATIONAL,CORPORATION,PA,,,,PA,1336 TURNER ST,ALLENTOWN,18102-0,3083054,MICHAEL KEPPLER,OWNER,1336 TURNER ST ALLENTOWN PA 18102-0 LEHIGH,
"GALLAGHER REAL ESTATE, INC.",CORPORATION,PA,,,,PA,5112 SUGAR HILL CT,DOYLESTOWN,,3083055,KRISTI L KOTZ,SECRETARY,5112 SUGAR HILL CT DOYLESTOWN PA 18901-0 BUCKS,
HUNTER'S REAL ESTATE INVESTMENT SERVICES (HREIS),CORPORATION,PA,,,,,,,,3083056,VINCIA HUNTER,OWNER,16 EISENHOWER CIRCLE WHITEHALL PA 18052-0 LEHIGH,
HESTONVILLE RESIDENTS ASSOCIATIONS,CORPORATION,PA,,,,PA 19131-0 PHILADELPHIA,1623 N 55TH ST,PHILADELPHIA,,3083057,SHEILA BUCHANAN,OWNER,1623 N 55TH ST PHILADELPHIA PA 19131-0 PHILADELPHIA,
CORA'S FLORAL SHOPPE,CORPORATION,PA,,,,PA 18603-0 COLUMBIA,1617 SALEM BLVD,BERWICK,,3083058,KRISTI A MARTIN,OWNER,1617 SALEM BLVD BERWICK PA 18603-0 COLUMBIA,
JUST CAUSE LEGAL SERVICES,CORPORATION,PA,,,,PA 18631-0 COLUMBIA,242 WEST 5TH ST,MIFFLINVILLE,,3083059,RAYMOND J HESS,OWNER,242 WEST 5TH ST MIFFLINVILLE PA 18631-0 COLUMBIA,
TINA'S PURE COUNTRY BAKERY,CORPORATION,PA,,,,PA,RR 1 BOX 143,TIOGA,,3083060,TINA HECK,OWNER,RR 1 BOX 143 TIOGA PA 16946-0 TIOGA,
THE WINDMILL MARKET & AUCTION,CORPORATION,PA,,,,PA 17257-0 CUMBERLAND,42 W ORANGE ST,SHIPPENSBURG,,3083061,BARBEITO & SON INC,OWNER,42 W ORANGE ST SHIPPENSBURG PA 17257-0 CUMBERLAND,
RACE MOTORSPORTS MARKETING,CORPORATION,PA,,,,PA 18045-0 NORTHAMPTON,2879 HOPE RIDGE DR,EASTON,,3083062,ROBYN A CAVALLARO,OWNER,2879 HOPE RIDGE DR EASTON PA 18045-0 NORTHAMPTON,
HUMBLE BEEGINNINGS,CORPORATION,PA,,,,PA 15479-0 WESTMORELAND,ROUTE 981 DUTCH HOLLOW RD,SMITHTON,,3083063,KATHLEEN A RIBNISCKY,OWNER,ROUTE 981 DUTCH HOLLOW RD SMITHTON PA 15479-0 WESTMORELAND,
AWAKENINGS,CORPORATION,PA,,,,PA 17225-0 FRANKLIN,257 S WASHINGTON ST APT #3,GREENCASTLE,,3083064,STEPHANIE L REPH,OWNER,257 S WASHINGTON ST APT #3 GREENCASTLE PA 17225-0 FRANKLIN,
ALL ABOUT CLEAN-HOUSE KEEPING SERVICES,CORPORATION,PA,,,,PA 15063-0 WASHINGTON,909 MARNE AVE,MONONGAHELA,,3083068,TRACIE L GILLINGHAM,OWNER,909 MARNE AVE MONONGAHELA PA 15063-0 WASHINGTON,
"AXIS CONSTRUCTION SERVICES, LLC",CORPORATION,PA,,,,PA 19038-0 MONTGOMERY,804 BETHLEHEM PIKE,ERDENHEIM,,3083070,E-COMMERCE INVIRONMENTS LLC,OWNER,804 BETHLEHEM PIKE ERDENHEIM PA 19038-0 MONTGOMERY,
CREATIVE LEARNING CHILD CARE,CORPORATION,PA,1541 W 8TH ST,ERIE,,PA,2312 W 15TH ST,ERIE,,3083072,IROCK FITNESS INC,OWNER,2312 W 15TH ST ERIE PA 16505-0 ERIE,1541 W 8TH ST ERIE PA 16505-5005
TURNING POINT II,CORPORATION,PA,,,,PA 15301-0 WASHINGTON,22 W WALNUT ST,WASHINGTON,,3083073,ABSTINENT LIVING AT THE,OWNER,22 W WALNUT ST WASHINGTON PA 15301-0 WASHINGTON,
TAYLOR HOUSE,CORPORATION,PA,,,,PA 15301-0 WASHINGTON,199 N MAIN ST,WASHINGTON,,3083074,ABSTINENT LIVING AT THE,OWNER,199 N MAIN ST WASHINGTON PA 15301-0 WASHINGTON,
BAY'S DAY CARE,CORPORATION,PA,,,,PA,2125 GLENDALE AVE,ERIE,,3083076,IDA BUSH,OWNER,2125 GLENDALE AVE ERIE PA 16510-0 ERIE,
L & F TRANSPORT,CORPORATION,PA,,,,PA 19501-0 LANCASTER,135 W MAIN ST,ADAMSTOWN,,3083077,LARRY CLITES,OWNER,135 W MAIN ST ADAMSTOWN PA 19501-0 LANCASTER,
CRITTER CONTROL OF LANCASTER,CORPORATION,PA,,,,PA 17516-0 LANCASTER,1163 STONEHILL RD,CONESTOGA,,3083078,OMEGA WILDLIFE SERVICES INC,OWNER,1163 STONEHILL RD CONESTOGA PA 17516-0 LANCASTER,
BLUE RIBBON PITTSBURGH,CORPORATION,PA,,,,PA 15147-0 ALLEGHENY,5723,VERONA,,3083079,TIM KICKLER,OWNER,5723 VERONA RD VERONA PA 15147-0 ALLEGHENY,
REICH+PETCH DESIGN INTERNATIONAL,CORPORATION,PA,,,,,,,,3083080,REICH DESIGN INC,OWNER,1815 YONGE ST TORONTO ONTARIO M4T 2A4 CANADA PA 0 -0,
ALAMANTE,CORPORATION,PA,PO BOX 1356,LANSDALE,,PA 19106-0 PHILADELPHIA,235 PINE ST STE 3F,PHILADELPHIA,,3083081,JAMES C FAIRFIELD,PRESIDENT,235 PINE ST STE 3F PHILADELPHIA PA 19106-0 PHILADELPHIA,PO BOX 1356 LANSDALE PA 19446-46
SUNSHINE PET CARE,CORPORATION,PA,,,,PA 19350-0 CHESTER,17 THOMAS FARM LANE,LANDENBERG,,3083083,SANDRA L BOYKO,OWNER,17 THOMAS FARM LANE LANDENBERG PA 19350-0 CHESTER,
CLEM'S BBQ,CORPORATION,PA,,,,PA,RT 220 NORTH PORT,MATILDA,16807-0,3083085,CLEMENT G PANTALONE,OWNER,RT 220 NORTH PORT MATILDA PA 16807-0 CENTRE,
SWEENEY SEED COMPANY OF HUNTINGDON VALLEY,CORPORATION,PA,,,,PA,3997 MANN RD,HUNTINGDON VALLEY,19006-0,3083086,DMQ MANAGEMENT INC,OWNER,3997 MANN RD HUNTINGDON VALLEY PA 19006-0 MONROE,
NATIONAL NETWORK OF ACCOUNTANTS,CORPORATION,PA,,,,,,,,3083087,SIDNEY A FRIEDMAN,OWNER,1700 MARKET ST 32ND FL PHILADELPHIA PA 19103-0 PHILADELPHIA,
FULL CIRCLE FARM,CORPORATION,PA,,,,PA,5773 POTTERS LN,PIPERSVILLE,,3083088,FULL CIRCLE FARM LLC,OWNER,5773 POTTERS LN PIPERSVILLE PA 18947-0 BUCKS,
"OLIN MARTH & ASSOCIATES, P.C.",CORPORATION,PA,2908 COTSWOLD ROAD,READING,,PA,855 BERKSHIRE BLVD,WYOMISSING,,3083089,OLIN R MARTH,PRESIDENT,855 BERKSHIRE BLVD WYOMISSING PA 19610-0 BERKS,2908 COTSWOLD ROAD READING PA 19608-06
"GLOBAL CYRAN MEDIA SOLUTIONS, INC.",CORPORATION,PA,106 IVY ST,PITTSBURGH,,,,,,3083090,CYNTHIA A RANDAZZO,PRESIDENT,105 MALL BLVD STE 288 W MONROEVILLE PA 15146-0 ALLEGHENY,106 IVY ST PITTSBURGH PA 15218-1618
"GLADIATORS, INC.",CORPORATION,PA,210 E LIPPINCOTT ST,PHILADELPHIA,,PA 19134-0 PHILADELPHIA,210 E LIPPINCOTT ST,PHILADELPHIA,,3083091,LEV PRYSLER,PRESIDENT,210 E LIPPINCOTT ST PHILADELPHIA PA 19134-0 PHILADELPHIA,210 E LIPPINCOTT ST PHILADELPHIA PA 19134-51
BURDEN LIFTER ASSISTANT CARE HOME,CORPORATION,PA,,,,PA 17103-0 DAUPHIN,1830 CHESTNUT ST,HARRISBURG,,3083092,THEODORE MCNAIR,OWNER,1830 CHESTNUT ST HARRISBURG PA 17103-0 DAUPHIN,
"PORTER COMPUTER SERVICES, INC.",CORPORATION,PA,1425 N BETHLEHEM PIKE,AMBLER,,PA 19002-0 MONTGOMERY,1425 N BETHLEHEM PIKE,AMBLER,,3083093,GARY G PORTER,PRESIDENT,1425 N BETHLEHEM PIKE AMBLER PA 19002-0 MONTGOMERY,1425 N BETHLEHEM PIKE AMBLER PA 19002-46
"ROPRO DESIGN, INC.",CORPORATION,PA,530 BRADYS RIDGE RD,BEAVER,15001-0,PA,4286 GREEN GARDEN RD,ALIQUIPPA,15001-0,3083094,RAYMOND RUSSELL,PRESIDENT,4286 GREEN GARDEN RD ALIQUIPPA PA 15001-0 BEAVER,530 BRADYS RIDGE RD BEAVER PA 15009-9210
"GEORGETOWNE INN, LTD",CORPORATION,PA,1230 GRANDVIEW AVE,PITTSBURGH,15235-3435,PA,12013 FRANKSTOWN RD,PITTSBURGH,15235-3435,3083096,MICHAEL J BUDWAY II,PRESIDENT,12013 FRANKSTOWN RD PITTSBURGH PA 15235-3435 ALLEGHENY,1230 GRANDVIEW AVE PITTSBURGH PA 15211-1204
PHILLY ROCK CORP.,CORPORATION,PA,PO BOX 511,OAKS,19610,PA,501 N PARK ROAD,WYOMISSING,19610,3083097,DAVID H ROWLAND,PRESIDENT,501 N PARK ROAD WYOMISSING PA 19610 BERKS,PO BOX 511 OAKS PA 19456-0511
"MOVIE STOP, INC.",CORPORATION,PA,108 SPRENG LN,VALENCIA,16046-0,PA,218,MARS,16046-0,3083098,RAYMOND R ABATE,SECRETARY,218 MARS-VALENCIA RD MARS PA 16046-0 BUTLER,108 SPRENG LN VALENCIA PA 16059-10
"MUSTARD SEED VENDING SERVICES, INC.",CORPORATION,PA,1514 MCKINLEY ST,PHILADELPHIA,,PA 19149-0 PHILADELPHIA,1514 MCKINLEY ST,PHILADELPHIA,,3083100,OZELL G ALLEN III,PRESIDENT,1514 MCKINLEY ST PHILADELPHIA PA 19149-0 PHILADELPHIA,1514 MCKINLEY ST PHILADELPHIA PA 19149-51
"GALDI CONSULTING, INC.",CORPORATION,PA,122 HAWTHORN RD,KNG OF PRUSSA,,,,,,3083101,JOSEPH A GALDI,PRESIDENT,122 HAWTHORN RD KING OF PRUSSIA PA 19406-0 MONTGOMERY,122 HAWTHORN RD KNG OF PRUSSA PA 19406-1836
106 LANCASTER ASSOCIATES ACQUISITION CORPORATION,CORPORATION,PA,31 MORRIS AVE,BRYN MAWR,,,,,,3083102,ALEXANDER E WOLFINGTON,PRESIDENT,31 MORRIS AVE BRYN MAWR PA 19010-0 MONTGOMERY,31 MORRIS AVE BRYN MAWR PA 19010-46
"WISE ESCROW, INC.",CORPORATION,PA,590 CENTERVILLE RD,LANCASTER,,PA 17601-0 LANCASTER,110 WINDING HILL DR,LANCASTER,,3083103,W MICHAEL WISE,PRESIDENT,110 WINDING HILL DR LANCASTER PA 17601-0 LANCASTER,590 CENTERVILLE RD LANCASTER PA 17601-1306
RELAX RENTALS INCORPORATED,CORPORATION,PA,1814 JEFFERSON CT,NORTH WALES,,PA 19454-0 MONTGOMERY,1814 JEFFERSON CT,NORTH WALES,,3083104,SEAN RYAN,PRESIDENT,1814 JEFFERSON CT NORTH WALES PA 19454-0 MONTGOMERY,1814 JEFFERSON CT NORTH WALES PA 19454-46
"THE FUSION GRILLE, INC.",CORPORATION,PA,149 E CHESTNUT ST,HELLERTOWN,18103-0,PA,3104 HAMILTON BLVD,ALLENTOWN,18103-0,3083105,KEVIN GUTHRIE,PRESIDENT,3104 HAMILTON BLVD ALLENTOWN PA 18103-0 LEHIGH,149 E CHESTNUT ST HELLERTOWN PA 18055-1601
"GREATER PGH. HOME EQUITY, INC.",CORPORATION,PA,3901 WASHINGTON RD,MCMURRAY,,PA 15102-0 ALLEGHENY,5849 LIBRARY RD ST 2,BETHEL PARK,,3083106,GREGORY A KARABETSOS,PRESIDENT,5849 LIBRARY RD ST 2 BETHEL PARK PA 15102-0 ALLEGHENY,3901 WASHINGTON RD MCMURRAY PA 15317-2500
PHW FLORAL SERVICES INC,CORPORATION,PA,1233 BAINBRIDGE ST,PHILADELPHIA,,PA 19147-0 PHILADELPHIA,1233 BAINBRIDGE ST,PHILADELPHIA,,3083107,FRANK GRADY,PRESIDENT,1233 BAINBRIDGE ST PHILADELPHIA PA 19147-0 PHILADELPHIA,1233 BAINBRIDGE ST PHILADELPHIA PA 19147-51
GEIST-DUNN CORPORATION,CORPORATION,PA,50 RANCK AVE,LANCASTER,17602-3222,PA,50 RANCK AVE,LANCASTER,17602-3222,3083108,GERALD E GEIST,PRESIDENT,50 RANCK AVE LANCASTER PA 17602-3222 LANCASTER,50 RANCK AVE LANCASTER PA 17602-3222
"GBR CONSTRUCTION, INC.",CORPORATION,PA,1002 PLYMOUTH RD,PLYMOUTH MTNG,,PA 19462-0 MONTGOMERY,1002 PLYMOUTH RD,PLYMOUTH MEETING,,3083109,GARY A GABORIAULT,PRESIDENT,1002 PLYMOUTH RD PLYMOUTH MEETING PA 19462-0 MONTGOMERY,1002 PLYMOUTH RD PLYMOUTH MTNG PA 19462-2546
"METRIC BUSINESS ASSOCIATES, INC.",CORPORATION,PA,190 S BENJAMIN DR,WEST CHESTER,,,,,,3083110,MICHAEL E MOORE,PRESIDENT,190 S BENJAMIN DR WEST CHESTER PA 19382-0 CHESTER,190 S BENJAMIN DR WEST CHESTER PA 19382-15
"GPI DRYWALL AND CONSTRUCTION, INC.",CORPORATION,PA,50 RED MAPLE AVE,MOUNTAIN TOP,,PA 18201-0 LUZERNE,16 DEER RUN RD,WEST HAZLETON,,3083111,GARY INGRASSIA,PRESIDENT,16 DEER RUN RD WEST HAZLETON PA 18201-0 LUZERNE,50 RED MAPLE AVE MOUNTAIN TOP PA 18707-40
"HAIRTIQUE AND MORE, INC.",CORPORATION,PA,215 S CENTER,ST GROVE CITY,16127-0,PA,215 S CENTER,ST GROVE CITY,16127-0,3083112,SUZANNE CONNER,VICEPRESIDENT,215 S CENTER ST GROVE CITY PA 16127-0 MERCER,215 S CENTER ST GROVE CITY PA 16127-1508
"A-PLUS PROPERTY MANAGEMENT, INC.",CORPORATION,PA,2229 VIRGINIA,AVEDAN STEELE ALIQUIPPA,15001-0,PA,2229 VIRGINIA AVE,ALIQUIPPA,15001-0,3083113,DONALD J TARQUINIO,PRESIDENT,2229 VIRGINIA AVE ALIQUIPPA PA 15001-0 BEAVER,2229 VIRGINIA AVEDAN STEELE ALIQUIPPA PA 15001-1729
"FASHION SKIN CARE, INC.",CORPORATION,PA,# 5D5520 WHITAKER AVE,PHILADELPHIA,,PA 19148-0 PHILADELPHIA,939 DUDLEY ST,PHILADELPHIA,,3083114,RUBEN RIVERA,SECRETARY,939 DUDLEY ST PHILADELPHIA PA 19148-0 PHILADELPHIA,# 5D5520 WHITAKER AVE PHILADELPHIA PA 19124-1705
"MARYLAND ASSOCIATES, INC.",CORPORATION,PA,4 ZACHARY DR,WEST CHESTER,,,,,,3083115,GLENN M WHITE,PRESIDENT,4 ZACHARY DR WEST CHESTER PA 19382-0 CHESTER,4 ZACHARY DR WEST CHESTER PA 19382-8568
"BLACKCAT BOILERS, INC.",CORPORATION,PA,,,,PA 18074-0 MONTGOMERY,1407 KRATZ RD,PERKIOMENVILLE,,3083116,,,1407 KRATZ RD PERKIOMENVILLE PA 18074-0 MONTGOMERY,
"ARTISTICAL CREATIONS, INC.",CORPORATION,PA,,,,PA 19149-0 PHILADELPHIA,1516 HELLERMAN ST,PHILADELPHIA,,3083117,,,1516 HELLERMAN ST PHILADELPHIA PA 19149-0 PHILADELPHIA,
"OLDE GOOD THINGS, INC.",CORPORATION,PA,400 GILLIGAN ST,SCRANTON,,PA 18508-0 LACKAWANNA,400 GILLIGAN ST,SCRANTON,,3083118,LINDA MCANDREWS,SECRETARY,400 GILLIGAN ST SCRANTON PA 18508-0 LACKAWANNA,400 GILLIGAN ST SCRANTON PA 18508-2569
CELL PHONE CITY,CORPORATION,PA,,,,PA 19153-0 PHILADELPHIA,7364 CHELWYNDE AVE,PHILADELPHIA,,3083119,STACEY HUDSON,OWNER,7364 CHELWYNDE AVE PHILADELPHIA PA 19153-0 PHILADELPHIA,
"A GUIDED STAR LIMOUSINE SERVICE, INC.",CORPORATION,PA,1516 HELLERMAN ST,PHILADELPHIA,,PA 19149-0 PHILADELPHIA,1516 HELLERMAN ST,PHILADELPHIA,,3083120,KEITH JONES,PRESIDENT,1516 HELLERMAN ST PHILADELPHIA PA 19149-0 PHILADELPHIA,1516 HELLERMAN ST PHILADELPHIA PA 19149-51
SCRANTON TITLE AND TAG,CORPORATION,PA,,,,PA 18510-0 LACKAWANNA,423 JEFFERSON AVE,SCRANTON,,3083121,ELEANOR M VOLPE,OWNER,423 JEFFERSON AVE SCRANTON PA 18510-0 LACKAWANNA,
THE EMPLOYEE WEB STORE,CORPORATION,PA,,,,PA,2709 COMMERCE WAY,PHILADELPHIA,19154-1011,3083122,ALMO EMPLOYEE STORE LLC,OWNER,2709 COMMERCE WAY PHILADELPHIA PA 19154-1011 PHILADELPHIA,
"DRYON HOLDINGS, INC.",CORPORATION,PA,1479 SPRINGFIELD RD,COLUMBIA CROSS ROADS,,,,,,3083123,DARREN E ROY,PRESIDENT,RR 2 BOX 271A COLUMBIA CROSS ROADS PA 16914-0 BRADFORD,1479 SPRINGFIELD RD COLUMBIA CROSS ROADS PA 16914-8138
THE MODERN IMAGE STYLING STUDIO,CORPORATION,PA,,,,PA 17406-0 YORK,361 W MARKET ST,HELLAM,,3083124,REBECCA A ARNOLD,OWNER,361 W MARKET ST HELLAM PA 17406-0 YORK,
PCS BY DESIGN,CORPORATION,PA,,,,PA,2520 STEELE LN,EASTON,18040-8618,3083125,LAWRENCE F KLUSZA,OWNER,2520 STEELE LN EASTON PA 18040-8618 NORTHAMPTON,
FAZAL FOOD INC.,CORPORATION,PA,,,,PA 19148-0 PHILADELPHIA,2407 SOUTH MARSHALL ST,PHILADELPHIA,,3083126,,,2407 SOUTH MARSHALL ST PHILADELPHIA PA 19148-0 PHILADELPHIA,
LAUREL LAKE TIRE & BATTERY,CORPORATION,PA,,,,PA 18812-0 SUSQUEHANNA,RR 1 BOX 1686,LAUREL LAKE RD BRACKNEY,,3083128,DANE E HOWELL,OWNER,RR 1 BOX 1686 LAUREL LAKE RD BRACKNEY PA 18812-0 SUSQUEHANNA,
"GINISA, INC.",CORPORATION,PA,100 49TH ST,PITTSBURGH,,PA 15201-0 ALLEGHENY,100 49TH ST,PITTSBURGH,,3083129,GINA NICASSIO,PRESIDENT,100 49TH ST PITTSBURGH PA 15201-0 ALLEGHENY,100 49TH ST PITTSBURGH PA 15201-02
WHITE HORSE MILL ANTIQUES,CORPORATION,PA,,,,PA 17527-0 LANCASTER,107 CAMBRIDGE RD,GAP,,3083130,AMERICAN RADIANCE LLC,OWNER,107 CAMBRIDGE RD GAP PA 17527-0 LANCASTER,
GOLDEN MERCHANTS,CORPORATION,PA,,,,PA,1922 LINWOOD,ERIE,,3083131,JOSPEH DELSANDRO,OWNER,1922 LINWOOD ERIE PA 16510-0 ERIE,
"CARLISLE SUPER BUFFET, INC.",CORPORATION,PA,40 NOBLE BLVD,CARLISLE,,PA 17013-0 CUMBERLAND,318 ACRE DR,CARLISLE,,3083132,MU CHU,VICEPRESIDENT,318 ACRE DR CARLISLE PA 17013-0 CUMBERLAND,40 NOBLE BLVD CARLISLE PA 17013-4122
MISTIC ROCK,CORPORATION,PA,,,,PA 15057-0 ALLEGHENY,110 CHAMPION ST,MCDONALD,,3083133,G & G ENTERTAINMENT INC,OWNER,110 CHAMPION ST MCDONALD PA 15057-0 ALLEGHENY,
HORESH REALTY COMPANY,CORPORATION,PA,,,,PA 19341-0 CHESTER,513 WHITFORD RD,EXTON,,3083134,M HORESH LLC,OWNER,513 WHITFORD RD EXTON PA 19341-0 CHESTER,
VOLVO OF LANGHORNE,CORPORATION,PA,,,,PA,1862 LINCOLN HIGHWAY,LANGHORNE,,3083135,H A OTT MOTORCARS LP,OWNER,1862 LINCOLN HIGHWAY LANGHORNE PA 19047-0 BUCKS,
VOLKSWAGEN OF LANGHORNE,CORPORATION,PA,,,,PA,1862 LINCOLN HIGHWAY,LANGHORNE,,3083136,H A OTT MOTORCARS LP,OWNER,1862 LINCOLN HIGHWAY LANGHORNE PA 19047-0 BUCKS,
DRUSHEL KOLAKOWSKI & SCHROECK INSURANCE,CORPORATION,PA,,,,PA,1730 W 26TH ST,ERIE,,3083138,TIMOTHY A KOLAKOWSKI,OWNER,1730 W 26TH ST ERIE PA 16508-0 ERIE,
STROUD COUNTRY DAY SCHOOL,CORPORATION,PA,,,,,,,,3083139,CAROL CAUDILL,OWNER,RT 611 RD 7 BOX 7322 STROUDSBURG PA 18360-0 MONROE,
"A.S.K. INDUSTRIES, INC.",CORPORATION,PA,,,,PA 15957-0 INDIANA,RT 403 403 NORTH PO BOX 149,STRONGSTOWN,,3083140,,,RT 403 403 NORTH PO BOX 149 STRONGSTOWN PA 15957-0 INDIANA,
"RIVER'S EDGE PUBLICATION, INC.",CORPORATION,PA,STAR ROUTE 97 BOX 7045,NARROWSBURG,,PA,RR 5 BOX 5248,HONESDALE,,3083141,GUY MATHEWS,PRESIDENT,RR 5 BOX 5248 HONESDALE PA 18431-0 WAYNE,STAR ROUTE 97 BOX 7045 NARROWSBURG NY 12764
WESTERN PENNSYLVANIA LAND CONVEYANCE COMPANY,CORPORATION,PA,STE C12705,PERRY HWY WEXFORD,,,,,,3083142,DANIEL I SPORRER,VICEPRESIDENT,12982 PERRY HIGHWAY TOWNSHIP OF PINE PA 15090-0 ALLEGHENY,STE C12705 PERRY HWY WEXFORD PA 15090-8441
"LIONS CORPORATION, INC.",CORPORATION,PA,1120 FREDERICK BLVD,READING,,PA,1120 FREDERICK BLVD,READING,,3083143,JOHN HAZAKIS,PRESIDENT,1120 FREDERICK BLVD READING PA 19605-0 BERKS,1120 FREDERICK BLVD READING PA 19605-06
CHRYSTIE CANNON INC.,CORPORATION,PA,54 E JOHNSON ST,PHILADELPHIA,,PA 19144-0 PHILADELPHIA,54 E JOHNSON ST,PHILADELPHIA,,3083145,CHRYSTIE CANNON,SECRETARY,54 E JOHNSON ST PHILADELPHIA PA 19144-0 PHILADELPHIA,54 E JOHNSON ST PHILADELPHIA PA 19144-1927
"IMPROVED PUMPING UNITS, INC.",CORPORATION,PA,BOX 410 A MERCER RD,FRANKLIN,,PA 16344-0 VENANGO,111 MAIN ST,ROUSEVILLE,,3083146,MARIAN WHITE,PRESIDENT,111 MAIN ST ROUSEVILLE PA 16344-0 VENANGO,BOX 410 A MERCER RD FRANKLIN PA 16323-61
THE MANKO COMPANY,CORPORATION,PA,,,,PA 19073-0 DELAWARE,3628 WINDING WAY,NEWTOWN SQUARE,,3083147,THE MANKO COMPANY INC,OWNER,3628 WINDING WAY NEWTOWN SQUARE PA 19073-0 DELAWARE,
PACELLA PARTNERS,CORPORATION,PA,,,,,,,,3083148,MICHAEL D OVERHOLT,OWNER,526 GREEN ST APT B LANSDALE PA 19446-0 MONTGOMERY,
"PENN PLANNING CONSULTANTS, INC.",CORPORATION,PA,552 ARLINGTON AVE,MILMONT PARK,,PA 19033-0 DELAWARE,552 ARLINGTON AVE,MILLMONT PARK,,3083150,RUSSELL W PATTON,PRESIDENT,552 ARLINGTON AVE MILLMONT PARK PA 19033-0 DELAWARE,552 ARLINGTON AVE MILMONT PARK PA 19033-23
JAB PARTNERSHIP,CORPORATION,PA,,,,PA,1321 N ALLEN ST,STATE COLLEGE,16803-0,3083151,JULIA R RATER,OWNER,1321 N ALLEN ST STATE COLLEGE PA 16803-0 CENTRE,
"JT BAD, INC.",CORPORATION,PA,PO BOX 146,MOUNT HOLLY SPRINGS,18235-0,PA,211 N 12TH ST,LEHIGHTON,18235-0,3083153,TRACY L CARROLL,SECRETARY,211 N 12TH ST LEHIGHTON PA 18235-0 CARBON,PO BOX 146 MOUNT HOLLY SPRINGS PA 17065-0146
"BEACON HILL BUILDERS, INC.",CORPORATION,PA,24 APPLEWOOD RD,MALVERN,,PA 19355-0 CHESTER,24 APPLEWOOD RD,MALVERN,,3083155,RAYMOND R MINNICK,PRESIDENT,24 APPLEWOOD RD MALVERN PA 19355-0 CHESTER,24 APPLEWOOD RD MALVERN PA 19355-2880
MEGGA MOUTH RECORDZ,CORPORATION,PA,,,,PA 18020-0 NORTHAMPTON,2245 PEMBROKE PLACE,BETHLEHEM,,3083156,RICHARD B FOWLIN,OWNER,2245 PEMBROKE PLACE BETHLEHEM PA 18020-0 NORTHAMPTON,
SOMETHING DIFFERENT HOME DECOR & GIFTS,CORPORATION,PA,,,,,,,,3083157,DEBORAH DEROGATIS,OWNER,301 TOWNE CENTER BLVD STORE #5 EASTON PA 18040-0 NORTHAMPTON,
HERCULES WELLNESS CENTER INC.,CORPORATION,PA,250 GEIGER RD,PHILADELPHIA,,PA 19115-0 PHILADELPHIA,250 GEIGER ST,PHILADELPHIA,,3083158,AIDA ALOIAN,PRESIDENT,250 GEIGER ST PHILADELPHIA PA 19115-0 PHILADELPHIA,250 GEIGER RD PHILADELPHIA PA 19115-51
LUCKY CONSTRUCTION CORP.,CORPORATION,PA,35 JEAN DR,BRODHEADSVLLE,18322-0,PA,35 JEAN DR,BROADHEADSVILLE,18322-0,3083159,MANGU PARK,PRESIDENT,35 JEAN DR BROADHEADSVILLE PA 18322-0 MONROE,35 JEAN DR BRODHEADSVLLE PA 18322-45
"CERT WEB, INC.",CORPORATION,PA,568 BLUE MOUNTAIN LK E,STROUDSBURG,,,,,,3083160,INDRANI RAMNARINE,PRESIDENT,334 S FRANKLIN NST WILKES-BARRE PA 18702-0 LUZERNE,568 BLUE MOUNTAIN LK E STROUDSBURG PA 18301-8664
"A. BUSCHI TRUCKING, INC.",CORPORATION,PA,238 WOOD ST,CATASAUQUA,18032-0,PA,238 WOOD ST,CATASAUQUA,18032-0,3083161,ANTHONY BUSCHI,PRESIDENT,238 WOOD ST CATASAUQUA PA 18032-0 LEHIGH,238 WOOD ST CATASAUQUA PA 18032-39
"T & C BUILDERS, INC.",CORPORATION,PA,423 GLENLOCH RD,RIDLEY PARK,,PA 19078-0 DELAWARE,423 GLENLOCH RD,RIDLEY PARK,,3083162,THOMAS FISHER,PRESIDENT,423 GLENLOCH RD RIDLEY PARK PA 19078-0 DELAWARE,423 GLENLOCH RD RIDLEY PARK PA 19078-23
"MBS RESOURCES, INC.",CORPORATION,PA,2146 BUENA VISTA HWY,WILCOX,16735-0,PA,14 GREEVES ST,KANE,16735-0,3083163,MATHEW B SICHER,SECRETARY,14 GREEVES ST KANE PA 16735-0 MCKEAN,2146 BUENA VISTA HWY WILCOX PA 15870-1810
HARMONY HILL ELECTRIC,CORPORATION,PA,,,,PA 18612-0 LUZERNE,65 SEDLER RD,DALLAS,,3083164,DEBRA M ADLER,OWNER,65 SEDLER RD DALLAS PA 18612-0 LUZERNE,
"ARTISAN PAINTING & DESIGN, INC.",CORPORATION,PA,64 OLD ORCHARD LN,CHADDS FORD,,PA 19317-0 DELAWARE,64 OLD ORCHARD LANE,CHADDS FORD,,3083165,LEE SCARBOROUGH,PRESIDENT,64 OLD ORCHARD LANE CHADDS FORD PA 19317-0 DELAWARE,64 OLD ORCHARD LN CHADDS FORD PA 19317-23
SUPERIOR DRAFTING AND DESIGN,CORPORATION,PA,1407 KRATZ RD,PERKIOMENVLLE,15201-3140,PA,119 BANNER WAY,PITTSBURGH,15201-3140,3083166,SEAN D MALONEY,PRESIDENT,119 BANNER WAY PITTSBURGH PA 15201-3140 ALLEGHENY,1407 KRATZ RD PERKIOMENVLLE PA 18074-46
"CASTLE ELECTRIC, INC.",CORPORATION,PA,1324 CHAPIN RD,NEW CASTLE,,PA 16105-0 LAWRENCE,169 CHAPIN RD,NEW CASTLE,,3083168,PETER MONTINI,PRESIDENT,169 CHAPIN RD NEW CASTLE PA 16105-0 LAWRENCE,1324 CHAPIN RD NEW CASTLE PA 16105-37
DESIGN AND HOME CONSTRUCTION SPECIALISTS INC.,CORPORATION,PA,308 UNION AVE,ALTOONA,,PA,401 PARK VIEW LANE,ALTOONA,,3083169,ROBERT G PENNINGTON,PRESIDENT,401 PARK VIEW LANE ALTOONA PA 16601-0 BLAIR,308 UNION AVE ALTOONA PA 16602-3250
TRI-COUNTY KITCHENS AND BATHS,CORPORATION,PA,,,,PA 19046-0 MONTGOMERY,213 RUNNER ST,JENKINTOWN,,3083170,BARTRAM COHEN,OWNER,213 RUNNER ST JENKINTOWN PA 19046-0 MONTGOMERY,
"FRANK MOE AUTO SALES, INC.",CORPORATION,PA,225 WAINWRIGHT DRIVE,MCKEESPORT,,PA 15425-0 FAYETTE,2606 MEMORIAL BLVD,CONNELLSVILLE,,3083171,FRANCISCO MOUX,PRESIDENT,2606 MEMORIAL BLVD CONNELLSVILLE PA 15425-0 FAYETTE,225 WAINWRIGHT DRIVE MCKEESPORT PA 15132-02
GOLDEN ABSTRACT SERVICES,CORPORATION,PA,,,,PA 19014-0 DELAWARE,233-A PENNELL RD,ASTON,,3083172,PATRICK T CARNEY,OWNER,233-A PENNELL RD ASTON PA 19014-0 DELAWARE,
"PHILIP CONRAD ENTERPRISES, INC.",CORPORATION,PA,104 N YORK RD PO BOX 726,HATBORO,,PA 19040-0 MONTGOMERY,104 N YORK RD PO BOX 726,HATBORO,,3083173,PHILIP CONRAD,PRESIDENT,104 N YORK RD PO BOX 726 HATBORO PA 19040-0 MONTGOMERY,104 N YORK RD PO BOX 726 HATBORO PA 19040-46
"MCBB, INC.",CORPORATION,PA,,,,PA 19428-0 MONTGOMERY,200 FOUR FALLS CORP CTR STE 201,WEST CONSHOHOCKEN,,3083174,,,200 FOUR FALLS CORP CTR STE 201 WEST CONSHOHOCKEN PA 19428-0 MONTGOMERY,
"SKATE PARKS, INC.",CORPORATION,PA,160 LINCOLN HWY,FAIRLESS HLS,,PA,160 LINCOLN HIGHWAY,FAIRLESS HILLS,,3083175,MARK LEVITO,PRESIDENT,160 LINCOLN HIGHWAY FAIRLESS HILLS PA 19030-0 BUCKS,160 LINCOLN HWY FAIRLESS HLS PA 19030-09
"UNC, INC.",CORPORATION,PA,14098 LEE HWY 216,CENTREVILLE,,PA 19029-0 DELAWARE,12 POULSON AVE,ESSINGTON,,3083176,MARC J LOUNDAS,PRESIDENT,12 POULSON AVE ESSINGTON PA 19029-0 DELAWARE,14098 LEE HWY 216 CENTREVILLE VA 20120
BEAUTY PALACE,CORPORATION,PA,,,,PA 18064-0 NORTHAMPTON,15 S MAIN ST,NAZARETH,,3083177,SHERRI LYNN GALATI,OWNER,15 S MAIN ST NAZARETH PA 18064-0 NORTHAMPTON,
"THE MEDICAL CONEXION, INC.",CORPORATION,PA,14 HILLIARD WAY,SEWELL,,,,,,3083180,MICHAEL SIMON,SECRETARY,"%NATIONAL REGISTERED AGENTS, INC. DAUPHIN",14 HILLIARD WAY SEWELL NJ 08080-3615
"ABELL FINANCING, INC.",CORPORATION,PA,,,,PA 18704-0 LUZERNE,44 PIERCE ST,KINGSTON,,3083181,LISA A FULLER,OWNER,44 PIERCE ST KINGSTON PA 18704-0 LUZERNE,
"BRANDYL AGENCY, INC.",CORPORATION,PA,1 ROCKING HORSE WAY,HOLLAND,,PA,27 TEABERRY LANE,NEWTOWN,,3083182,MARK A SCHER,PRESIDENT,27 TEABERRY LANE NEWTOWN PA 18940-0 BUCKS,1 ROCKING HORSE WAY HOLLAND PA 18966
"VRADINSKIY, INC",CORPORATION,PA,2337 PHILMONT AVE,HUNTINGDON VY,,PA 19006-0 MONTGOMERY,33 TOMLINSON RD,HUNTINGDON VALLEY,,3083183,ALEKSANDER VRADINSKIY,PRESIDENT,33 TOMLINSON RD HUNTINGDON VALLEY PA 19006-0 MONTGOMERY,2337 PHILMONT AVE HUNTINGDON VY PA 19006-6200
"ABELL HOMES, INC.",CORPORATION,PA,,,,PA 18656-0 LUZERNE,5355 MAIN ST,SWEET VALLEY,,3083184,LISA A FULLER,OWNER,5355 MAIN ST SWEET VALLEY PA 18656-0 LUZERNE,
"ESTADT, GARTH S. INSURANCE AGENCY, INC.",CORPORATION,PA,502 SUNSET DR,OLYPHANT,,,,,,3083185,GARTH ESTADT,PRESIDENT,1580 MAIN ST PLAZA 1500 PECKVILLE PA 18452-0 LACKAWANNA,502 SUNSET DR OLYPHANT PA 18447-1324
KRIS-TAL-KLEEN,CORPORATION,PA,,,,PA 15209-0 ALLEGHENY,348 WIBLE RUN RD,PITTSBURGH,,3083186,KRISTINE WALSH,OWNER,348 WIBLE RUN RD PITTSBURGH PA 15209-0 ALLEGHENY,
