name,business_type,state_registered,street_registered,city_registered,zip5_registered,state_physical,street_physical,city_physical,zip5_physical,filing_number,agent_name,agent_title,raw_physical_address,raw_registered_address
CROSS CULTURE,CORPORATION,PA,5115 BARNESS COURT,DOYLESTOWN,18912,PA,4950 YORK ROAD SUITE P,BUCKINGHAM,18912,7152328,GUPREET SINGH,OWNER,4950 YORK ROAD SUITE P BUCKINGHAM PA 18912 OUT OF STATE,5115 BARNESS COURT DOYLESTOWN PA 18902
PRETTY PURPLE DOOR,CORPORATION,PA,220 STARK ST,OLD FORGE,18518,PA,220 STARK ST.,OLD FORGE,18518,7152329,AMY FEDELE,OWNER,220 STARK ST. OLD FORGE PA 18518 LACKAWANNA,220 STARK ST OLD FORGE PA 18518
"DUEL DEAL, INC.",CORPORATION,PA,,,,PA,515 RASPBERRY LANE,WEST CHESTER,19382,7152331,,,515 RASPBERRY LANE WEST CHESTER PA 19382 CHESTER,
DAANA KARNA FOUNDATION,NONPROFIT,PA,,,,PA,1485 FOX HOLLOW DR,YARDLEY,19067,7152333,,,1485 FOX HOLLOW DR YARDLEY PA 19067 BUCKS,
AANJ LLC,LLC,PA,,,,PA,402 CHESWICK PLACE,BRYN MAWR,19010,7152334,,,402 CHESWICK PLACE BRYN MAWR PA 19010 MONTGOMERY,
JOHNSTOWN SNOW REMOVAL SERVICE,CORPORATION,PA,503 BLUE ROAD,SALIX,15952,PA,503 BLUE ROAD,SALIX,15952,7152336,"EVERGREEN LANDSCAPING SERVICES & SNOW REMOVAL, LLC",OWNER,503 BLUE ROAD SALIX PA 15952 CAMBRIA,503 BLUE ROAD SALIX PA 15952
"PALMER POINT T2, LLC",LLC,PA,,,,PA,7171 AIRPORT ROAD,BATH,18014,7152337,,,7171 AIRPORT ROAD BATH PA 18014 NORTHAMPTON,
"PALMER POINT OE, LLC",LLC,PA,,,,PA,7171 AIRPORT ROAD,BATH,18014,7152338,,,7171 AIRPORT ROAD BATH PA 18014 NORTHAMPTON,
SAAHIRAH SYN,CORPORATION,PA,190 DALE RD,PHILIPSBURG,16866,PA,190 DALE RD,PHILIPSBURG,16866,7152339,HAUS OF SYN CO,OWNER,190 DALE RD PHILIPSBURG PA 16866,190 DALE RD PHILIPSBURG PA 16866
HUGS W SUGGS,CORPORATION,PA,7828 ANGUS RD,PHILADELPHIA,19150,PA,1117 IVYHILL RD,PHILADELPHIA,19150,7152340,SYLVIA T SUGGS,OWNER,1117 IVYHILL RD PHILADELPHIA PA 19150 OUT OF STATE,7828 ANGUS RD PHILADELPHIA PA 19150
CASH LLC,LLC,PA,,,,PA,1120 JACKSON STREET,EASTON,18042,7152341,,,1120 JACKSON STREET EASTON PA 18042 NORTHAMPTON,
KROSS COLLECTION LLC,LLC,PA,,,,PA,507 W MANHEIM ST 17D,PHILADELPHIA,19144,7152342,,,507 W MANHEIM ST 17D PHILADELPHIA PA 19144 PHILADELPHIA,
FIXED AND FLIPPED,LLC,PA,,,,PA,3186 BRENTWOOD DR,DOYLESTOWN,18902,7152343,,,3186 BRENTWOOD DR DOYLESTOWN PA 18902 BUCKS,
MY FEMININE HEART,CORPORATION,PA,4342 WEBSTER DR N,YORK,17402,PA,4342 WEBSTER DR,YORK,17402,7152344,CASSANDRA STORM PHOTOGRAPHY INC,OWNER,4342 WEBSTER DR YORK PA 17402 YORK,4342 WEBSTER DR N YORK PA 17402
M G ARMORY,CORPORATION,PA,464 E MAPLE GROVE RD,NARVON,17555,PA,464 E MAPLE GROVE RD,NARVON,17555,7152345,"MAPLE GROVE RELOADING & SHOOTING SUPPLY, LLC",OWNER,464 E MAPLE GROVE RD NARVON PA 17555 LANCASTER,464 E MAPLE GROVE RD NARVON PA 17555
"ARTHA KRANTI, INC.",CORPORATION,PA,,,,PA,30 TODD DRIVE,BURGETTSTOWN,15021,7152346,,,30 TODD DRIVE BURGETTSTOWN PA 15021 WASHINGTON,
"KNOW H.O.W. DYNAMICS, INC.",CORPORATION,PA,,,,PA,3811 NEW TEXAS ROAD,PITTSBURGH,15239,7152348,,,3811 NEW TEXAS ROAD PITTSBURGH PA 15239 ALLEGHENY,
"VROOM LOGISTICS, LLC",LLC,DE,,,,,,,,7152350,,,%CORPORATION SERVICE COMPANY DAUPHIN,
"ALLEGHENY GRILLE HOLDINGS, LLC",LLC,PA,,,,PA,40 MAIN ST.,FOXBURG,16036,7152352,,,40 MAIN ST. FOXBURG PA 16036 CLARION,
ALC WORLDWIDE CAR SERVICE INC,CORPORATION,PA,1110 SPRING LANE,EASTON,18040,PA,1110 SPRING LANE,EASTON,18040,7152353,MITCHELL R CHRISTOPHER,OWNER,1110 SPRING LANE EASTON PA 18040 NORTHAMPTON,1110 SPRING LANE EASTON PA 18040
CONEXUS METALS LLC,LLC,DE,,,,PA,"618 BEAVER STREET, SUITE 104",SEWICKLEY,15143,7152354,,,"618 BEAVER STREET, SUITE 104 SEWICKLEY PA 15143 ALLEGHENY",
FLEISHMAN-HILLARD INC.,CORPORATION,DE,,,,,,,,7152355,,,%CORPORATION SERVICE COMPANY DAUPHIN,
N'TRINZIK LLC,LLC,PA,,,,PA,8222 WILLIAMS AVE,PHILADELPHIA,19150-2011,7152363,,,8222 WILLIAMS AVE PHILADELPHIA PA 19150-2011 PHILADELPHIA,
GREEN THUMB ORGANICS,CORPORATION,PA,1805 TREETOP DR. APT. 11A,ERIE,16510,PA,3515 B (REAR) BUFFALO RD,ERIE,16510,7152364,SCOTT R BANE,OWNER,3515 B (REAR) BUFFALO RD ERIE PA 16510 ERIE,1805 TREETOP DR. APT. 11A ERIE PA 16509
"J. HARBAUGH ADVISORY, LLC",LLC,PA,,,,PA,1979 VELVET TRAIL,HELLERTOWN,18055,7152366,,,1979 VELVET TRAIL HELLERTOWN PA 18055 NORTHAMPTON,
STONY CREEK FILMS,CORPORATION,PA,417 ERDMAN DR.,DAUPHIN,17018,PA,417 ERDMAN DR,DAUPHIN,17018,7152368,MICHAEL LOMMA,OWNER,417 ERDMAN DR DAUPHIN PA 17018 DAUPHIN,417 ERDMAN DR. DAUPHIN PA 17018
WRIGHT ASSETS LLC,LLC,PA,,,,,,,,7152369,,,%REGISTERED AGENTS INC MONTGOMERY,
CROWN OF GLORY LLC,LLC,PA,,,,PA,2741 ANDREA DR,ALLENTOWN,18103,7152370,,,2741 ANDREA DR ALLENTOWN PA 18103 LEHIGH,
RULAWORLD ENTERTAINMENT LLC,LLC,PA,,,,PA,5744 N LAWRENCE ST,PHILADELPHIA,19120,7152371,,,5744 N LAWRENCE ST PHILADELPHIA PA 19120 PHILADELPHIA,
MOSLEY'S ELECTRIC LLC,LLC,NJ,,,,PA,6339 DITMAN ST.,PHILADELPHIA,19135,7152374,,,6339 DITMAN ST. PHILADELPHIA PA 19135 PHILADELPHIA,
PUSH CONSULTING LLC,LLC,PA,,,,PA,2724 N DARIEN ST,PHILADELPHIA,19104,7152376,,,2724 N DARIEN ST PHILADELPHIA PA 19104 PHILADELPHIA,
LIBERTY BELL HOSTING CORP.,CORPORATION,PA,,,,,,,,7152377,,,"%UNITED STATES CORPORATION AGENTS, INC. LEHIGH",
KINGZ & QUEENS LP,PARTNERSHIP,PA,472 FIELDING DR,PITTSBURGH,15137,PA,400 PORTER ST,NORTH VERSAILLES,15137,7152378,DIONNA GIDDENS,GENPARTNER,400 PORTER ST NORTH VERSAILLES PA 15137 OUT OF STATE,472 FIELDING DR PITTSBURGH PA 15235
BUILDING FUTURES AND CREATIONS LLC,LLC,PA,,,,,,,,7152379,,,"%UNITED STATES CORPORATION AGENTS, INC. LEHIGH",
TURBANME LLC,LLC,PA,,,,,,,,7152380,,,"%UNITED STATES CORPORATION AGENTS, INC. LEHIGH",
NLS HANDYMAN LLC,LLC,PA,,,,,,,,7152381,,,"%UNITED STATES CORPORATION AGENTS, INC. LEHIGH",
BL SPRINTER LLC,LLC,PA,,,,PA,9304 KEYSTONE STREET,PHILADELPHIA,19114,7152382,,,9304 KEYSTONE STREET PHILADELPHIA PA 19114 PHILADELPHIA,
JESSCO CONSTRUCTION INC.,CORPORATION,NJ,,,,PA,1515 MARKET STREET STE 1200,PHILADELPHIA,19102,7152383,,,1515 MARKET STREET STE 1200 PHILADELPHIA PA 19102 PHILADELPHIA,
BLESSNBULLIES LLC,LLC,PA,,,,,,,,7152384,,,"%UNITED STATES CORPORATION AGENTS, INC. LEHIGH",
"ALPHA FINANCIAL COMPANIES, INC.",CORPORATION,DE,,,,PA,975 SECOND STREET PIKE,RICHBORO,18954,7152385,,,975 SECOND STREET PIKE RICHBORO PA 18954 BUCKS,
SUTLIFF PERFORMANCE HORSES LLC,LLC,PA,,,,,,,,7152386,,,"%UNITED STATES CORPORATION AGENTS, INC. LEHIGH",
EMBRACETHECROWN LLC,LLC,PA,,,,,,,,7152388,,,"%UNITED STATES CORPORATION AGENTS, INC. LEHIGH",
"BBIC INVESTORS, LLC",LLC,PA,,,,PA,502 SOUTH BLAKELY STREET,DUNMORE,18512,7152389,,,502 SOUTH BLAKELY STREET DUNMORE PA 18512 LACKAWANNA,
SLUMLORD HOME IMPROVEMENT LLC,LLC,PA,,,,,,,,7152390,,,"%UNITED STATES CORPORATION AGENTS, INC. LEHIGH",
MADE IN MONTOYA'S KITCHEN LLC,LLC,PA,,,,,,,,7152391,,,"%UNITED STATES CORPORATION AGENTS, INC. LEHIGH",
ME CHEL LE LLC,LLC,PA,,,,,,,,7152392,,,"%UNITED STATES CORPORATION AGENTS, INC. LEHIGH",
D-KAL CONSTRUCTION LLC,LLC,PA,,,,,,,,7152395,,,"%UNITED STATES CORPORATION AGENTS, INC. LEHIGH",
JAMES UNLIMITED LLC,LLC,PA,,,,PA,1915 SUSQUEHANNA ST,HARRISBURG,17102,7152396,,,1915 SUSQUEHANNA ST HARRISBURG PA 17102 DAUPHIN,
BLACK SHEEP PROPERTIES LLC,LLC,PA,,,,PA,134 SOUTH 14TH STREET,CATASAUQUA,18032,7152397,,,134 SOUTH 14TH STREET CATASAUQUA PA 18032 LEHIGH,
ON THE GO TRUCKING LLC,LLC,PA,,,,PA,644 GARFIELD STREET,HAZLETON,18201,7152398,,,644 GARFIELD STREET HAZLETON PA 18201 LUZERNE,
RAW PRODUCTION LLC,LLC,PA,,,,,,,,7152399,,,"%UNITED STATES CORPORATION AGENTS, INC. LEHIGH",
CHAPTER XXV BOUTIQUE LLC,LLC,PA,,,,,,,,7152400,,,"%UNITED STATES CORPORATION AGENTS, INC. LEHIGH",
HOME STAGING WITH AMBIANCE LLC,LLC,PA,,,,PA,3214 MAPLECREST TER,LANCASTER,17601,7152401,,,3214 MAPLECREST TER LANCASTER PA 17601 LANCASTER,
BEYOND BOOKKEEPING LLC,LLC,PA,,,,PA,647 ENGLESVILLE ROAD,BOYERTOWN,19512,7152403,,,647 ENGLESVILLE ROAD BOYERTOWN PA 19512 BERKS,
"LANCASTER COUNTY JOURNALISM FUND, LLC",LLC,PA,,,,PA,"24 W. KING STREET, SUITE 201",LANCASTER,17603,7152404,,,"24 W. KING STREET, SUITE 201 LANCASTER PA 17603 LANCASTER",
DANKS HOME SERVICES LLC,LLC,PA,,,,PA,1065 CHELSEA COURT,HATFIELD,19440,7152405,,,1065 CHELSEA COURT HATFIELD PA 19440 MONTGOMERY,
NPK DIGITAL LLC,LLC,PA,,,,,,,,7152406,,,"%UNITED STATES CORPORATION AGENTS, INC. LEHIGH",
"223 E. GIRARD QOZ, LLC",LLC,PA,,,,PA,1135 CARPENTER ST.,PHILADELPHIA,19147,7152408,,,1135 CARPENTER ST. PHILADELPHIA PA 19147 PHILADELPHIA,
UNIVERSAL CAREWORKS LLC,LLC,PA,,,,,,,,7152409,,,"%UNITED STATES CORPORATION AGENTS, INC. LEHIGH",
CATHARINE 6021 LLC,LLC,PA,,,,PA,100 SOUTH BROAD STREET SUITE 1525,PHILADELPHIA,19110,7152410,,,100 SOUTH BROAD STREET SUITE 1525 PHILADELPHIA PA 19110 PHILADELPHIA,
EVOLUTION CLEANING COMPANY LLC,LLC,PA,,,,,,,,7152411,,,"%UNITED STATES CORPORATION AGENTS, INC. LEHIGH",
ARTISTIC INNOVATION LLC,LLC,PA,,,,,,,,7152412,,,"%UNITED STATES CORPORATION AGENTS, INC. LEHIGH",
"KICKING ASSETS, LLC",LLC,PA,,,,PA,415 W. ELLET STREET,PHILADELPHIA,19119,7152413,,,415 W. ELLET STREET PHILADELPHIA PA 19119 PHILADELPHIA,
"MBL FAMILY INVESTMENT CLUB, LLC",LLC,PA,,,,PA,8215 STOCKTON ROAD,ELKINS PARK,19027,7152415,,,8215 STOCKTON ROAD ELKINS PARK PA 19027 MONTGOMERY,
MADINA'S DIAMOND SHINE LLC,LLC,PA,,,,,,,,7152416,,,"%UNITED STATES CORPORATION AGENTS, INC. LEHIGH",
MALANDA EXTERIOR LLC,LLC,PA,,,,,,,,7152417,,,"%UNITED STATES CORPORATION AGENTS, INC. LEHIGH",
ROCK SOLID LANDSCAPING BY DAVE REBELLO LLC,LLC,PA,,,,,,,,7152418,,,"%UNITED STATES CORPORATION AGENTS, INC. LEHIGH",
"278 PINECROFT, LLC",LLC,PA,,,,PA,1120 N. BETHLEHEM PIKE P.O. BOX 280,SPRING HOUSE,19477,7152419,,,1120 N. BETHLEHEM PIKE P.O. BOX 280 SPRING HOUSE PA 19477 MONTGOMERY,
LOCK THE GLOBE PROPERTY MANAGEMENT LLC,LLC,PA,,,,PA,409 S 61ST ST APT B,PHILADELPHIA,19143,7152420,,,409 S 61ST ST APT B PHILADELPHIA PA 19143 PHILADELPHIA,
HYPNO COSMETICS LLC,LLC,PA,,,,PA,1635 GRANITE ST,PHILADELPHIA,19124,7152421,,,1635 GRANITE ST PHILADELPHIA PA 19124 PHILADELPHIA,
"AMERICAN HOME THERAPY, LLC",LLC,NJ,,,,PA,806 ST. CHRISTOPHER LANE,PHILADELPHIA,19116,7152422,,,806 ST. CHRISTOPHER LANE PHILADELPHIA PA 19116 PHILADELPHIA,
BAMS LANDSCAPING LLC,LLC,PA,,,,PA,106 STATE ST,PITTSBURGH,15148,7152423,,,106 STATE ST PITTSBURGH PA 15148 ALLEGHENY,
BE PHILLY L.L.C.,LLC,PA,,,,PA,5403 REGENT ST,PHILADELPHIA,19143,7152424,,,5403 REGENT ST PHILADELPHIA PA 19143 PHILADELPHIA,
A K BOY GENERAL CONTRACTOR LLC,LLC,PA,,,,PA,4 S WALNUT ST P.O. BOX 335,TRESCKOW,18254,7152425,,,4 S WALNUT ST P.O. BOX 335 TRESCKOW PA 18254 CARBON,
SR BEAUTY SALON INC.,CORPORATION,PA,,,,PA,134 BETHLEHEM PIKE,COLMAR,18915,7152426,,,134 BETHLEHEM PIKE COLMAR PA 18915 MONTGOMERY,
KAYLACHERAE BEAUTY LLC,LLC,PA,,,,PA,1107 WEST WYOMING AVENUE,PHILADELPHIA,19140,7152427,,,1107 WEST WYOMING AVENUE PHILADELPHIA PA 19140 PHILADELPHIA,
SLOPES N'AHT PROPERTIES LLC,LLC,PA,,,,PA,418 BOGGS AVENUE,PITTSBURGH,15211,7152428,,,418 BOGGS AVENUE PITTSBURGH PA 15211 ALLEGHENY,
JOHNCARO LLC,LLC,PA,,,,PA,82 PAUPACK POINT RD,HAWLEY,18428,7152429,,,82 PAUPACK POINT RD HAWLEY PA 18428 WAYNE,
QUALITY COLLABORATIONS LLC,LLC,TX,,,,,,,,7152430,,,%REGISTERED AGENTS INC MONTGOMERY,
SIMMONS PHOTOGRAPHY LLC,LLC,PA,,,,PA,37 HILLTOP TRL,FAIRFIELD,17320,7152432,,,37 HILLTOP TRL FAIRFIELD PA 17320 ADAMS,
OUTSIDE CAPITAL LLC,LLC,PA,,,,PA,107 CUMBERLAND STREET,BERLIN,15530,7152433,,,107 CUMBERLAND STREET BERLIN PA 15530 SOMERSET,
ELITE MVP CORPORATION,NONPROFIT,PA,,,,PA,844 EAST PRICE STREET,PHILADELPHIA,19138,7152434,,,844 EAST PRICE STREET PHILADELPHIA PA 19138 PHILADELPHIA,
"THE BODY LAB, WHERE BEAUTY IS A SCIENCE",CORPORATION,PA,121 OLD CEDARBROOK ROAD,WYNCOTE,19095,PA,121 OLD CEDARBROOK ROAD,WYNCOTE,19095,7152435,DEBBIE G PATTERSON,OWNER,121 OLD CEDARBROOK ROAD WYNCOTE PA 19095 MONTGOMERY,121 OLD CEDARBROOK ROAD WYNCOTE PA 19095
BIG BANG INVESTMENT GROUP L.L.C.,LLC,PA,,,,PA,1236 W. SELTZER STREET,PHILADELPHIA,19133,7152436,,,1236 W. SELTZER STREET PHILADELPHIA PA 19133 PHILADELPHIA,
FAIRYBELLS EVENTS LLC,LLC,PA,,,,PA,6501 N 8TH STREET,PHILADELPHIA,19126,7152437,,,6501 N 8TH STREET PHILADELPHIA PA 19126 PHILADELPHIA,
REACH SOCIAL MEDIA MARKETING,CORPORATION,PA,2317 JUNIPER DR,COPLAY,18037,PA,2317 JUNIPER DR,COPLAY,18037,7152438,CHARLES J SABO,OWNER,2317 JUNIPER DR COPLAY PA 18037 LEHIGH,2317 JUNIPER DR COPLAY PA 18037
B & T CLOTHING HOUSE,CORPORATION,PA,4212 SOCIETY PARK CT APT C,HARRISBURG,17109,PA,4212 SOCIETY PARK CT APT C,HARRISBURG,17109,7152439,BHIM M BHUJET,OWNER,4212 SOCIETY PARK CT APT C HARRISBURG PA 17109 DAUPHIN,4212 SOCIETY PARK CT APT C HARRISBURG PA 17109
STAY ALIVE 215 LLC,LLC,PA,,,,PA,120 E STREET RD,WARMINSTER,18974,7152440,,,120 E STREET RD WARMINSTER PA 18974 MONTGOMERY,
TIONA FOOTE,CORPORATION,PA,73 LENOX ST,UNIONTOWN,15401,PA,73 LENOX ST,UNIONTOWN,15401,7152441,ALICIA WILLIAMS,OWNER,73 LENOX ST UNIONTOWN PA 15401 FAYETTE,73 LENOX ST UNIONTOWN PA 15401
PHILLY MAIN SQUEEZE LEMONADE LLC,LLC,PA,,,,PA,151 N YEWDALL STREET,PHILADELPHIA,19139,7152443,,,151 N YEWDALL STREET PHILADELPHIA PA 19139 PHILADELPHIA,
REALTY REHABS AND CONSTRUCTION LLC,LLC,PA,,,,PA,69 SUNSHINE RD,UPPER DARBY,19082,7152444,,,69 SUNSHINE RD UPPER DARBY PA 19082 DELAWARE,
YB FLOORING L.L.C.,LLC,PA,,,,PA,8 MAPLE ST,WEST WYOMING,18644,7152445,,,8 MAPLE ST WEST WYOMING PA 18644 LUZERNE,
NATURAL THINGS LLC,LLC,PA,,,,PA,625 WATERVIEW LANE,PHILADELPHIA,19154,7152446,,,625 WATERVIEW LANE PHILADELPHIA PA 19154 PHILADELPHIA,
UGENIUS SERVICES INC,CORPORATION,PA,,,,PA,4907 MAGNOLIA AVE,FEASTERVILLE,19053,7152448,,,4907 MAGNOLIA AVE FEASTERVILLE PA 19053 BUCKS,
EQUINUNK IMPROVEMENTS L.L.C.,LLC,PA,,,,PA,251 HELLMERS HILL ROAD,EQUINUNK,18417,7152449,,,251 HELLMERS HILL ROAD EQUINUNK PA 18417 WAYNE,
EMORY CREEK CO.,LLC,PA,,,,PA,322 EMORY ST,BELLWOOD,16617,7152450,,,322 EMORY ST BELLWOOD PA 16617 BLAIR,
1004 EWG LLC,LLC,PA,,,,PA,1410 E WILLOW GROVE AVE,WYNDMOOR,19038,7152451,,,1410 E WILLOW GROVE AVE WYNDMOOR PA 19038 MONTGOMERY,
BLR LLC,LLC,PA,,,,PA,2324 S 7TH STREET,PHILADELPHIA,19148,7152452,,,2324 S 7TH STREET PHILADELPHIA PA 19148 PHILADELPHIA,
BAGGIN' IT BY SUE,CORPORATION,PA,205 SOUTH 9TH ST,BANGOR,18013,PA,205 SOUTH 9TH ST,BANGOR,18013,7152453,SUZANNE C STREISGUTH,MEMBERNAME,205 SOUTH 9TH ST BANGOR PA 18013 NORTHAMPTON,205 SOUTH 9TH ST BANGOR PA 18013
DWYER DWELLINGS AND INVESTMENTS LLC,LLC,PA,,,,PA,150 MONUMENT RD SUITE 207,BALA CYNWYD,19004,7152455,,,150 MONUMENT RD SUITE 207 BALA CYNWYD PA 19004 MONTGOMERY,
FLOURISHING MARE LLC,LLC,PA,,,,PA,90 CLEARVIEW AVE,HUNTINGDON VALLEY,19006,7152456,,,90 CLEARVIEW AVE HUNTINGDON VALLEY PA 19006 MONTGOMERY,
AMERISTOCK METALS LLC,LLC,PA,,,,PA,PO BOX 186,CLYMER,15728,7152457,,,PO BOX 186 CLYMER PA 15728 INDIANA,
INTIMATELY LACED LLC,LLC,PA,,,,PA,3723 N 15,TH PHILADELPHIA,19140,7152460,,,3723 N 15 TH PHILADELPHIA PA 19140 PHILADELPHIA,
DAVID GVINIANIDZE ARTS AND MUSIC CENTER INC.,CORPORATION,PA,,,,PA,1575 W STREET RD APT 636,WARMINSTER,18974,7152461,,,1575 W STREET RD APT 636 WARMINSTER PA 18974 BUCKS,
6124 GREENE LLC,LLC,PA,,,,PA,6124 GREENE ST,PHILADELPHIA,19144,7152462,,,6124 GREENE ST PHILADELPHIA PA 19144 PHILADELPHIA,
CERTIFIED LIMITED LIABILITY COMPANY,LLC,PA,,,,PA,2238 WILSON AVE,PITTSBURGH,15214,7152463,,,2238 WILSON AVE PITTSBURGH PA 15214 ALLEGHENY,
STYLES EXECUTIVE PROTECTION SERVICES LLC,LLC,PA,,,,PA,1600 GARRETT ROAD APT. A305,UPPER DARBY,19082,7152464,,,1600 GARRETT ROAD APT. A305 UPPER DARBY PA 19082 DELAWARE,
BRILLIANT DESIGNS LLC,LLC,PA,,,,PA,2745 BONSALL STREET,PHILADELPHIA,19132,7152465,,,2745 BONSALL STREET PHILADELPHIA PA 19132 PHILADELPHIA,
FINN HERSZ ZELIG LLC,LLC,PA,,,,PA,5220 CEDAR AVE,PHILADELPHIA,19143,7152466,,,5220 CEDAR AVE PHILADELPHIA PA 19143 PHILADELPHIA,
EYES OF DISTINCTION LLC,LLC,PA,,,,PA,1315 WALNUT STREET SUITE 320,PHILADELPHIA,19107,7152467,,,1315 WALNUT STREET SUITE 320 PHILADELPHIA PA 19107 PHILADELPHIA,
JESS FOR FUN LLC,LLC,PA,,,,PA,4362 WOODLAND AVE,DREXEL HILL,19026,7152468,,,4362 WOODLAND AVE DREXEL HILL PA 19026 DELAWARE,
W&W INVESTMENT GROUP L.L.C.,LLC,PA,,,,PA,315 LINDEN LANE,READING,19611,7152469,,,315 LINDEN LANE READING PA 19611 BERKS,
DSHEN LLC,LLC,PA,,,,PA,"1004 ARCH STREET, 2ND FL.",PHILADELPHIA,19107,7152470,,,"1004 ARCH STREET, 2ND FL. PHILADELPHIA PA 19107 PHILADELPHIA",
PHILLY KOMFORT LLC,LLC,PA,,,,PA,302 E 21ST STREET,CHESTER,19013,7152471,,,302 E 21ST STREET CHESTER PA 19013 CHESTER,
VANK EXPRESS LLC,LLC,PA,,,,PA,300 LEVERING MILL RD UNIT 2,BALA CYNWYD,19004,7152474,,,300 LEVERING MILL RD UNIT 2 BALA CYNWYD PA 19004 MONTGOMERY,
MIMOSA NAIL BAR LLC,LLC,PA,,,,PA,15129 INA DR,PHILADELPHIA,19116,7152475,,,15129 INA DR PHILADELPHIA PA 19116 PHILADELPHIA,
HBI CONSTRUCTION,CORPORATION,PA,271 SHELBOURNE RD,READING,19606,PA,271 SHELBOURNE RD,READING,19606,7152476,CHRISTOPHER C HEDRICK,OWNER,271 SHELBOURNE RD READING PA 19606 BERKS,271 SHELBOURNE RD READING PA 19606
IDEAL INFRASTRUCTURES LLC,LLC,PA,,,,PA,8446 SCENIC VIEW DRIVE,BREINIGSVILLE,18031,7152477,,,8446 SCENIC VIEW DRIVE BREINIGSVILLE PA 18031 LEHIGH,
RYCOURT,CORPORATION,PA,82 FIRST ST,MILLERTON,16936,PA,82 FIRST STREET,MILLERTON,16936,7152478,COURTNEY A CHAMPION,OWNER,82 FIRST STREET MILLERTON PA 16936 TIOGA,82 FIRST ST MILLERTON PA 16936
COMPOUND PHARMS L.L.C.,LLC,PA,,,,PA,455 SCHOOLHOUSE LANE,JOHNSTOWN,15904,7152479,,,455 SCHOOLHOUSE LANE JOHNSTOWN PA 15904 CAMBRIA,
THE BLOCKCHAIN INNOVATION GROUP OFPA LLC,LLC,PA,,,,PA,201 TIMBER VIEW DRIVE,HARRISBURG,17110,7152480,,,201 TIMBER VIEW DRIVE HARRISBURG PA 17110 DAUPHIN,
BLACK HAUS TATTOOS LLC,LLC,PA,,,,PA,1073 WYOMING AVE,EXETER,18643,7152481,,,1073 WYOMING AVE EXETER PA 18643 LUZERNE,
WILDWOOD CUSTOM CREATIONS LLC,LLC,PA,,,,PA,1150 QUECREEK ROAD,SOMERSET,15501,7152482,,,1150 QUECREEK ROAD SOMERSET PA 15501 SOMERSET,
DESIGNS BY OLIVIA GREY LLC,LLC,PA,,,,PA,206 DEPOT STREET,CLARKS SUMMIT,18411,7152483,,,206 DEPOT STREET CLARKS SUMMIT PA 18411 LACKAWANNA,
VINTAGE TRANSPORTATION LLC,LLC,PA,,,,PA,1028 ALTER STREET,HAZLE TOWNSHIP,18202,7152484,,,1028 ALTER STREET HAZLE TOWNSHIP PA 18202 LUZERNE,
REDS LOGISTICS LLC,LLC,PA,,,,PA,728 SELMER RD,PHILADELPHIA,19116,7152485,,,728 SELMER RD PHILADELPHIA PA 19116 PHILADELPHIA,
SS WINDOWS SERVICES LLC,LLC,PA,,,,PA,109 FAWN DR,FEASTERVILLE,18966,7152486,,,109 FAWN DR FEASTERVILLE PA 18966 BUCKS,
SHAHINA EXPRESS LLC,LLC,PA,,,,PA,2324 BENSON ST,PHILADELPHIA,19152,7152487,,,2324 BENSON ST PHILADELPHIA PA 19152 PHILADELPHIA,
NOSELLOT LLC,LLC,PA,,,,PA,43 JACKSON DRIVE,CHAMBERSBURG,17201,7152488,,,43 JACKSON DRIVE CHAMBERSBURG PA 17201 FRANKLIN,
TOP DOG CONTRACTING LLC,LLC,PA,,,,PA,1102 ALLEN STREET,NEW CUMBERLAND,17070,7152489,,,1102 ALLEN STREET NEW CUMBERLAND PA 17070 CUMBERLAND,
COURTNEY'S DOG GROOMING,CORPORATION,PA,268 SOUTHERN AVE,PITTSBURGH,15210,PA,636 E WARRINGTON AVENUE,PITTSBURGH,15210,7152490,COURTNEY D GAETANO,OWNER,636 E WARRINGTON AVENUE PITTSBURGH PA 15210 ALLEGHENY,268 SOUTHERN AVE PITTSBURGH PA 15211
DQUESE STUDIO/ MARVELOUS COLLECTION EXTENSION,CORPORATION,PA,58 N DEWEY,PHILADELPHIA,19139,PA,58 N DEWEY,PHILA,19139,7152491,MARQUIS D BLACKSON,OWNER,58 N DEWEY PHILA PA 19139 PHILADELPHIA,58 N DEWEY PHILADELPHIA PA 19139
BEYOND CONCOCTIONS LLC,LLC,PA,,,,PA,5950 FRONTENAC ST,PHILADELPHIA,19149,7152492,,,5950 FRONTENAC ST PHILADELPHIA PA 19149 PHILADELPHIA,
JSR TRUCKING LLC,LLC,PA,,,,PA,857 GRAYSTONE CIR,NORTHAMPTON,18067,7152493,,,857 GRAYSTONE CIR NORTHAMPTON PA 18067 NORTHAMPTON,
C&T PROPERTIES LLC,LLC,PA,,,,PA,212 N DUFFY RD,BUTLER,16001,7152494,,,212 N DUFFY RD BUTLER PA 16001 BUTLER,
ALPHA PACK K9S LLC,LLC,PA,,,,PA,2756 MAYTOWN ROAD,MARIETTA,17547,7152497,,,2756 MAYTOWN ROAD MARIETTA PA 17547 LANCASTER,
PALLET BROTHERS LLC,LLC,PA,,,,PA,221N.PENN ST.,POTTSTOWN,19464,7152499,,,221N.PENN ST. POTTSTOWN PA 19464 MONTGOMERY,
STRAZAR PELLET USA INC,CORPORATION,PA,,,,PA,4462 ERNIE DAVIS CIR,PHILADELPHIA,19154,7152500,,,4462 ERNIE DAVIS CIR PHILADELPHIA PA 19154 PHILADELPHIA,
Z&P REALTY INC,CORPORATION,PA,,,,PA,1021 WALLACE AVE.,CHAMBERSBURG,17201,7152501,,,1021 WALLACE AVE. CHAMBERSBURG PA 17201 FRANKLIN,
BATHINI PROPERTIES LLC,LLC,PA,,,,PA,713 LOWER STATE RD,NORTH WALES,19454,7152502,,,713 LOWER STATE RD NORTH WALES PA 19454 MONTGOMERY,
MARATHON BUSINESS ADVISORY SERVICES LLC,LLC,PA,,,,PA,45 KINGFISHER DRIVE,BIRDSBORO,19508,7152503,,,45 KINGFISHER DRIVE BIRDSBORO PA 19508 BERKS,
1 FLOWER LLC,LLC,PA,,,,PA,118 FAIRVIEW ST,EAST STROUDSBURG,18301,7152504,,,118 FAIRVIEW ST EAST STROUDSBURG PA 18301 MONROE,
DOCS ON THE MOVE,CORPORATION,PA,1383 POTTSVILLE PIKE,SHOEMAKERSVILLE,19555,PA,1383 POTTSVILLE PIKE,SHOEMAKERSVILLE,19555,7152505,PATRICK V SUGLIA,OWNER,1383 POTTSVILLE PIKE SHOEMAKERSVILLE PA 19555 BERKS,1383 POTTSVILLE PIKE SHOEMAKERSVILLE PA 19555
NISAA TAXES ON THE GO L.L.C.,LLC,PA,,,,PA,5040 GERMANTOWN AVE 1ST FL,PHILADELPHIA,19144,7152506,,,5040 GERMANTOWN AVE 1ST FL PHILADELPHIA PA 19144 PHILADELPHIA,
WRIGHTS PROPERTIES LLC,LLC,PA,,,,PA,16617 NEW,KENSINGTON,15068,7152508,,,16617 NEW KENSINGTON PA 15068 WESTMORELAND,
THE RESTORATION NINJAS LLC,LLC,PA,,,,PA,1554 QUARRY RD,COOPERSBURG,18036,7152509,,,1554 QUARRY RD COOPERSBURG PA 18036 BUCKS,
ELMAR GALA LLC,LLC,PA,,,,PA,158 MOHAWK DRIVE,RICHBORO,18954,7152511,,,158 MOHAWK DRIVE RICHBORO PA 18954 BUCKS,
TAMAQUA PATEL PROPERTY LLC,LLC,PA,,,,PA,20-28 CENTER STREET,TAMAQUA,18252,7152512,,,20-28 CENTER STREET TAMAQUA PA 18252 SCHUYLKILL,
BLACK IS WEALTH CLOTHING LLC,LLC,PA,,,,PA,250 PLAZA BLVD B1,MORRISVILLE,10967,7152513,,,250 PLAZA BLVD B1 MORRISVILLE PA 10967 BUCKS,
BE AWARE OF YOU,CORPORATION,PA,3601 CONSHOHOCKEN AVE UNIT 442,PHILADELPHIA,19128,PA,701 E CATHEDRAL ROAD SUITE 45-202,PHILADELPHIA,19128,7152514,ABBY NWOGA,OWNER,701 E CATHEDRAL ROAD SUITE 45-202 PHILADELPHIA PA 19128 PHILADELPHIA,3601 CONSHOHOCKEN AVE UNIT 442 PHILADELPHIA PA 19131
ZULA SERVICES LLC,LLC,PA,,,,PA,7300 SANDERLING PLACE,PHILADELPHIA,19153,7152515,,,7300 SANDERLING PLACE PHILADELPHIA PA 19153 PHILADELPHIA,
THAT'S SO FETCH NA L.L.C.,LLC,PA,,,,PA,152 SEMINOLE AVE,PITTSBURGH,15237,7152516,,,152 SEMINOLE AVE PITTSBURGH PA 15237 ALLEGHENY,
ECCENTRIC PIECES LLC,LLC,PA,,,,PA,5817 HAVERFORD AVE,PHILADELPHIA,19131,7152517,,,5817 HAVERFORD AVE PHILADELPHIA PA 19131 PHILADELPHIA,
