name,business_type,state_registered,street_registered,city_registered,zip5_registered,state_physical,street_physical,city_physical,zip5_physical,filing_number,agent_name,agent_title,raw_physical_address,raw_registered_address
"MULTIPLE INVESTMENT ASSOCIATES, INC.",CORPORATION,NAN,,,,PA 19107-0 PHILADELPHIA,NE COR BROAD & CHESTNUT STS,PHILA,,616580,,,NE COR BROAD & CHESTNUT STS PHILA PA 19107-0 PHILADELPHIA,
"DAROFF DESIGN, INC.",CORPORATION,PA,2121 MARKET ST,PHILADELPHIA,,PA 19103-0 PHILADELPHIA,2300 IONIC ST,PHILADELPHIA,,616582,KAREN L DAROFF,PRESIDENT,2300 IONIC ST PHILADELPHIA PA 19103-0 PHILADELPHIA,2121 MARKET ST PHILADELPHIA PA 19103-1305
"LEBARON REALTY, INC.",CORPORATION,NAN,,,,PA 19064-0 DELAWARE,192 SAXER AVE,SPRINGFIELD,,616583,,,192 SAXER AVE SPRINGFIELD PA 19064-0 DELAWARE,
"MOUNT NESSMUK ROD AND GUN CLUB, INC.",NONPROFIT,PA,10 LOWER TR PO BOX 292,FAIRFIELD,17320,PA,10 LOWER TRAIL,FAIRFIELD,17320,616584,CARROLL FAIR,PRESIDENT,10 LOWER TRAIL FAIRFIELD PA 17320 ADAMS,10 LOWER TR PO BOX 292 FAIRFIELD PA 17320
ADOPTION CENTER,NONPROFIT,PA,,,,PA,1735 MARKET ST STE A 441,PHILADELPHIA,19103,616585,,,1735 MARKET ST STE A 441 PHILADELPHIA PA 19103 PHILADELPHIA,
REPUBLIC REALTY CORPORATION,CORPORATION,NJ,,,,PA 19102-0 PHILADELPHIA,226 SOUTH 16TH STREET,PHILADELPHIA,,616586,,,226 SOUTH 16TH STREET PHILADELPHIA PA 19102-0 PHILADELPHIA,
"R S G, LTD.",CORPORATION,PA,,,,PA,BLDG. #3 1325 INDUSTRIAL BLVD.,SOUTHAMPTON,,616587,,,BLDG. #3 1325 INDUSTRIAL BLVD. SOUTHAMPTON PA 0 -0 BUCKS,
"BREEDMORE AQUARIUM PRODUCTS, LTD.",CORPORATION,NAN,,,,,,,,616588,,,"8TH FL MEARS BLDG., 146 N. WASHINGTON AV E. SCRANTON PA 18503-0 LACKAWANNA",
GALLITZIN TOWNSHIP AUTHORITY,CORPORATION,NAN,,,,,,,,616589,,,PA 0 -0 CAMBRIA,
"U.S. ALUMINUM BUILDING PRODUCTS OF FREELAND, INC.",CORPORATION,PA,453 BERNER AVE,HAZLETON,,PA 18201-0 LUZERNE,540-560 S CHURCH ST,HAZLETON,,616590,RUTH REFOWICH,SECRETARY,540-560 S CHURCH ST HAZLETON PA 18201-0 LUZERNE,453 BERNER AVE HAZLETON PA 18201-40
"MUSHROOM AMUSEMENTS, INC.",CORPORATION,NAN,,,,PA 19102-0 PHILADELPHIA,"1405 LOCUST ST, SUITE 1107-11",PHILA,,616591,,,"1405 LOCUST ST, SUITE 1107-11 PHILA PA 19102-0 PHILADELPHIA",
LANSDALE LEASING COMPANY,PARTNERSHIP,NAN,,,,,,,,616592,WILLIAM A EDMONDS,GENPARTNER,3067 UNIONVILLE PK HATFIELD PA 19440-0 MONTGOMERY,
"SUMMA & IEZZI, INC.",CORPORATION,PA,KEYSTONE IND PK,DUNMORE,,,,,,616593,JOHN SUMMA,SECRETARY,KEYSTONE INDUSTRIAL PARK DUNMORE PA 18512-0 LACKAWANNA,KEYSTONE IND PK DUNMORE PA 18512
"THE ZIP REALTY CO., INC.",CORPORATION,PA,,,,PA 17728-0 LYCOMING,"R.D. #1, PO BOX 611A",COGAN STATION,,616594,,,"R.D. #1, PO BOX 611A COGAN STATION PA 17728-0 LYCOMING",
"WILCO, ROGER HOLDING, INC.",CORPORATION,PA,617 STATION AVE,HADDON HTS,,PA 19006-0 MONTGOMERY,1635 BIDDLE ROAD,HUNTINGDON VALLEY,,616595,ELLIOTT ARKING,PRESIDENT,1635 BIDDLE ROAD HUNTINGDON VALLEY PA 19006-0 MONTGOMERY,617 STATION AVE HADDON HTS NJ 08035
MARCO POLO INC.,CORPORATION,PA,,,,PA 17520-0 LANCASTER,5997 MAIN STREET,EAST PETERSBURG,,616596,,,5997 MAIN STREET EAST PETERSBURG PA 17520-0 LANCASTER,
KEY TRUCKING INC,CORPORATION,PA,,,,PA,134 MCCRACKEN ROAD,DANVILLE,17821,616597,,,134 MCCRACKEN ROAD DANVILLE PA 17821 MONTOUR,
"FAY, JAMES MICHAEL CORP.",CORPORATION,PA,2835 HADDONFIELD RD,PENNSAUKEN,,PA 19152-0 PHILADELPHIA,7323 SACHETT ST,PHILADELPHIA,,616598,JAMES MICHAEL FAY,PRESIDENT,7323 SACHETT ST PHILADELPHIA PA 19152-0 PHILADELPHIA,2835 HADDONFIELD RD PENNSAUKEN NJ 08110-1108
"WOOD-WALLACE, INC.",CORPORATION,NY,,,,PA 19109-0 PHILADELPHIA,"C/O C T CORPORATION SYSTEM, 123 SOUTH BR OAD STREET",PHIADELPHIA,,616599,,,"C/O C T CORPORATION SYSTEM, 123 SOUTH BR OAD STREET PHIADELPHIA PA 19109-0 PHILADELPHIA",
J. N. PECK INC.,CORPORATION,PA,9199 STEPHENS MANOR DR,MECHANICSVILLE,,,,,,616600,WAY PECK,SECRETARY,C/O CORPORATION GUARANTEE AND TRUST COMPANY PA BUCKS,9199 STEPHENS MANOR DR MECHANICSVILLE VA 23116-5175
"CONMACO, INC.",CORPORATION,MO,,,,PA,C/O C T CORP SYS 123 S BROAD ST,PHILADELPHIA,,616601,,,C/O C T CORP SYS 123 S BROAD ST PHILADELPHIA PA 0 -0 PHILADELPHIA,
"NATIONAL HOUSING ASSOCIATES, INC.",CORPORATION,NAN,300 E POPLAR AVE,HUMMELSTOWN,,,,,,616602,DAVID SCHINDLER,VICEPRESIDENT,1010 S. 17TH ST. (REAR) HARRISBURG PA 17105-0 DAUPHIN,300 E POPLAR AVE HUMMELSTOWN PA 17036-22
"GREAT LAKES TRANSCARIBBEAN LINE, INC.",CORPORATION,NAN,,,,PA 19102-0 PHILADELPHIA,C/O US CORPORATION COMPANY 225 S 15TH ST,PHILADELPHIA,,616603,,,C/O US CORPORATION COMPANY 225 S 15TH ST PHILADELPHIA PA 19102-0 PHILADELPHIA,
TRI-VALLEY HISTORICAL SOCIETY,NONPROFIT,NAN,,,,PA 17983-0 SCHUYLKILL,920 W MAIN,ST VALLEY VIEW,,616604,,,920 W MAIN ST VALLEY VIEW PA 17983-0 SCHUYLKILL,
"MT. JOY CITGO, INC.",CORPORATION,NAN,,,,PA 17552-0 LANCASTER,964 W. MAIN ST.,MOUNT JOY,,616605,,,964 W. MAIN ST. MOUNT JOY PA 17552-0 LANCASTER,
"OIL VALLEY CHAPTER OF SWEET ADELINES, INC.",NONPROFIT,NAN,,,,PA 16301-0 VENANGO,"PO BOX 12, 2 CENTER ST",OIL CITY,,616606,,,"PO BOX 12, 2 CENTER ST OIL CITY PA 16301-0 VENANGO",
"RENO INDUSTRIES, INC.",CORPORATION,NAN,,,,PA 16323-0 VENANGO,"RD #2, BOX 591",FRANKLIN,,616607,GEORGE SHAW,PRESIDENT,"RD #2, BOX 591 FRANKLIN PA 16323-0 VENANGO",R D 2 BOX 591 FRANKLIN PA 16323-61
"LAB-MEX, INC.",CORPORATION,NAN,STE 202 101 GREENWOOD AVE,JENKINTOWN,,PA,SPRING AVE,HOLLAND,,616608,PETER A SOLIS,PRESIDENT,SPRING AVE HOLLAND PA 18966-0 BUCKS,STE 202 101 GREENWOOD AVE JENKINTOWN PA 19046-46
"J.R.A. CONSTRUCTION ASSOCIATES, INC.",CORPORATION,NJ,,,,PA,1193 REAR WEST MAIN STREET,STROUDSBURG,18360-0,616609,,,1193 REAR WEST MAIN STREET STROUDSBURG PA 18360-0 MONROE,
ITALIAN FARM INC.,CORPORATION,NAN,RR 1 CHURCH RD BOX 280 E,GREENVILLE,,,,,,616610,PHILIP P ALBANESE,TREASURER,"CHURCH & BUCK ROADS, R. D. #1 EAST GREENVILLE PA 18041-0 MONTGOMERY",RR 1 CHURCH RD BOX 280 E GREENVILLE PA 18041-46
"RED ARROW PRODUCTS OF PADELNJ, INC.",CORPORATION,PA,,,,PA 17033-0 DAUPHIN,404 YORKTOWNE ROAD,HERSHEY,,616611,,,404 YORKTOWNE ROAD HERSHEY PA 17033-0 DAUPHIN,
WHITETAIL ARCHERY INC.,CORPORATION,NAN,,,,,,,,616612,,,1004-1006 MARKET ST. MARCUS HOOK PA 19061-0 DELAWARE,
SCRANTON PREPARATORY SCHOOL,NONPROFIT,PA,1000 WYOMING AVENUE,SCRANTON,,PA 18509-0 LACKAWANNA,1000 WYOMING AVE,SCRANTON,,616613,ANGELO RIZZO S.J.,PRESIDENT,1000 WYOMING AVE SCRANTON PA 18509-0 LACKAWANNA,1000 WYOMING AVENUE SCRANTON PA 18509
"CEDAR CREST PARAMEDICAL DISTRIBUTION CENTER, INC.",CORPORATION,NAN,,,,PA 19446-0 MONTGOMERY,214 N BROAD ST,LANSDALE,,616614,,,214 N BROAD ST LANSDALE PA 19446-0 MONTGOMERY,
CHRISTIAN FELLOWSHIP CHURCH INCORPORATED,NONPROFIT,PA,,,,PA,925 PUSEY ST,CHESTER,19013,616615,,,925 PUSEY ST CHESTER PA 19013 DELAWARE,
"AMBU-CORPS, INC.",CORPORATION,NAN,,,,PA 19111-0 PHILADELPHIA,956 TYSON AVE.,PHILADELPHIA,,616616,,,956 TYSON AVE. PHILADELPHIA PA 19111-0 PHILADELPHIA,
"MYER MOTOR MART, INC.",CORPORATION,NAN,,,,PA 17540-0 LANCASTER,11 GLENBROOK RD,LEOLA,,616617,,,11 GLENBROOK RD LEOLA PA 17540-0 LANCASTER,
"DYNAMITE CAFE, INC.",CORPORATION,NAN,,,,PA,3300 N. 5TH ST.,PHILA,,616618,,,3300 N. 5TH ST. PHILA PA 0 -0 PHILADELPHIA,
"RIFO RESCUE PRODUCTS, INC.",CORPORATION,NAN,,,,PA 17745-0 CLINTON,205 W. CHURCH ST.,LOCK HAVEN,,616619,,,205 W. CHURCH ST. LOCK HAVEN PA 17745-0 CLINTON,
"MARSHALL CONTRACTORS, INC.",CORPORATION,RI,ONE ENTERPRISE DR #F2B,ALISO VIEJO,,PA 19103-0 PHILADELPHIA,C/O C T CORPORATION SYSTEM 1635 MARKET STREET,PHILADELPHIA,,616620,JOHN L MARSHALL III,TREASURER,C/O C T CORPORATION SYSTEM 1635 MARKET STREET PHILADELPHIA PA 19103-0 PHILADELPHIA,ONE ENTERPRISE DR #F2B ALISO VIEJO CA 92656
"VAL, INC.",CORPORATION,PA,,,,PA 19050-0 DELAWARE,70 PENN BLVD. EAST,LANSDOWNE,,616621,,,70 PENN BLVD. EAST LANSDOWNE PA 19050-0 DELAWARE,
176 CORP.,CORPORATION,PA,,,,,,,,616622,,,13TH FL 7 PENN CENTER PLAZA PHILADELPHIA PA 19103-0 PHILADELPHIA,
"COMMONWEALTH TAX CONSULTANTS, INC.",CORPORATION,PA,,,,PA 17011-0 CUMBERLAND,467 RUPLEY ROAD,CAMP HILL,,616623,,,467 RUPLEY ROAD CAMP HILL PA 17011-0 CUMBERLAND,
BIRCHMINSTER MANUFACTURING CORPORATION,CORPORATION,DE,,,,,,,,616624,,,PENN & KREIBEL STS LANSDALE PA 19446-0 MONTGOMERY,
"PARKSIDE AUTO SALES, INC.",CORPORATION,PA,,,,PA 19143-0 PHILADELPHIA,6045 BALTIMORE AVE,PHILADELPHIA,,616625,,,6045 BALTIMORE AVE PHILADELPHIA PA 19143-0 PHILADELPHIA,
"SHEETZ AUTO, INC.",CORPORATION,PA,,,,PA,ROUTE 100,BECHTELSVILLE,,616626,,,ROUTE 100 BECHTELSVILLE PA 19505-0 BERKS,
"CHEROKEE FLYERS, INC.",NONPROFIT,NAN,,,,,,,,616627,,,C/O CLIFFORD HAWBAKER RTE 3 CHAMBERSBURG PA 17201-0 FRANKLIN,
FAITH DELIVERANCE EVANGELIST CHURCH,NONPROFIT,NAN,,,,PA 19103-0 PHILADELPHIA,C/O C T CORPORATION SYSTEM 1635 MARKET STREET,PHILADELPHIA,,616628,,,C/O C T CORPORATION SYSTEM 1635 MARKET STREET PHILADELPHIA PA 19103-0 PHILADELPHIA,
"ANESTHESIA SERVICES, INC.",CORPORATION,PA,,,,,,,,616629,,,"1419 RAVDIN BLDG., 3400 SPRUCE STREET PHILADELPHIA PA 19104-0 PHILADELPHIA",
"MUNICIPAL SUPPLY CO., INC.",CORPORATION,NAN,810 BETHLEHEM PIKE,FLOURTOWN,,PA 16652-0 HUNTINGDON,300 ALLEGHENY STREET,HINTINGDON,,616630,TIMOTHY D MILLER,TREASURER,300 ALLEGHENY STREET HINTINGDON PA 16652-0 HUNTINGDON,810 BETHLEHEM PIKE FLOURTOWN PA 19031-46
OGGI RECORDS INC.,CORPORATION,PA,,,,PA 15216-0 ALLEGHENY,1150 BANKSVILLE RD,PITTSBURGH,,616631,,,1150 BANKSVILLE RD PITTSBURGH PA 15216-0 ALLEGHENY,
"FAIRMEADOW SECURITIES, INC.",CORPORATION,NAN,1132 HAMILTON ST,ALLENTOWN,18102-0,PA,725 HAMILTON MALL,ALLENTOWN,18102-0,616632,STUART KOBROUSKY,PRESIDENT,725 HAMILTON MALL ALLENTOWN PA 18102-0 LEHIGH,1132 HAMILTON ST ALLENTOWN PA 18101-39
HOLLOWAY AND O'NEILL REALTY COMPANY,CORPORATION,NAN,,,,PA 19041-0 MONTGOMERY,535 LANCASTER AVE,HAVERFORD,,616633,,,535 LANCASTER AVE HAVERFORD PA 19041-0 MONTGOMERY,
THE LEHIGH VALLEY KNEE-HI FOOTBALL LEAGUE,NONPROFIT,NAN,,,,PA,"JEDNOTA HOME, 121 N. 3RD ST.",ALLENTOWN,,616634,,,"JEDNOTA HOME, 121 N. 3RD ST. ALLENTOWN PA 0 -0 LEHIGH",
"QUAKERTOWN FOUNDRY, INC.",CORPORATION,NAN,,,,PA,4TH & MILL STS.,QUAKERTOWN,,616635,,,4TH & MILL STS. QUAKERTOWN PA 18951-0 BUCKS,
"SOUND THERAPY, INC.",CORPORATION,NAN,,,,PA 19428-0 MONTGOMERY,231 MOOREHEAD AVE,WEST CONSHOHOCKEN,,616636,,,231 MOOREHEAD AVE WEST CONSHOHOCKEN PA 19428-0 MONTGOMERY,
"FSZ, INC.",CORPORATION,PA,,,,PA 15217-0 ALLEGHENY,3323 SHADY AVENUE EXT,PITTSBURGH,,616637,,,3323 SHADY AVENUE EXT PITTSBURGH PA 15217-0 ALLEGHENY,
THE COLUMBUS SHOW CASE COMPANY,CORPORATION,OH,4401 EQUITY DR4401 EQUITY DRIVE,COLUMBUS,,PA 19103-0 PHILADELPHIA,C/O C T CORPORATION SYSTEM 1635 MARKET STREET,PHILADELPHIA,,616638,CHRIS ASCHINGER,TREASURER,C/O C T CORPORATION SYSTEM 1635 MARKET STREET PHILADELPHIA PA 19103-0 PHILADELPHIA,4401 EQUITY DR4401 EQUITY DRIVE COLUMBUS OH 43228-3856
"AVEDIS TEAM RACING AND COMPETITION DESIGN, LTD.",CORPORATION,NAN,,,,PA 19046-0 MONTGOMERY,220 RUNNYMEDE AVE,JENKINTOWN,,616639,,,220 RUNNYMEDE AVE JENKINTOWN PA 19046-0 MONTGOMERY,
ARTHUR L. KOVEN M.D. & ASSOCIATES,CORPORATION,NAN,,,,,,,,616640,,,HAZLETON NATL BANK BLDG HAZLETON PA 18201-0 LUZERNE,
BIO FREEDOM FUELS INC,CORPORATION,PA,,,,PA,71 OVERLOOK DR.,DANVILLE,17821,616642,,,71 OVERLOOK DR. DANVILLE PA 17821 MONTOUR,
"H.Z. PRODUCE, INC.",CORPORATION,NAN,,,,PA 19044-0 MONTGOMERY,541 EASTON RD,HORSHAM,,616643,,,541 EASTON RD HORSHAM PA 19044-0 MONTGOMERY,
"H. EISENBERG ENTERPRISES, INC.",CORPORATION,NAN,C/O LEAH EISENBERG 6607 EASTWOOD ST,PHILADELPHIA,,PA 19106-0 PHILADELPHIA,37 N. 3RD ST,PHILA,,616644,LEAH EISENBERG,VICEPRESIDENT,37 N. 3RD ST PHILA PA 19106-0 PHILADELPHIA,C/O LEAH EISENBERG 6607 EASTWOOD ST PHILADELPHIA PA 19149-51
"ANGELO AND REBER, INC.",CORPORATION,NAN,C/O SANTINO ANGELO 111 SLANE ST,MINERSVILLE,,PA 17954-0 SCHUYLKILL,111 SLANE ST,MINERSVILLE,,616645,SANTINO ANGELO,PRESIDENT,111 SLANE ST MINERSVILLE PA 17954-0 SCHUYLKILL,C/O SANTINO ANGELO 111 SLANE ST MINERSVILLE PA 17954-54
LIFE AND GAMES INC.,NONPROFIT,PA,,,,,,,,616646,,,"%CAPITOL CORPORATE SERVICES, INC. DAUPHIN",
WARREN COUNTY BASEBALL LEAGUE,NONPROFIT,NAN,,,,PA,110 WOODS RD,WARREN,16365-0,616647,,,110 WOODS RD WARREN PA 16365-0 WARREN,
GOLD PROPERTIES LLC,LLC,PA,,,,PA,1106 VIRGINIA AVENUE,OAKMONT,15139,616648,,,1106 VIRGINIA AVENUE OAKMONT PA 15139 ALLEGHENY,
UNITED COMMERCIAL SUPPLY LLC,LLC,PA,,,,PA,6348 LIBRARY ROAD,SOUTH PARK,15129,616649,,,6348 LIBRARY ROAD SOUTH PARK PA 15129 ALLEGHENY,
REALTY DONE RIGHT LLC,LLC,OH,,,,PA,53 NORTH MORGANTOWN STREET,ST. FAIRCHANCE,15436,616650,,,53 NORTH MORGANTOWN STREET ST. FAIRCHANCE PA 15436,
C&C HOME IMPROVEMENTS,CORPORATION,PA,,,,PA,6541 MARSDEN ST,PHILADELPHIA,19135,616651,RONNIE CRUZ,OWNER,6541 MARSDEN ST PHILADELPHIA PA 19135 PHILADELPHIA,
"VENTURE LEASING, INC.",CORPORATION,PA,,,,PA,65 E ELIZABETH AVE,BETHLEHEM,18018-0,616652,,,65 E ELIZABETH AVE BETHLEHEM PA 18018-0,
"IRWIN TRAILER SALES, INC.",CORPORATION,NAN,1361 MAYFIELD RD,MASONTOWN,,PA 15642-0 WESTMORELAND,10750 ROUTE 30 NORTH,HUNTINGDON,,616653,ROB A YOUNG,PRESIDENT,10750 ROUTE 30 NORTH HUNTINGDON PA 15642-0 WESTMORELAND,1361 MAYFIELD RD MASONTOWN WV 26542-8611
ACADEMY OF APPLIED AUTOMOTIVE AND MECHANICAL SCIENCE,NONPROFIT,NAN,,,,,,,,616654,,,1801 MARKET ST 10 PENN CENTER % SUN REFI NING & MARKETING CO. PHILA PA 19103-0 PHILADELPHIA,
"THE CARPETACK, INC.",CORPORATION,PA,,,,,,,,616655,,,"STAR STREET SHOPPING CENTER, STORE #4 PHOENIXVILLE PA 19460-0 CHESTER",
AUERBACH INVESTMENTS CORPORATION,CORPORATION,NAN,,,,PA 19107-0 PHILADELPHIA,121 N BROAD ST,PHILADELPHIA,,616656,,,121 N BROAD ST PHILADELPHIA PA 19107-0 PHILADELPHIA,
CENTER CITY DINING CLUB,NONPROFIT,NAN,,,,PA 19109-0 PHILADELPHIA,227 SOUTH BROAD STREET,PHILADELPHILA,,616657,,,227 SOUTH BROAD STREET PHILADELPHILA PA 19109-0 PHILADELPHIA,
COUNTERPOINT OF CHESTER COUNTY,NONPROFIT,NAN,,,,,,,,616658,,,BIRCH & BROAD STREETS KENNETT SQUARE PA 19348-0 CHESTER,
TRI-COUNTY ALLIANCE FOR THE ACHIEVEMENT OF CHILDREN'S POTENTIAL,NONPROFIT,NAN,,,,PA 19464-0 MONTGOMERY,192 WEST CEDARVILLE RD.,POTTSTOWN,,616659,,,192 WEST CEDARVILLE RD. POTTSTOWN PA 19464-0 MONTGOMERY,
PENS 5 & 10 STORE INC.,CORPORATION,NAN,245 LOCKART PL,PHILADELPHIA,,PA 19133-0 PHILADELPHIA,2924 N 5TH ST,PHILA,,616662,GEORGE KIRSH,PRESIDENT,2924 N 5TH ST PHILA PA 19133-0 PHILADELPHIA,245 LOCKART PL PHILADELPHIA PA 19116-51
"DAVIS CADILLAC-OLDSMOBILE, INC.",CORPORATION,NAN,,,,PA 17701-0 LYCOMING,410 E 3RD ST,WILLIAMSPORT,,616663,,,410 E 3RD ST WILLIAMSPORT PA 17701-0 LYCOMING,
S.F.I. INC.,CORPORATION,PA,,,,PA 19457-0 CHESTER,ROUTE 724 & WELLS RD,PARKER FORD,,616664,,,ROUTE 724 & WELLS RD PARKER FORD PA 19457-0 CHESTER,
NEW KILBORN CLUB,NONPROFIT,PA,,,,PA,1129 OLD SCHUYKILL ROAD,PARKERFORD,19457,616665,,,1129 OLD SCHUYKILL ROAD PARKERFORD PA 19457 CHESTER,
"GAY'S AMERICAN HARDWARE, INC.",CORPORATION,NAN,633 FRANKFORD RD,MONACA,15061-0,PA,1495 BROADHEAD RD,MONACA,15061-0,616666,ATLEE SHINABERRY,PRESIDENT,1495 BROADHEAD RD MONACA PA 15061-0 BEAVER,633 FRANKFORD RD MONACA PA 15061-04
"B & N CONTRACTORS, INC.",CORPORATION,NAN,,,,PA,83 GOLDEN GATE RD,LEVITTOWN,,616667,,,83 GOLDEN GATE RD LEVITTOWN PA 19057-0 BUCKS,
ED-KEYSTONE COMMERCE LLC,LLC,DE,,,,,,,,616668,,,%CORPORATION SERVICE COMPANY DAUPHIN,
"SOLAR ENERGY SALES, INC.",CORPORATION,NAN,C/O ALEXANDER HAFF P.O. BOX 1314,NEWTOWN,,PA,707 EASTON RD,DOYLESTOWN,,616669,ALEXANDER HAFF,PRESIDENT,707 EASTON RD DOYLESTOWN PA 18901-0 BUCKS,C/O ALEXANDER HAFF P.O. BOX 1314 NEWTOWN PA 18940-09
"JAMESFOX, INC.",CORPORATION,NAN,,,,PA 15228-0 ALLEGHENY,221 WOODHAVEN DR MT.,LEBANON,,616670,,,221 WOODHAVEN DR MT. LEBANON PA 15228-0 ALLEGHENY,
"MANOR COURTS, INC.",CORPORATION,NAN,615 IRON CITY DR,PITTSBURGH,,PA 15220-0 ALLEGHENY,100 ROESSLER RD,PITTSBURGH,,616671,GARY BROWN,PRESIDENT,100 ROESSLER RD PITTSBURGH PA 15220-0 ALLEGHENY,615 IRON CITY DR PITTSBURGH PA 15205-02
"EXPLORATION SUPPLY COMPANY, INC.",CORPORATION,DE,,,,PA 19109-0 PHILADELPHIA,"C/O C T CORPORATION SYSTEM, 123 SOUTH BR OAD STREET",PHILADELPHIA,,616672,,,"C/O C T CORPORATION SYSTEM, 123 SOUTH BR OAD STREET PHILADELPHIA PA 19109-0 PHILADELPHIA",
MAURICE M. DAVIDSON M.D.,CORPORATION,NAN,,,,PA,OLD MILL LANE,MEDIA,,616673,,,OLD MILL LANE MEDIA PA 19063-0 BUCKS,
"JEN-MAR LEASING CO., INC.",CORPORATION,NAN,,,,PA 15501-0 SOMERSET,R.D. #4,SOMERSET,,616674,,,R.D. #4 SOMERSET PA 15501-0 SOMERSET,
"MOTHER'S SUBMARINES & SANDWICH SPECIALTIES, INC.",CORPORATION,NAN,,,,PA 17102-0 DAUPHIN,2308 NORTH SECOND STREET,HARRISBURG,,616675,,,2308 NORTH SECOND STREET HARRISBURG PA 17102-0 DAUPHIN,
"INTERNATIONAL HOTEL ASSOCIATES, INC.",CORPORATION,NAN,,,,,,,,616676,,,"SUITE 1200, 1518 WALNUT STREET PHILADELPHIA PA 0 -0 PHILADELPHIA",
"FLECKENSTEIN ENGINEERING, INC.",CORPORATION,PA,156 CASTLETON DR,READING,,PA,156 CASTLETON DR.,READING,,616677,JOSEPH E FLECKENSTEIN,PRESIDENT,156 CASTLETON DR. READING PA 19607-0 BERKS,156 CASTLETON DR READING PA 19607-3213
H. DAVID BROWN INCORPORATED,CORPORATION,DE,762 STORCH RD,STATE COLLEGE,16827-0,PA,111 W MAIN ST,BOALSBURG,16827-0,616679,J L BROWN,VICEPRESIDENT,111 W MAIN ST BOALSBURG PA 16827-0 CENTRE,762 STORCH RD STATE COLLEGE PA 16801-14
"GELBER & KOSTOS, INC.",CORPORATION,NAN,,,,PA 19107-0 PHILADELPHIA,1300 PINE ST,PHILA,,616680,,,1300 PINE ST PHILA PA 19107-0 PHILADELPHIA,
"D & M LINEN SUPPLY, INC.",CORPORATION,NAN,1229 23RD AVE,ALTOONA,,PA,300 E WALNUT ST,ALTOONA,,616681,JOSEPH SCHRAF,PRESIDENT,300 E WALNUT ST ALTOONA PA 16601-0 BLAIR,1229 23RD AVE ALTOONA PA 16601-07
LES AMIS (THE FRIENDS),PARTNERSHIP,NAN,,,,,,,,616682,MILTON A DAUBER ETAL,GENPARTNER,329 BEJAMIN FOX PAVILION JENKINTOWN PA 19046-0 MONTGOMERY,PA
"C. & G. SNYDER'S ENTERPRISES, INC.",CORPORATION,PA,,,,,,,,616683,,,R.D. 1 NORTHUMBERLAND PA 17857-0 NORTHUMBERLAND,
"PINE GROVE TV CABLE, INC.",CORPORATION,NAN,,,,PA 17963-0 SCHUYLKILL,46 S TULPEHOCKEN,ST PINE GROVE,,616684,,,46 S TULPEHOCKEN ST PINE GROVE PA 17963-0 SCHUYLKILL,
"ESKIL'S CLOG SHOP, INC.",CORPORATION,NAN,,,,,,,,616685,,,"BOX 371, RD #2 CHADDS FORD PA 19317-0 DELAWARE",
"VILLAGER GIFT SHOPPE, INC.",CORPORATION,NAN,C/O ALLEN E NUSKEY 3306 KENSINGTON AVE,PHILADELPHIA,,PA 19134-0 PHILADELPHIA,3336 KENSINGTON AVE,PHILA,,616686,MICHAEL MOLLOY,PRESIDENT,3336 KENSINGTON AVE PHILA PA 19134-0 PHILADELPHIA,C/O ALLEN E NUSKEY 3306 KENSINGTON AVE PHILADELPHIA PA 19134-51
STRATINVEST LLC,LLC,NY,,,,PA,147 FORGE LANE,FEASTERVILLE,19053,616687,,,147 FORGE LANE FEASTERVILLE PA 19053,
AMERICAN RESIDENTIAL EXTERIOR CLEANING CORP.,CORPORATION,NAN,,,,PA 15234-0 ALLEGHENY,"300 MT LEBANON BLVD, SUITE 305",PITTSBURGH,,616688,,,"300 MT LEBANON BLVD, SUITE 305 PITTSBURGH PA 15234-0 ALLEGHENY",
JUD-LEN CORPORATION,CORPORATION,NAN,,,,PA 19128-0 PHILADELPHIA,4407 DEXTER ST,PHILA,,616689,,,4407 DEXTER ST PHILA PA 19128-0 PHILADELPHIA,
EBERSOLE EXCAVATING INC.,CORPORATION,PA,3224 ELIZABETHTOWN RD,HERSHEY,,,,,,616690,SANDRA H EBERSOLE,TREASURER,R.D. #1 HERSHEY PA 0 -0 DAUPHIN,3224 ELIZABETHTOWN RD HERSHEY PA 17033-9326
"HAY-CRAWF DIVERSIFIED INDUSTRIES, INC.",CORPORATION,NAN,,,,,,,,616691,,,R.D. #2 MEADVILLE PA 0 -0 CRAWFORD,
"BIG OAK MOBILE HOME SALES, INC.",CORPORATION,NAN,R D 3,GROVE CITY,16127-0,PA,RD #3,GROVE CITY,16127-0,616692,RODENY W HOCKENBERRY,PRESIDENT,RD #3 GROVE CITY PA 16127-0 MERCER,R D 3 GROVE CITY PA 16127-43
"HMC MANAGEMENT SERVICES, INC.",CORPORATION,NAN,212 4TH ST,HUNTINGDON,,PA 16652-0 HUNTINGDON,212 FOURTH ST.,HUNTINGDON,,616693,SJANIE W WALTER,TREASURER,212 FOURTH ST. HUNTINGDON PA 16652-0 HUNTINGDON,212 4TH ST HUNTINGDON PA 16652-31
"RUDASILL, DERWOOD C., INC.",CORPORATION,NAN,,,,PA,300 E WALNUT ST,ALTOONA,,616695,,,300 E WALNUT ST ALTOONA PA 16601-0 BLAIR,
NATIONAL HOUSING MINISTRIES,NONPROFIT,PA,,,,,,,,616696,,,"TOWER D, AMERICAN BAPTIST CHURCHES BLDG VALLEY FORGE PA 19481-0 CHESTER",
"UNITED RIDGE RUNNERS SPORTSMEN'S ASSOCIATION, INC.",CORPORATION,NAN,,,,,,,,616698,,,R D 2 WAYMART PA 18472-0 DELAWARE,
"ABINGTON HEMATOLOGY ONCOLOGY ASSOCIATES, LTD.",CORPORATION,PA,,,,PA 19001-0 MONTGOMERY,1245 HIGHLAND AVE,ABINGTON,,616699,,,1245 HIGHLAND AVE ABINGTON PA 19001-0 MONTGOMERY,
CALDWELL TRUCKING CO.,CORPORATION,NAN,,,,,,,,616700,,,R D 1 STRATTANVILLE PA 16258-0 CLARION,
"NEURO-RESEARCH, INC.",CORPORATION,PA,,,,PA 19072-0 MONTGOMERY,400 FAIRVIEW RD,NARBERTH,,616701,,,400 FAIRVIEW RD NARBERTH PA 19072-0 MONTGOMERY,
J & J ABSTRACT COMPANY,CORPORATION,NAN,,,,PA 15068-0 WESTMORELAND,2797 LEECHBURG RD,LOWER BURRELL,,616702,,,2797 LEECHBURG RD LOWER BURRELL PA 15068-0 WESTMORELAND,
"KNOW ABOUT PUBLICATIONS, INC.",CORPORATION,NAN,,,,PA 17557-0 LANCASTER,205 DILLER AVE,NEW HOLLAND,,616703,,,205 DILLER AVE NEW HOLLAND PA 17557-0 LANCASTER,
SHOW 'N TELL MOBILE ADVERTISING INC.,CORPORATION,NAN,,,,PA 19026-0 DELAWARE,2318 GARRETT ROAD,DREXEL HILL,,616704,,,2318 GARRETT ROAD DREXEL HILL PA 19026-0 DELAWARE,
"CAROUSEL MECHANICAL MUSIC MUSEUM, INC.",CORPORATION,NAN,,,,PA 19070-0 DELAWARE,THE VILLAGE MALL 1,MORTON,,616705,,,THE VILLAGE MALL 1 MORTON AVE MORTON PA 19070-0 DELAWARE,
DYNOSTIC SYSTEMS CORPORATION,CORPORATION,NAN,,,,PA,255 W. 10TH ST.,ERIE,,616706,,,255 W. 10TH ST. ERIE PA 16501-0 ERIE,
"CARPET BARN, INC.",CORPORATION,NAN,2402 EMMA LANE,CORAOPOLIS,,,,,,616707,SUZANNE WATT,PRESIDENT,908 LAWYERS BLDG. PITTSBURGH PA 15219-0 ALLEGHENY,2402 EMMA LANE CORAOPOLIS PA 15108-02
"RECREATIONAL SURFACES, INC.",CORPORATION,NAN,1601 MARY ST,PITTSBURGH,,PA 15090-0 ALLEGHENY,"RTE. 19, PERRY HWY., PO BOX 201",WEXFORD,,616709,PETE JEFFREY,TREASURER,"RTE. 19, PERRY HWY., PO BOX 201 WEXFORD PA 15090-0 ALLEGHENY",1601 MARY ST PITTSBURGH PA 15215-02
"PRYDE HOMES, INC.",CORPORATION,PA,,,,PA 18088-0 NORTHAMPTON,"STONEY DR., R.D. #1",WALNUTPORT,,616710,,,"STONEY DR., R.D. #1 WALNUTPORT PA 18088-0 NORTHAMPTON",
THE MONOCACY NATURE CENTER,NONPROFIT,PA,,,,PA,501 MAIN ST.,BETHLEHEM,,616711,,,501 MAIN ST. BETHLEHEM PA 0 -0 NORTHAMPTON,
"C. J. BURKE ASSOCIATES, INC.",CORPORATION,NAN,,,,PA 19078-0 DELAWARE,711 KENNEY ST,RIDLEY PARK,,616712,,,711 KENNEY ST RIDLEY PARK PA 19078-0 DELAWARE,
"NEW DIMENSIONS, INC.",CORPORATION,PA,PO BOX 28,WASHINGTON,,PA 15301-0 WASHINGTON,"60 EAST BEAU ST, PO BOX 28",WASHINGTON,,616713,SALLY A JUBAS,TREASURER,"60 EAST BEAU ST, PO BOX 28 WASHINGTON PA 15301-0 WASHINGTON",PO BOX 28 WASHINGTON PA 15301-0028
"927 NORTH FRONT STREET, INC.",CORPORATION,NAN,213 ARCH ST,PHILADELPHIA,,PA,213 ARCH ST,PHILA,,616714,HAROLD DUMOFF,PRESIDENT,213 ARCH ST PHILA PA 0 -0 PHILADELPHIA,213 ARCH ST PHILADELPHIA PA 19106-51
CONNOISSEUR MEAT CORP.,CORPORATION,NY,,,,PA,900 SCOTT STREET,STROUDSBURG,18360-0,616715,,,900 SCOTT STREET STROUDSBURG PA 18360-0 MONROE,
"GINGERBREAD MAN, INC.",CORPORATION,PA,735 S HANOVER ST,CARLISLE,,PA 17013-0 CUMBERLAND,5 COURT HOUSE AVE,CARLISLE,,616716,RICHARD E PHELAN,TREASURER,5 COURT HOUSE AVE CARLISLE PA 17013-0 CUMBERLAND,735 S HANOVER ST CARLISLE PA 17013-4106
"JESSE'S MARKET, INC.",CORPORATION,NAN,,,,PA 18013-0 NORTHAMPTON,166 W. CENTRAL AVE,EAST BANGOR,,616717,,,166 W. CENTRAL AVE EAST BANGOR PA 18013-0 NORTHAMPTON,
SIGNASURE SALES CORPORATION,CORPORATION,NAN,,,,PA,122 YORK ROAD,JENKINTOWN,,616718,,,122 YORK ROAD JENKINTOWN PA 0 -0 MONTGOMERY,
"R. E. LOWE & ASSOCIATES, INC.",CORPORATION,OH,,,,PA 15222-0 ALLEGHENY,"100 FORBES AVE, SUITE 890",PITTSBURGH,,616720,,,"100 FORBES AVE, SUITE 890 PITTSBURGH PA 15222-0 ALLEGHENY",
"T. ENTERPRISES, INC.",CORPORATION,PA,,,,PA,BOX 176 FACTORY RD,KUTZTOWN,,616721,JOSEPH C GILARDONE JR,TREASURER,BOX 176 FACTORY RD KUTZTOWN PA 19530-0 BERKS,
"DAVE'S OYSTER HOUSE, INC.",CORPORATION,PA,1032 SPRUCE STREET 300,PHILADELPHIA,19072,PA,450 N,NARBERTH,19072,616722,JUDY MINK,SECRETARY,450 N NARBERTH AVE NARBERTH PA 19072 MONTGOMERY,1032 SPRUCE STREET 300 PHILADELPHIA PA 19107-51
"EASY-KARE HOMES, INC.",CORPORATION,NAN,,,,PA 18517-0 LACKAWANNA,116 N HYDE PARK AVE,SCRANTON,,616723,,,116 N HYDE PARK AVE SCRANTON PA 18517-0 LACKAWANNA,
"V.I.P. TRAVEL SERVICE, INC.",CORPORATION,PA,,,,PA 15613-0 ARMSTRONG,306 FIRST ST,APOLLO,,616724,,,306 FIRST ST APOLLO PA 15613-0 ARMSTRONG,
"ECKHART, LES FOAM INSULATION, INC.",CORPORATION,NAN,,,,PA 18704-0 LUZERNE,576 WARREN AVE,KINGSTON,,616725,,,576 WARREN AVE KINGSTON PA 18704-0 LUZERNE,
"ERIE SPECIALTY PRODUCTS, INC.",CORPORATION,PA,,,,PA,327 E. 18TH ST.,ERIE,,616726,,,327 E. 18TH ST. ERIE PA 16503-0 ERIE,
"ROOM SERVICE, INC.",CORPORATION,PA,,,,,,,,616727,,,2000 TWO PENN CENTER PLAZA PHILA PA 19102-0 PHILADELPHIA,
"NEW COVENANT COMMUNITY CONNECTIONS, INC.",NONPROFIT,PA,,,,PA,202 EAST THIRD ST,LYCOMING,17701,616728,,,202 EAST THIRD ST LYCOMING PA 17701 LYCOMING,
"MERRIMAN ASSOCIATES, INC.",CORPORATION,NAN,STE 404,MALLARD CREEK VLG RICHBORO,,PA,12 PENNLYN RD,SOUTHAMPTON,,616729,LILO MATINAS,PRESIDENT,12 PENNLYN RD SOUTHAMPTON PA 18966-0 BUCKS,STE 404 MALLARD CREEK VLG RICHBORO PA 18954-09
"PLUM TAVERN, INC.",CORPORATION,NAN,,,,PA 17602-0 LANCASTER,915 N. PLUM ST.,LANCASTER,,616730,,,915 N. PLUM ST. LANCASTER PA 17602-0 LANCASTER,
"BROAD RUN ENTERPRISES, INC. A CLOSE CORPORATION",CORPORATION,NAN,1321 ROBIN RD,COATESVILLE,,PA,"1558 BROAD RUN RD., PO BOX 285",DOWNINGTOWN,,616731,GERARD V HADDON,PRESIDENT,"1558 BROAD RUN RD., PO BOX 285 DOWNINGTOWN PA 0 -0 CHESTER",1321 ROBIN RD COATESVILLE PA 19320-15
CHARISMATIC COMMUNICATIONS CENTER,NONPROFIT,NAN,,,,PA 15222-0 ALLEGHENY,"THE BANK TOWER, SUITES 903-905, 307 4TH AVENUE",PITTSBURGH,,616733,,,"THE BANK TOWER, SUITES 903-905, 307 4TH AVENUE PITTSBURGH PA 15222-0 ALLEGHENY",
FOX CHASE MEDICAL CENTER,NONPROFIT,PA,,,,PA 19111-0 PHILADELPHIA,7701 BURKHOLME AVE.,PHILADELPHIA,,616734,,,7701 BURKHOLME AVE. PHILADELPHIA PA 19111-0 PHILADELPHIA,
CHILUCA LTD.,CORPORATION,NAN,,,,PA 15236-0 ALLEGHENY,771 CLAIRTON BLVD,PITTSBURGH,,616735,,,771 CLAIRTON BLVD PITTSBURGH PA 15236-0 ALLEGHENY,
"CONESTOGA TENNIS, INC.",CORPORATION,NAN,,,,PA 19118-0 MONTGOMERY,8900 HAWTHORNE LANE,WYNDMOOR,,616736,,,8900 HAWTHORNE LANE WYNDMOOR PA 19118-0 MONTGOMERY,
"DONMOYER ASSOCIATES, INC.",CORPORATION,PA,909 E SUNBURY ST,SHAMOKIN,,PA 17872-0 NORTHUMBERLAND,26 W. INDEPENDENCE ST,SHAMOKIN,,616737,JOAN DONMOYER,VICEPRESIDENT,26 W. INDEPENDENCE ST SHAMOKIN PA 17872-0 NORTHUMBERLAND,909 E SUNBURY ST SHAMOKIN PA 17872-49
"ASSOCIATED INTERNISTS OF BERWICK, A PROFESSIONAL CORPORATION",CORPORATION,NAN,600 E 16TH ST,BERWICK,,PA 18603-0 COLUMBIA,701 E. FRONT ST.,BERWICK,,616739,SANDRA TANRIBILIR,TREASURER,701 E. FRONT ST. BERWICK PA 18603-0 COLUMBIA,600 E 16TH ST BERWICK PA 18603-19
CALVARY FULL GOSPEL CHURCH,NONPROFIT,PA,,,,PA,BAKER & ANDERSON AVE,MORRISVILLE,,616740,,,BAKER & ANDERSON AVE MORRISVILLE PA 19067-0 BUCKS,
CHURCH OF GOD OF PENNSYLVANIA,NONPROFIT,NAN,,,,PA 15627-0 WESTMORELAND,309 FOURTH STREET,DERRY,,616742,,,309 FOURTH STREET DERRY PA 15627-0 WESTMORELAND,
"GEANO'S DISTRIBUTING, INC.",CORPORATION,NAN,5233 STATE ROUTE 982,BRADENVILLE,,PA 15650-0 WESTMORELAND,614 FAIRMONT ST,LATROBE,,616743,JOAN ESPOSITO,TREASURER,614 FAIRMONT ST LATROBE PA 15650-0 WESTMORELAND,5233 STATE ROUTE 982 BRADENVILLE PA 15620-1058
"CARDIAC RESEARCH AND EDUCATION, INC.",NONPROFIT,NAN,,,,PA 17033-0 DAUPHIN,227 HOMESTEAD ROAD,HERSHEY,,616744,,,227 HOMESTEAD ROAD HERSHEY PA 17033-0 DAUPHIN,
"SOUTHWEST JOURNAL, INC.",CORPORATION,PA,,,,PA 15220-0 ALLEGHENY,41 WABASH AVE,PITTSBURGH,,616745,,,41 WABASH AVE PITTSBURGH PA 15220-0 ALLEGHENY,
"SALOOM FUNERAL HOME, INC.",CORPORATION,NAN,,,,PA 15666-0 WESTMORELAND,730 W. MAIN ST. MT.,PLEASANT,,616747,,,730 W. MAIN ST. MT. PLEASANT PA 15666-0 WESTMORELAND,
"HELPING HANDS SENIOR HOME, INC.",NONPROFIT,PA,,,,PA,RR2 BOX 398,KUNKELTOWN,18058,616748,,,RR2 BOX 398 KUNKELTOWN PA 18058 MONROE,
BALDWIN CONTINENTAL BATON AND DRUM CORPS INC.,NONPROFIT,NAN,,,,PA 15236-0 ALLEGHENY,1025 SPRINGDALE DR,PITTSBURGH,,616749,,,1025 SPRINGDALE DR PITTSBURGH PA 15236-0 ALLEGHENY,
"CRANE LIQUIDATION, INC.",CORPORATION,NAN,,,,PA 15136-0 ALLEGHENY,79 NICHOL AVE,MCKEES ROCKS,,616750,,,79 NICHOL AVE MCKEES ROCKS PA 15136-0 ALLEGHENY,
"EMS INNOVATIONS, INC.",CORPORATION,DE,PO BOX 239,PASADENA,17532,PA,261 MARTIC HEIGHTS DRIVE,HOLTWOOD,17532,616751,PATRICIA M FERKO,VICEPRESIDENT,261 MARTIC HEIGHTS DRIVE HOLTWOOD PA 17532 LANCASTER,PO BOX 239 PASADENA MD 21123-0239
"WARRINGTON PROFESSIONAL ASSOCIATION, INC.",CORPORATION,NAN,,,,PA,1976 BRISTOL ROAD,WARRINGTON,,616752,,,1976 BRISTOL ROAD WARRINGTON PA 18976-0 BUCKS,
"AUTO PARTS SUPERMARKET, INC.",CORPORATION,NAN,,,,,,,,616753,,,"CENTRAL 13, U.S. ROUTE 13 BRISTOL PA 19007-0 BUCKS",
"D.E.S., INC.",CORPORATION,PA,409 19TH ST,WINDBER,,PA 15963-0 SOMERSET,1826 GRAHAM AVE.,WINDBER,,616754,MELISSA A SUNDAY,PRESIDENT,1826 GRAHAM AVE. WINDBER PA 15963-0 SOMERSET,409 19TH ST WINDBER PA 15963-2001
"SOMERSET COUNTY FARMERS MARKET, INC.",NONPROFIT,PA,,,,PA,430 RESERVOIR ROAD,ROCKWOOD,15559,616755,,,430 RESERVOIR ROAD ROCKWOOD PA 15559 SOMERSET,
"POCONO PAINT CENTER, INC.",CORPORATION,PA,C/O THOMAS ROHNER R D 1 BOX 66,BUSHKILL,18360-0,PA,1015 WEST MAIN ST,STROUDSBURG,18360-0,616756,THOMAS ROHNER,PRESIDENT,1015 WEST MAIN ST STROUDSBURG PA 18360-0 MONROE,C/O THOMAS ROHNER R D 1 BOX 66 BUSHKILL PA 18324-52
"INTERNAL MEDICAL ASSOCIATES OF LANCASTER, LTD.",CORPORATION,NAN,2250 ERIN CT,LANCASTER,,PA 17602-0 LANCASTER,40 N LIME ST,LANCASTER,,616757,LEIF C BECK,SECRETARY,40 N LIME ST LANCASTER PA 17602-0 LANCASTER,2250 ERIN CT LANCASTER PA 17601-36
"HAMPE, WALTER F. D.D.S.",CORPORATION,NAN,220 THORNBERRY CIR,PITTSBURGH,,PA 15228-0 ALLEGHENY,615 WASHINGTON RD MT.,LEBANON,,616758,WALTER F HAMPE,PRESIDENT,615 WASHINGTON RD MT. LEBANON PA 15228-0 ALLEGHENY,220 THORNBERRY CIR PITTSBURGH PA 15234-02
"SETA, INC.",CORPORATION,PA,209 CLAREMONT AVE,CLARKS SUMMIT,,PA 18411-0 LACKAWANNA,209 CLAREMONT STREET,CLARKS SUMMIT,,616759,MARTIN APPLETON,PRESIDENT,209 CLAREMONT STREET CLARKS SUMMIT PA 18411-0 LACKAWANNA,209 CLAREMONT AVE CLARKS SUMMIT PA 18411-35
"J R MARK, INC.",CORPORATION,NAN,,,,PA 19143-0 PHILADELPHIA,738 S. 52ND ST.,PHILA,,616760,,,738 S. 52ND ST. PHILA PA 19143-0 PHILADELPHIA,
"COBBLE CREEK COMMUNITY ASSOCIATION, INC.",NONPROFIT,PA,PO BOX 747,TANNERSVILLE,18372-0,PA,SULLIVAN TRAIL PO BOX 747,TANNERSVILLE,18372-0,616761,RON FRAZIER,PRESIDENT,SULLIVAN TRAIL PO BOX 747 TANNERSVILLE PA 18372-0 MONROE,PO BOX 747 TANNERSVILLE PA 18372
"AAUW STATE COLLEGE BRANCH, INC.",NONPROFIT,PA,,,,PA,2197 HIGH TECH ROAD,STATE COLLEGE,16803,616764,,,2197 HIGH TECH ROAD STATE COLLEGE PA 16803 CENTRE,
"MEYERS BUILDING GROUP, LLC",LLC,PA,,,,PA,1251 GROVE RD,WEST CHESTER,19381,616766,,,1251 GROVE RD WEST CHESTER PA 19381 CHESTER,
"SIGMUND TRAVEL BUREAU, INC.",CORPORATION,NAN,APT 91026,PINE ST PHILADELPHIA,,PA,"LAND TITLE BLDG., RM 541, BROAD AND CHES TNUT STS",PHILADELPHIA,,616767,HENRY A SEIGEL,PRESIDENT,"LAND TITLE BLDG., RM 541, BROAD AND CHES TNUT STS PHILADELPHIA PA 0 -0 PHILADELPHIA",APT 91026 PINE ST PHILADELPHIA PA 19107-6020
"CITY STEPS OF PITTSBURGH, LLC",LLC,PA,,,,PA,645 OVERLOOK DR,PITTSBURGH,15216,616768,,,645 OVERLOOK DR PITTSBURGH PA 15216 ALLEGHENY,
"GREEN ACRES BUILDERS, INC.",CORPORATION,NAN,,,,,,,,616769,,,RD 1 BOILING SPRINGS PA 17007-0 CUMBERLAND,
"PIERCE-RITE, INC.",CORPORATION,NAN,1365 KENHORST BLVD,READING,,PA,529 COURT STREET,READING,,616770,CAROL J REPPERT,TREASURER,529 COURT STREET READING PA 19603-0 BERKS,1365 KENHORST BLVD READING PA 19607-06
"FORWARD WITH THE LORD, CHURCH OF GOD MISSIONS",NONPROFIT,NAN,,,,PA 15301-0 WASHINGTON,68 E BEAU ST,WASHINGTON,,616771,,,68 E BEAU ST WASHINGTON PA 15301-0 WASHINGTON,
"CHELTEN, INC.",CORPORATION,PA,,,,PA 19138-0 PHILADELPHIA,846 E. WOODLAWN ST,PHILA,,616772,,,846 E. WOODLAWN ST PHILA PA 19138-0 PHILADELPHIA,
"THE COAL MARKET, INC.",CORPORATION,NAN,,,,,,,,616773,,,2900 GRANT BLDG PITTSBURGH PA 15219-0 ALLEGHENY,
"ECA, INVESTMENTS, INC.",CORPORATION,NAN,,,,PA 17403-0 YORK,1200 EAST MARKET STREET,YORK,,616775,,,1200 EAST MARKET STREET YORK PA 17403-0 YORK,
"BRYN MAWR EXAMINERS, INC.",CORPORATION,NAN,C/O KEN F BALLS 6429 SHERWOOD RD,PHILADELPHIA,,,,,,616776,MARGARET B RUST,SECRETARY,26 BRYN MAWR AVE BRYN MAWR PA 19010-0 MONTGOMERY,C/O KEN F BALLS 6429 SHERWOOD RD PHILADELPHIA PA 19151-51
"CENTINEER, INC.",CORPORATION,NAN,221 PITTSBURGH ST,SCOTTDALE,,PA 15683-0 WESTMORELAND,221 PITTSBURGH ST,SCOTTDALE,,616777,WILLIAM OWENS,VICEPRESIDENT,221 PITTSBURGH ST SCOTTDALE PA 15683-0 WESTMORELAND,221 PITTSBURGH ST SCOTTDALE PA 15683-65
"PATCHEZ OF MIAMI, INC.",CORPORATION,FL,,,,PA 15232-0 ALLEGHENY,5550 CENTRE AVE,PITTSBURGH,,616778,,,5550 CENTRE AVE PITTSBURGH PA 15232-0 ALLEGHENY,
"CLEMENTINE, CORP.",CORPORATION,PA,,,,PA,2518 S BROAD ST,PHILA,,616780,,,2518 S BROAD ST PHILA PA 0 -0 PHILADELPHIA,
"GROSS-BRODY TEXTILES CO., INC.",CORPORATION,PA,,,,PA 19107-0 PHILADELPHIA,1007 FILBERT ST,PHILADELPHIA,,616781,,,1007 FILBERT ST PHILADELPHIA PA 19107-0 PHILADELPHIA,
"PA BASS FEDERATION, INC.",NONPROFIT,PA,,,,PA,1932 WATER STREET,WASHINGTON BORO,17582,616782,,,1932 WATER STREET WASHINGTON BORO PA 17582 LANCASTER,
"POLINIAK, CYNTHIA INC.",CORPORATION,PA,,,,PA 19301-0 CHESTER,405 HILLTOP ROAD,PAOLI,,616783,,,405 HILLTOP ROAD PAOLI PA 19301-0 CHESTER,
"QUEST UNLIMITED, INC.",CORPORATION,NAN,,,,PA,445 PENN AVE,SINKING SPRING,,616784,,,445 PENN AVE SINKING SPRING PA 19608-0 BERKS,
MCCORMICK TRAVEL AGENCY INC.,CORPORATION,NAN,33 MILLER RD,AKRON,,PA 17602-0 LANCASTER,218 N DUKE ST,LANCASTER,,616786,VICTOR R DESPARD,TREASURER,218 N DUKE ST LANCASTER PA 17602-0 LANCASTER,33 MILLER RD AKRON PA 17501-36
"W.K.W., INC.",CORPORATION,PA,,,,PA 18969-0 MONTGOMERY,394 W. BROAD ST.,TELFORD,,616787,,,394 W. BROAD ST. TELFORD PA 18969-0 MONTGOMERY,
"FRISCO HILL, INC.",CORPORATION,NAN,,,,,,,,616789,,,"WILLIAM HENRY APTS., KING & FRAZIER ROAD S, ELM BL., APT. 11 MALVERN PA 0 -0 CHESTER",
"THE GRAY AGENCY, INC.",CORPORATION,PA,1001 W MARLTON,PKE CHERRY HILL,,PA 19129-0 PHILADELPHIA,4267 E. RIVER DR,PHILADELPHIA,,616790,JOSEPH L GRAY,PRESIDENT,4267 E. RIVER DR PHILADELPHIA PA 19129-0 PHILADELPHIA,1001 W MARLTON PKE CHERRY HILL NJ 08002
RALPH D. HUGHES INC.,CORPORATION,NAN,3300 S GALLOWAY ST,PHILADELPHIA,,PA 19148-0 PHILADELPHIA,3300 S. GALLOWAY ST.,PHILA,,616791,VIRGINIA LEINHEISER,SECRETARY,3300 S. GALLOWAY ST. PHILA PA 19148-0 PHILADELPHIA,3300 S GALLOWAY ST PHILADELPHIA PA 19148-51
"REEDSVILLE AREA MENS CLUB, INC.",NONPROFIT,NAN,,,,,,,,616792,,,CHURCH ST. REEDSVILLE PA 17084-0 MIFFLIN,
SYDNEY ROSEN COMPANY,CORPORATION,NAN,714 SANSOM ST,PHILADELPHIA,,PA,712 SANSOM ST,PHILA,,616793,STEVEN ROSEN,VICEPRESIDENT,712 SANSOM ST PHILA PA 0 -0 PHILADELPHIA,714 SANSOM ST PHILADELPHIA PA 19106-3207
"PEGGY ANN SHOPPE, INC.",CORPORATION,NAN,,,,PA,128 GRANT AVE,VANDERGRIFT,,616794,,,128 GRANT AVE VANDERGRIFT PA 0 -0 WESTMORELAND,
"AIR-VENT SYSTEM'S, INC.",CORPORATION,NAN,BOX 216 190 S MAIN ST,AMBLER,,PA 19002-0 MONTGOMERY,1423 BETHLEHEM PIKE,AMBLER,,616795,WILLIAM W BRAY SR,PRESIDENT,1423 BETHLEHEM PIKE AMBLER PA 19002-0 MONTGOMERY,BOX 216 190 S MAIN ST AMBLER PA 19002-46
"SCHANNAUER PLUMBING & HEATING, INC.",CORPORATION,NAN,,,,,,,,616796,,,MONROE ST DENVER PA 17517-0 LANCASTER,
"BERG-MARK SALES, INC.",CORPORATION,NAN,,,,PA 19146-0 PHILADELPHIA,532 TANEY ST,PHILADELPHIA,,616797,,,532 TANEY ST PHILADELPHIA PA 19146-0 PHILADELPHIA,
"STEIGERS, INC.",CORPORATION,PA,,,,PA 19102-0 PHILADELPHIA,129 S. 16TH ST.,PHILA,,616798,,,129 S. 16TH ST. PHILA PA 19102-0 PHILADELPHIA,
THE WILLINGS AT INDEPENDENCE PARK CONDOMINIUM ASSOCIATION,NONPROFIT,PA,,,,PA,225 SOUTH 4TH STREET,PHILADELPHIA,19106,616799,,,225 SOUTH 4TH STREET PHILADELPHIA PA 19106 PHILADELPHIA,
"STEPHANIE-ELLEN SHOPPES, INC.",CORPORATION,NY,,,,PA 19102-0 PHILADELPHIA,"US CORP CO., 225 S 15TH ST",PHILADELPHIA,,616800,,,"US CORP CO., 225 S 15TH ST PHILADELPHIA PA 19102-0 PHILADELPHIA",
"TRI-WINN INVESTMENT MANAGEMENT GROUP, L.L.C.",LLC,PA,,,,PA,207 SOUTH JUNIPER STREET,PHILADELPHIA,19107,616802,,,207 SOUTH JUNIPER STREET PHILADELPHIA PA 19107 PHILADELPHIA,
"ELMS RECORDS, INC.",CORPORATION,NAN,,,,PA 19108-0 PHILADELPHIA,2310 MOLE ROAD,PHILADELPHIA,,616803,,,2310 MOLE ROAD PHILADELPHIA PA 19108-0 PHILADELPHIA,
"ATLANTIC DIVERSIFIED DISTRIBUTORS, INC.",CORPORATION,NAN,,,,PA 19141-0 PHILADELPHIA,4727 N. BROAD ST.,PHILA,,616804,,,4727 N. BROAD ST. PHILA PA 19141-0 PHILADELPHIA,
"C. RICHARD THOMAS INSURANCE AGENCY, INC.",CORPORATION,NAN,PO BOX 436,ZELIENOPLE,,PA 15237-0 ALLEGHENY,3412 BABCOCK BLVD,PITTSBURGH,,616805,JOHN J THOMAS,PRESIDENT,3412 BABCOCK BLVD PITTSBURGH PA 15237-0 ALLEGHENY,PO BOX 436 ZELIENOPLE PA 16063-10
PROFESSIONAL VENTURES LTD.,CORPORATION,NAN,,,,PA,809 N. EASTON RD,WILLOW GROVE,,616806,,,809 N. EASTON RD WILLOW GROVE PA 0 -0 MONTGOMERY,
JAMES J. HOUSER M.D.,CORPORATION,NAN,150 PROSPECT AVE,FRANKLIN,,PA 16323-0 VENANGO,122 PROSPECT AVENUE,FRANKLIN,,616807,JAMES J HOUSER,TREASURER,122 PROSPECT AVENUE FRANKLIN PA 16323-0 VENANGO,150 PROSPECT AVE FRANKLIN PA 16323-61
"TOBIAS EQUIPMENT CO., INC.",CORPORATION,PA,760 TOBIAS DR,HALIFAX,,,,,,616808,DEE A HOFFMAN,TREASURER,RD 1 HALIFAX PA 17032-0 DAUPHIN,760 TOBIAS DR HALIFAX PA 17032-9474
"A BUNCH OF GREATS, INC.",CORPORATION,NAN,,,,PA 19103-0 PHILADELPHIA,1620 LOCUST ST,PHILADELPHIA,,616809,,,1620 LOCUST ST PHILADELPHIA PA 19103-0 PHILADELPHIA,
FRANK S. MILLER FUNERAL HOME,CORPORATION,NAN,130 N MARKET ST,ELIZABETHTOWN,,PA 17022-0 LANCASTER,130 NORTH MARKET STREET,ELIZABETHTOWN,,616810,FRANK S MILLER,TREASURER,130 NORTH MARKET STREET ELIZABETHTOWN PA 17022-0 LANCASTER,130 N MARKET ST ELIZABETHTOWN PA 17022-36
OFFICE FURNITURE LEASING CORP.,CORPORATION,NAN,,,,,,,,616811,,,2 GIRARD PLAZA - 20TH FLOOR - SUITE 2000 PHILADELPHIA PA 19102-0 PHILADELPHIA,
"ELLIOTT HOMES, INC.",CORPORATION,NAN,,,,PA 15670-0 WESTMORELAND,"GEORGE ST., R.D. #1",NEW ALEXANDRIA,,616812,ELEANOR ELLIOTT,TREASURER,"GEORGE ST., R.D. #1 NEW ALEXANDRIA PA 15670-0 WESTMORELAND",R D 3 BOX 436A NEW ALEXANDRIA PA 15670-65
PORCO INSTALLATION COMPANY,CORPORATION,NAN,,,,PA 15222-0 ALLEGHENY,"1000 FULTON BUILDING, 107 SIXTH STREET",PITTSBURGH,,616813,,,"1000 FULTON BUILDING, 107 SIXTH STREET PITTSBURGH PA 15222-0 ALLEGHENY",
TMS PROPERTIES GROUP LLC.,LLC,PA,,,,,,,,616814,,,%CORPORATION SERVICE COMPANY DAUPHIN,
"PENNSYLVANIA SER, JOBS FOR PROGRESS, INC.",CORPORATION,NAN,,,,PA 19133-0 PHILADELPHIA,2400 NORTH FOURTH STREET,PHILADELPHIA,,616815,,,2400 NORTH FOURTH STREET PHILADELPHIA PA 19133-0 PHILADELPHIA,
"WYJANG, INC.",CORPORATION,PA,,,,PA,318 W JOHNSON ST,PHILADELPHIA,,616816,,,318 W JOHNSON ST PHILADELPHIA PA 0 -0 PHILADELPHIA,
"IDEAPEOPLE, INC.",CORPORATION,NAN,PO BOX 4535,HARRISBURG,,PA 17110-0 DAUPHIN,1713 MITCHELL RD,HARRISBURG,,616817,NANCY L MOORE,VICEPRESIDENT,1713 MITCHELL RD HARRISBURG PA 17110-0 DAUPHIN,PO BOX 4535 HARRISBURG PA 17111-22
TWIN LAKES PARK SOUTH CIVIC ASSOCIATION,NONPROFIT,PA,,,,PA 17111-0 DAUPHIN,UNION DEPOSIT MALL PO BOX 4132,HARRISBURG,,616818,,,UNION DEPOSIT MALL PO BOX 4132 HARRISBURG PA 17111-0 DAUPHIN,
ACTION HOME DEVELOPMENT AND INVESTMENT CORP.,CORPORATION,NAN,,,,PA,R.D. #1,FLEETWOOD,,616819,,,R.D. #1 FLEETWOOD PA 19522-0 BERKS,
"THE TRAVEL BAG BY FLETCHERS, INC.",CORPORATION,PA,,,,PA 15227-0 ALLEGHENY,4134 BROWNSVILLE RD,PITTSBURGH,,616820,,,4134 BROWNSVILLE RD PITTSBURGH PA 15227-0 ALLEGHENY,
"HELLEIN, ROBERT K. & ASSOCIATES, INC.",CORPORATION,PA,29 BOULDER DR,PLUM,,PA 15146-0 ALLEGHENY,1620 GOLDEN MILE HIGHWAY,MONROEVILLE,,616821,MARK L HELLEIN,TREASURER,1620 GOLDEN MILE HIGHWAY MONROEVILLE PA 15146-0 ALLEGHENY,29 BOULDER DR PLUM PA 15239-1392
"DANIEL E. KRAH COINS, INC.",CORPORATION,PA,,,,PA,1795 SOUTH EASTON ROAD,DOYLESTOWN,,616822,,,1795 SOUTH EASTON ROAD DOYLESTOWN PA 18901-0 BUCKS,
"KEMOCO BEAUTY SUPPLY COMPANY, INC.",CORPORATION,PA,35 W MAPLEWOOD MALL,PHILADELPHIA,,PA,35 MAPLEWOOD MALL,PHILADELPHIA,,616823,ALETHIA C WRIGHT,TREASURER,35 MAPLEWOOD MALL PHILADELPHIA PA 0 -0 PHILADELPHIA,35 W MAPLEWOOD MALL PHILADELPHIA PA 19144-2809
MADUZZA INC.,CORPORATION,NAN,,,,PA 18505-0 LACKAWANNA,537 GIBBONS ST,SCRANTON,,616824,,,537 GIBBONS ST SCRANTON PA 18505-0 LACKAWANNA,
TONY & JR'S. AUTO SALES INC.,CORPORATION,NAN,,,,PA 15137-0 ALLEGHENY,"1821 LINCOLN HWY., ROUTE 30 NORTH",VERSAILLES,,616825,,,"1821 LINCOLN HWY., ROUTE 30 NORTH VERSAILLES PA 15137-0 ALLEGHENY",
"THE BLACKHAWKS ATHLETIC CLUB, INC.",NONPROFIT,PA,15000 THERESA DRIVE,PHILADELPHIA,,PA 19121-0 PHILADELPHIA,1804 W. SUSQUEHANNA AVE,PHILA,,616826,JEFFREY DAYS,PRESIDENT,1804 W. SUSQUEHANNA AVE PHILA PA 19121-0 PHILADELPHIA,15000 THERESA DRIVE PHILADELPHIA PA 19116
"UNIQUE BUSINESS ASSOCIATES, INC.",CORPORATION,NAN,,,,PA.,"P. O. BOX 13061 (300 CEDAR BLVD.,",PITTSB URGH,15228),616827,,,"P. O. BOX 13061 (300 CEDAR BLVD., PITTSB URGH, PA., 15228) PITTSBURGH PA 15243-0 ALLEGHENY",
R.H.R. INTERIOR DESIGN INC.,CORPORATION,NAN,STE A-4 BENSON E,JENKINTOWN,,PA 19046-0 MONTGOMERY,SUITE A-9,BENSON ST JENKINTOWN,,616828,THOMAS RIENZI,SECRETARY,SUITE A-9 BENSON ST JENKINTOWN PA 19046-0 MONTGOMERY,STE A-4 BENSON E JENKINTOWN PA 19046-46
"THE V.S.P. PERSONAL TOUCH, INC.",CORPORATION,PA,PO BOX 564,COLLINGSWOOD,,PA 19107-0 PHILADELPHIA,1315 WALNUT ST,PHILA,,616829,ROBERT KENNEDY,VICEPRESIDENT,1315 WALNUT ST PHILA PA 19107-0 PHILADELPHIA,PO BOX 564 COLLINGSWOOD NJ 08108
"GROVE SALES, INC.",CORPORATION,NAN,,,,PA 19380-0 CHESTER,500 W. BOOT RD.,WEST CHESTER,,616830,,,500 W. BOOT RD. WEST CHESTER PA 19380-0 CHESTER,
"LAMANNA ASSOCIATES, LTD.",CORPORATION,NAN,PO BOX 2645,WEST LAWN,,PA,1733 PENN AVE,WYOMISSING HILLS,,616836,JEROME P LAMANNA,TREASURER,1733 PENN AVE WYOMISSING HILLS PA 19610-0 BERKS,PO BOX 2645 WEST LAWN PA 19609-06
"V. J. MARCHESE, INCORPORATED",CORPORATION,NAN,1033 PONTIAC RD1033 PONTIAC RD,DREXEL HILL,,PA 19026-0 DELAWARE,1005 PONTIAC RD.,DREXEL HILL,,616837,VINCENT J MALCHESE,VICEPRESIDENT,1005 PONTIAC RD. DREXEL HILL PA 19026-0 DELAWARE,1033 PONTIAC RD1033 PONTIAC RD DREXEL HILL PA 19026-4816
"PENNSYLVANIA-NEW YORK REALTY COMPANY, INC.",CORPORATION,NAN,,,,PA 18512-0 LACKAWANNA,622 S BLAKELY ST,DUNMORE,,616839,,,622 S BLAKELY ST DUNMORE PA 18512-0 LACKAWANNA,
"INDIAN HILL LODGE ON THE DELAWARE, INC.",CORPORATION,NAN,,,,PA 18512-0 LACKAWANNA,622 SOUTH BLAKELY STREET,DUNMORE,,616840,,,622 SOUTH BLAKELY STREET DUNMORE PA 18512-0 LACKAWANNA,
PHILA. CLEARINGHOUSE FOR COMMUNITY FUNDING RESOURCES,NONPROFIT,NAN,,,,PA 19102-0 PHILADELPHIA,1520 RACE ST,PHILA,,616841,,,1520 RACE ST PHILA PA 19102-0 PHILADELPHIA,
APPA INVESTORS CORPORATION,CORPORATION,NAN,,,,PA 19446-0 MONTGOMERY,"C/O HAMBURG RUBIN MULLIN & MAXWELL, 800 E. MAIN ST.",LANSDALE,,616842,,,"C/O HAMBURG RUBIN MULLIN & MAXWELL, 800 E. MAIN ST. LANSDALE PA 19446-0 MONTGOMERY",
"SOLOMON II ENTERPRISES, LLC",LLC,PA,,,,PA,106 NORTH FAIRVIEW AVENUE,UPPER DARBY,19082,616843,,,106 NORTH FAIRVIEW AVENUE UPPER DARBY PA 19082 DELAWARE,
"PEOPLE'S ARMY AND NAVY, INC.",CORPORATION,NAN,,,,PA,3707 GERMANTOWN AVE,PHILA,,616844,,,3707 GERMANTOWN AVE PHILA PA 0 -0 PHILADELPHIA,
"A. ALLAN INDUSTRIES, INC.",CORPORATION,NAN,PO BOX 999,WILKES-BARRE,,PA 18702-0 LUZERNE,85 W UNION ST,WILKES-BARRE,,616845,RICHARD ALLAN,TREASURER,85 W UNION ST WILKES-BARRE PA 18702-0 LUZERNE,PO BOX 999 WILKES-BARRE PA 18703-40
"SIDNEY COHEN O.D., LTD.",CORPORATION,NAN,1900 E CARSON STREET,PITTSBURGH,,PA 15203-0 ALLEGHENY,1603 E. CARSON ST.,PITTSBURGH,,616846,SIDNEY COHEN,TREASURER,1603 E. CARSON ST. PITTSBURGH PA 15203-0 ALLEGHENY,1900 E CARSON STREET PITTSBURGH PA 15203-1836
TRADE DEVELOPMENT CORPORATION,CORPORATION,NAN,,,,PA 19073-0 DELAWARE,4114 BATTLES LANE,NEWTOWN SQUARE,,616847,,,4114 BATTLES LANE NEWTOWN SQUARE PA 19073-0 DELAWARE,
"SIMPLY SAVVY, LLC",LLC,PA,,,,PA,1730 RED BUD ROAD,QUAKERTOWN,18951,616848,,,1730 RED BUD ROAD QUAKERTOWN PA 18951 BUCKS,
"PORT CANNON CONSTRUCTION CO., INC.",CORPORATION,NY,,,,,,,,616849,,,"OLIVER BLDG, MELLON SQUARE, C/O C T CORP SYSTEM PITTSBURGH PA 15222-0 ALLEGHENY",
VALK WESTERN HEMISPHERE TRADE CORP.,CORPORATION,NAN,,,,PA 17013-0 CUMBERLAND,"R. D. #5, P. O. BOX 218",CARLISLE,,616850,,,"R. D. #5, P. O. BOX 218 CARLISLE PA 17013-0 CUMBERLAND",
"F. S. LOPKE CONTRACTING, INC.",CORPORATION,NY,,,,,,,,616852,,,"P.O. BOX 171 (RTE 282, CORNOG, PA.) GLENMOORE PA 19343-0 CHESTER",
"MAI LORD CONSTRUCTION, LLC",LLC,PA,,,,PA,405 MADISON AVENUE,MUHLENBURG,19605,616853,,,405 MADISON AVENUE MUHLENBURG PA 19605,
FRANKLIN SQUARE HOUSING CORPORATION,NONPROFIT,NAN,,,,PA 19119-0 PHILADELPHIA,6996 GERMANTOWN AVE,PHILA,,616854,,,6996 GERMANTOWN AVE PHILA PA 19119-0 PHILADELPHIA,
SLIPPERY ROCK STUDENT GOVERNMENT ASSOCIATION,NONPROFIT,PA,,,,PA,238 SMITH STUDENT CENTER,SLIPPERY ROCK,16057,616855,,,238 SMITH STUDENT CENTER SLIPPERY ROCK PA 16057 BUTLER,
"HUBER REVERSIBLE FAN, INC.",CORPORATION,PA,2103 HERSHEY RD,ERIE,,PA,2103 HERSHEY RD,ERIE,,616856,NELLIE M HUBER,TREASURER,2103 HERSHEY RD ERIE PA 16509-0 ERIE,2103 HERSHEY RD ERIE PA 16509-4515
"STARTING GATE SKI SHOP, INC.",CORPORATION,PA,PO BOX 1222,BUSHKILL,18324-0,PA,WINONA FALLS,BUSHKILL,18324-0,616857,MALCOLM LAW,PRESIDENT,WINONA FALLS BUSHKILL PA 18324-0,PO BOX 1222 BUSHKILL PA 18324-1222
"THE PHILADELPHIA NEIGHBORHOOD HOUSING SERVICES, INC.",NONPROFIT,PA,5234 CHESTNUT ST,PHILADELPHIA,19139,PA,5234 CHESTNUT STREET,PHILADELPHIA,19139,616858,MICHAEL B ROEPEL,PRESIDENT,5234 CHESTNUT STREET PHILADELPHIA PA 19139 PHILADELPHIA,5234 CHESTNUT ST PHILADELPHIA PA 19139
"POTTER COUNTY ATV ADVENTURES, LLC",LLC,PA,,,,PA,165 PORTAGE RD,AUSTIN,16720,616859,,,165 PORTAGE RD AUSTIN PA 16720 POTTER,
GREATER AMBLER MEMORIAL COMMUNITY CENTER,NONPROFIT,NAN,,,,PA 19002-0 MONTGOMERY,119 E. BUTLER AVE.,AMBLER,,616860,,,119 E. BUTLER AVE. AMBLER PA 19002-0 MONTGOMERY,
"FUTURA DESIGNS, INC.",CORPORATION,NAN,,,,PA 19102-0 PHILADELPHIA,1722 SANSOM ST.,PHILA,,616861,,,1722 SANSOM ST. PHILA PA 19102-0 PHILADELPHIA,
"AGWAY REALTIES, INC.",CORPORATION,DE,P.O. BOX 4933,SYRACUSE,,PA 19103-0 PHILADELPHIA,C/O C T CORPORATION SYSTEM 1635 MARKET STREET,PHILADELPHIA,,616862,WILLIAM L PARKER,VICEPRESIDENT,C/O C T CORPORATION SYSTEM 1635 MARKET STREET PHILADELPHIA PA 19103-0 PHILADELPHIA,P.O. BOX 4933 SYRACUSE NY 13221
CASTLE-PEAK CORP.,CORPORATION,NAN,,,,,,,,616863,,,2901 PSF BLDG PHILA PA 19107-0 PHILADELPHIA,
"KEP ELECTRICAL CONTRACTORS, INC.",CORPORATION,NAN,,,,PA,2215 SNYDER AVE,PHILA,,616865,,,2215 SNYDER AVE PHILA PA 0 -0 PHILADELPHIA,
CUSTER AND MOLL INCORPORATED,CORPORATION,NAN,,,,PA 15905-0 CAMBRIA,431 HYSTONE AVE,JOHNSTOWN,,616866,,,431 HYSTONE AVE JOHNSTOWN PA 15905-0 CAMBRIA,
"IRON HORSE GOLF, INC.",CORPORATION,DE,9 NORTHMONT STREET,GREENSBURG,15601,PA,9 NORTHMONT ST,GREENSBURG,15601,616867,RALPH VELTRE,PRESIDENT,9 NORTHMONT ST GREENSBURG PA 15601 WESTMORELAND,9 NORTHMONT STREET GREENSBURG PA 15601-65
"AMERICAN LOG EXPORTS, LLC",LLC,PA,,,,,,,,616868,,,R R 1 BOX 1080 FORKSVILLE PA 18616 SULLIVAN,
"KEYSTONE OF NEW KENSINGTON, INC.",CORPORATION,NAN,3700 WALNUT ST,MCKEESPORT,,PA 15068-0 WESTMORELAND,617 LINDEN AVE,NEW KENSINGTON,,616869,LARRY BONDY,TREASURER,617 LINDEN AVE NEW KENSINGTON PA 15068-0 WESTMORELAND,3700 WALNUT ST MCKEESPORT PA 15132-02
"SI GELLA AT DELAWARE, LLC",LLC,PA,,,,PA,205 TAUNTON DR,CARLISLE,17013,616870,,,205 TAUNTON DR CARLISLE PA 17013 CUMBERLAND,
BEREAN BIBLE FELLOWSHIP,NONPROFIT,NAN,,,,PA 17225-0 FRANKLIN,"C/ RAY PETERSON JR., R.D. #4, BOX 299",GREENCASTLE,,616871,,,"C/ RAY PETERSON JR., R.D. #4, BOX 299 GREENCASTLE PA 17225-0 FRANKLIN",
"ABAT INSURANCE AGENCY, INC.",CORPORATION,NAN,,,,PA,3RD AVE. & ROUTE 13,BRISTOL,,616872,,,3RD AVE. & ROUTE 13 BRISTOL PA 19007-0 BUCKS,
BEST WESTERN INN & CONFERENCE CENTER,CORPORATION,NAN,,,,,,,,616874,GRAY INVESTMENT CO INC,OWNER,82 N PARK PLACE DUBOIS PA 15801-0 CLEARFIELD,
"FAMOUS LOUNGE & RESTAURANT, INC.",CORPORATION,NAN,,,,PA 18640-0 LUZERNE,455 N MAIN ST,PITTSTON,,616875,,,455 N MAIN ST PITTSTON PA 18640-0 LUZERNE,
J.J.K. INCORPORATION,CORPORATION,PA,,,,PA 19143-0 PHILADELPHIA,5517-19 BALTIMORE AVE,PHILADELPHIA,,616877,,,5517-19 BALTIMORE AVE PHILADELPHIA PA 19143-0 PHILADELPHIA,
"EVANGREGG ENTERPRISES, INC.",CORPORATION,PA,,,,PA 17368-0 YORK,R.D. #1,WRIGHTSVILLE,,616878,,,R.D. #1 WRIGHTSVILLE PA 17368-0 YORK,
T. J. MARSDEN COMPANY,CORPORATION,NAN,,,,PA 17901-0 SCHUYLKILL,9TH & LAUREL STS,POTTSVILLE,,616879,,,9TH & LAUREL STS POTTSVILLE PA 17901-0 SCHUYLKILL,
SUNBURY AREA JAYCEES,NONPROFIT,NAN,,,,PA 17801-0 NORTHUMBERLAND,138 SPRUCE STREET,SUNBURY,,616880,,,138 SPRUCE STREET SUNBURY PA 17801-0 NORTHUMBERLAND,
"3 TENSES, INC.",CORPORATION,NAN,111 UPPER KNAPP RD,CLARKS SUMMIT,,PA 18411-0 LACKAWANNA,529 KNAPP RD,CLARKS SUMMIT,,616881,JOSEPH E BYRNE,PRESIDENT,529 KNAPP RD CLARKS SUMMIT PA 18411-0 LACKAWANNA,111 UPPER KNAPP RD CLARKS SUMMIT PA 18411-35
"BUCKS COUNTY YOGA, INC.",NONPROFIT,PA,,,,PA,764 BUCKS ROAD,PERKASIE,18944,616882,,,764 BUCKS ROAD PERKASIE PA 18944 BUCKS,
"B. J. R. MACE, INC.",CORPORATION,PA,233 N 23RD ST,PHILADELPHIA,,PA 19103-0 PHILADELPHIA,1714 CHERRY ST.,PHILADELPHIA,,616883,BERNARD F THOMPSON,SECRETARY,1714 CHERRY ST. PHILADELPHIA PA 19103-0 PHILADELPHIA,233 N 23RD ST PHILADELPHIA PA 19103-1005
A. B. CHANCE COMPANY,CORPORATION,DE,210 N ALLEN ST,CENTRALIA,,PA 19103-0 PHILADELPHIA,C/O C T CORPORATION SYSTEM 1635 MARKET STREET,PHILADELPHIA,,616885,LEIF LOMO,PRESIDENT,C/O C T CORPORATION SYSTEM 1635 MARKET STREET PHILADELPHIA PA 19103-0 PHILADELPHIA,210 N ALLEN ST CENTRALIA MO 65240
"PINKYN PARTNERS, LLC",LLC,PA,,,,PA,2120 SOUTH QUEEN ST.,YORK,17403,616886,,,2120 SOUTH QUEEN ST. YORK PA 17403 YORK,
HARRISBURG MENNONITE MINISTRIES,NONPROFIT,NAN,,,,PA,1315 WALNUT STREET,HARRISBURG,,616887,,,1315 WALNUT STREET HARRISBURG PA 0 -0 DAUPHIN,
"GHIONE, VINCENT L. INC., A CLOSE CORPORATION",CORPORATION,NAN,,,,,,,,616888,,,311 WEST SICKLE STREET KENNETT SQUARE PA 0 -0 CHESTER,
CONTINENTAL GRAPHICS CORPORATION,CORPORATION,PA,PO BOX 555,POTTSVILLE,17970,PA,264 INDUSTRIAL PARK ROAD ST,CLAIR,17970,616889,RANDALL REIDLER,TREASURER,264 INDUSTRIAL PARK ROAD ST CLAIR PA 17970 SCHUYLKILL,PO BOX 555 POTTSVILLE PA 17901-0555
"C-M MEDIA SERVICES, INC.",CORPORATION,PA,,,,,,,,616890,,,600 DEKALB PIKE KING OF PRUSSIA PA 0 -0 MONTGOMERY,
"YVONNE'S LOUNGE, INC.",CORPORATION,NAN,,,,PA 19146-0 PHILADELPHIA,2601 REED STREET,PHILADELPHIA,,616891,,,2601 REED STREET PHILADELPHIA PA 19146-0 PHILADELPHIA,
SUPER BIRDS LTD.,CORPORATION,NAN,,,,,,,,616892,,,"C/O D. LAURENCE RUBINI, ESQ., TRENTON & DURHAM RDS. LANGHORNE PA 19047-0 BUCKS",
NATIONAL BOTTLE COMPANY,CORPORATION,NAN,,,,,,,,616894,,,"SUITE 436, ONE BALA-CYNWYD PLAZA BALA CYNWYD PA 19004-0 MONTGOMERY",
"VALLEY FORGE DISTRIBUTORS, INC.",CORPORATION,NAN,,,,PA 19333-0 CHESTER,431 SCHOOL HOUSE LANE,DEVON,,616895,,,431 SCHOOL HOUSE LANE DEVON PA 19333-0 CHESTER,
PHILADELPHIA REPERTORY COMPANY,NONPROFIT,NAN,,,,PA 19103-0 PHILADELPHIA,1924 CHESTNUT ST,PHILADELPHIA,,616896,,,1924 CHESTNUT ST PHILADELPHIA PA 19103-0 PHILADELPHIA,
GAMMA CONSTRUCTION COMPANY,CORPORATION,PA,42 LLOYD AVE,MALVERN,,PA 19355-0 CHESTER,101 E. KING ST.,MALVERN,,616897,SURRENDER S KOHLI,SECRETARY,101 E. KING ST. MALVERN PA 19355-0 CHESTER,42 LLOYD AVE MALVERN PA 19355-15
"MERCER AREA PLAYSCHOOL, INC.",NONPROFIT,NAN,,,,PA,"PO BX 125, E. MARKET ST.",MERCER,16137-0,616898,,,"PO BX 125, E. MARKET ST. MERCER PA 16137-0 MERCER",
PHILADELPHIA BLACKSMITH SUPPLY LTD.,CORPORATION,NAN,,,,PA 19106-0 PHILADELPHIA,208 RACE ST.,PHILA,,616900,,,208 RACE ST. PHILA PA 19106-0 PHILADELPHIA,
PPI OVERSEAS CORP.,CORPORATION,NAN,,,,,,,,616901,,,1600 LAND TITLE BLDG. PHILADELPHIA PA 19110-0 PHILADELPHIA,
"CLASSTEX KNITTING MILLS, INC.",CORPORATION,NAN,PO BOX 146,ORWIGSBURG,,,,,,616903,RICHARD ROHRER,PRESIDENT,E. MIFFLIN ST. ORWIGSBURG PA 17961-0 SCHUYLKILL,PO BOX 146 ORWIGSBURG PA 17961-0146
"LUCIANI FOODS, INC.",CORPORATION,NAN,,,,PA 19082-0 DELAWARE,788 GARRETT RD,UPPER DARBY,,616904,,,788 GARRETT RD UPPER DARBY PA 19082-0 DELAWARE,
"KOST-FREDERICK SURGICAL ASSOCIATES, INC.",CORPORATION,NAN,,,,PA 16201-0 ARMSTRONG,SUITE NO. 2 - R.D. #3,KITTANNING,,616905,PAUL L FREDERICK,TREASURER,SUITE NO. 2 - R.D. #3 KITTANNING PA 16201-0 ARMSTRONG,R D 8 BOX 52 KITTANNING PA 16201-03
EASCO DEVELOPMENT & CONTRACTING CORP.,CORPORATION,PA,,,,PA 15235-0 ALLEGHENY,1641 GEORGETOWN PLACE,PITTSBURGH,,616906,,,1641 GEORGETOWN PLACE PITTSBURGH PA 15235-0 ALLEGHENY,
"B. B. M. COAL CO., INC.",CORPORATION,NAN,,,,,,,,616907,,,214 SENECA ST 10 NATIONAL TRANSIT BLDG OIL CITY PA 16301-0 VENANGO,
"KEY STEEL OF SOUTH CAROLINA, INC.",CORPORATION,SC,,,,PA 19072-0 MONTGOMERY,707 MONTGOMERY AVE.,NARBERTH,,616908,,,707 MONTGOMERY AVE. NARBERTH PA 19072-0 MONTGOMERY,
"MIDDLE ATLANTIC ASSOCIATION AMATEUR ATHLETIC UNION, INC.",NONPROFIT,NAN,,,,PA 19110-0 PHILADELPHIA,738 LAND TITLE BLDG. BROAD & CHESTNUT ST,REETS PHILADELPHIA,,616909,,,738 LAND TITLE BLDG. BROAD & CHESTNUT ST REETS PHILADELPHIA PA 19110-0 PHILADELPHIA,
"CHESWICK MARKETING SERVICES, INC.",CORPORATION,NAN,,,,PA 15147-0 ALLEGHENY,6046 BOLTE DRIVE,VERONA,,616910,,,6046 BOLTE DRIVE VERONA PA 15147-0 ALLEGHENY,
MILITIA HILL DEVELOPMENT CORP.,CORPORATION,PA,,,,PA 19008-0 DELAWARE,1974 SPROUL RD,BROOMALL,,616911,,,1974 SPROUL RD BROOMALL PA 19008-0 DELAWARE,
VELCO ENTERPRISES INC.,CORPORATION,NAN,,,,PA,1401 W. MAIN,ST. GROVE CITY,16127-0,616912,,,1401 W. MAIN ST. GROVE CITY PA 16127-0 MERCER,
HASELRIG CONSTRUCTION INC.,CORPORATION,NAN,,,,PA 15905-0 CAMBRIA,610 YODER ST,JOHNSTOWN,,616913,,,610 YODER ST JOHNSTOWN PA 15905-0 CAMBRIA,
"SELF INSURANCE ADMINISTRATORS, INC.",CORPORATION,NAN,,,,,,,,616914,,,1009 W 9TH AVE KING OF PRUSSIA PA 19046-0 MONTGOMERY,
"PARADISE HOME REMODELING, L.L.C",LLC,PA,,,,PA,75 JEFFERSON ST,BALA CYNWYD,19004,616915,,,75 JEFFERSON ST BALA CYNWYD PA 19004 MONTGOMERY,
"ZIMMERMAN BUILDING SUPPLY, INC.",CORPORATION,NAN,,,,PA 19403-0 MONTGOMERY,3033 STONEY CREEK RD,NORRISTOWN,,616917,,,3033 STONEY CREEK RD NORRISTOWN PA 19403-0 MONTGOMERY,
"MARSCHNER, WALTER CO.",CORPORATION,NAN,,,,PA,647 MAIN ST,SLATINGTON,18080-0,616918,,,647 MAIN ST SLATINGTON PA 18080-0 LEHIGH,
"D. W. EDISON, INC.",CORPORATION,NAN,,,,PA 15108-0 ALLEGHENY,"627 SEVENTH AVE, PO BOX 101",CORAOPOLIS,,616919,,,"627 SEVENTH AVE, PO BOX 101 CORAOPOLIS PA 15108-0 ALLEGHENY",
"FINANCIAL MANAGEMENT AND SERVICES, LTD.",CORPORATION,NAN,,,,,,,,616920,,,"20 THOMAS OAKS DRIVE, COVENTRY FARMS POTTSTOWN PA 19464-0 MONTGOMERY",
"STONEY OAKS, INC.",CORPORATION,NAN,PO BOX 367,SCIOTA,18235-0,PA,R.D. 3,LEHIGHTON,18235-0,616921,JOHN F RHODES,PRESIDENT,R.D. 3 LEHIGHTON PA 18235-0 CARBON,PO BOX 367 SCIOTA PA 18354-45
"BERG, HAL ASSOCIATES, INC.",CORPORATION,NAN,,,,PA 18701-0 LUZERNE,"UNITED PENN BANK BLDG., 8 W MARKET ST.",WILKES-BARRE,,616922,,,"UNITED PENN BANK BLDG., 8 W MARKET ST. WILKES-BARRE PA 18701-0 LUZERNE",
"ROMAN DELIGHT OF HORSHAM, INC.",CORPORATION,PA,"C/O A EVANGELISTA, 25",WARMINSTER,,PA 19044-0 MONTGOMERY,VILLAGE MALL BLAIR MILL RD,HORSHAM,,616923,ANGELO EVANGELISTA,SECRETARY,VILLAGE MALL BLAIR MILL RD HORSHAM PA 19044-0 MONTGOMERY,"C/O A EVANGELISTA, 25 WARMINSTER PA 18974-09"
"SWK, LTD.",CORPORATION,PA,42 LLOYD AVE,MALVERN,,PA 19355-0 CHESTER,101 E. KING ST.,MALVERN,,616924,SURENDER S KOHLI,VICEPRESIDENT,101 E. KING ST. MALVERN PA 19355-0 CHESTER,42 LLOYD AVE MALVERN PA 19355-15
MIDDLETOWN TWP. HISTORICAL PRESERVATION & BICENTENNIAL CORP.,NONPROFIT,NAN,,,,PA,700 NEW RODGERS ROAD,LEVITTOWN,,616925,,,700 NEW RODGERS ROAD LEVITTOWN PA 19056-0 BUCKS,
THE REFORMED PRESBYTERIAN CHURCH OF ELKINS PARK (COVENANTER),NONPROFIT,PA,,,,PA 19027-0 MONTGOMERY,901 CYPRESS AVE,ELKINS PARK,,616926,,,901 CYPRESS AVE ELKINS PARK PA 19027-0 MONTGOMERY,
"WINDMILL ELECTRONICS, LLC",LLC,PA,,,,PA,242,BALA,19004,616927,,,242 BALA AVE. BALA PA 19004 MONTGOMERY,
"HEAVENLY GROUNDS COFFEE, LLC",LLC,PA,,,,PA,190 SCHOOLHOUSE RD,ASPERS,17304,616928,,,190 SCHOOLHOUSE RD ASPERS PA 17304 ADAMS,
"HUDSON SCHOOLS, INC.",CORPORATION,PA,,,,PA 17110-0 DAUPHIN,"BROTHERHOOD BLDG, 6TH & MACLAY STS",HARRISBURG,,616929,,,"BROTHERHOOD BLDG, 6TH & MACLAY STS HARRISBURG PA 17110-0 DAUPHIN",
"PORTFOLIO REAL ESTATE NEW KENSINGTON, LLC",LLC,DE,,,,,,,,616930,,,%CORPORATION SERVICE COMPANY DAUPHIN,
"CANONSBURG SPORTSMEN'S ASSOCIATION, INC.",NONPROFIT,PA,PO BOX 298,CANONSBURG,,PA 15317-0 WASHINGTON,ALLISON HOLLOW RD BOX 298,CANONSBURG,,616931,ROBERT CULP,SECRETARY,ALLISON HOLLOW RD BOX 298 CANONSBURG PA 15317-0 WASHINGTON,PO BOX 298 CANONSBURG PA 15317
"CASS, INC.",CORPORATION,PA,,,,PA 19044-0 MONTGOMERY,337 COTTAGE AVE.,HORSHAM,,616932,,,337 COTTAGE AVE. HORSHAM PA 19044-0 MONTGOMERY,
"ROBERT W. CALL, INC.",CORPORATION,NAN,,,,PA,"RD #1, BOX 32",HOOKSTOWN,15050-0,616933,,,"RD #1, BOX 32 HOOKSTOWN PA 15050-0 BEAVER",
AMERICAN REPERTORY THEATER OF PHILADELPHIA,NONPROFIT,NAN,,,,,,,,616934,,,"275 BRYN MAWR AVE., APT. B-22 BRYN MAWR PA 19010-0 MONTGOMERY",
H & R MOELLER INC.,CORPORATION,MD,,,,PA 17011-0 CUMBERLAND,3535 CAPITAL,CITY MALL CAMP HILL,,616935,,,3535 CAPITAL CITY MALL CAMP HILL PA 17011-0 CUMBERLAND,
ST. DAVID'S NURSERY SCHOOL,NONPROFIT,PA,,,,PA,816 S VALLEY FORGE RD,DEVON,19333,616936,,,816 S VALLEY FORGE RD DEVON PA 19333,
"GIRLS CLUB OF YORK, INC.",NONPROFIT,NAN,,,,PA 17403-0 YORK,301 EAST PHILADELPHIA STREET,YORK,,616937,,,301 EAST PHILADELPHIA STREET YORK PA 17403-0 YORK,
"J R MATADOR, INC.",CORPORATION,PA,,,,PA 19139-0 PHILADELPHIA,5942 MARKET STREET,PHILADELPHIA,,616938,,,5942 MARKET STREET PHILADELPHIA PA 19139-0 PHILADELPHIA,
WOODSIDE MEALS ON WHEELS,NONPROFIT,PA,,,,PA,1382,NEWTOWN,18940,616939,,,1382 NEWTOWN-LANGHORNE RD NEWTOWN PA 18940 BUCKS,
FRANKLIN MINT CUSTOM SALES CORPORATION,CORPORATION,NAN,,,,,,,,616940,,,ROUTE #1 FRANKLIN CENTER PA 19091-0 DELAWARE,
"LAFAYETTE GARDEN APARTMENTS, LLC",LLC,PA,,,,PA,15 S. FRANKLIN ST.,WILKES BARRE,18711,616941,,,15 S. FRANKLIN ST. WILKES BARRE PA 18711 LUZERNE,
"G. B. WINELAND & SON, INC.",CORPORATION,NAN,200 RAILROAD STREET,MARTINSBURG,,PA,201 RAILROAD STREET,MARTINSBURG,,616942,VIRGINIA Y WINELAND,VICEPRESIDENT,201 RAILROAD STREET MARTINSBURG PA 16662-0 BLAIR,200 RAILROAD STREET MARTINSBURG PA 16662
CAUSE BASED COMMERCE INC.,CORPORATION,OH,STE 2018111 CHEVIOT RD,CINCINNATI,,,,,,616943,TIMOTHY BISCHEL,VICEPRESIDENT,%CORPORATION SERVICE COMPANY DAUPHIN,STE 2018111 CHEVIOT RD CINCINNATI OH 45247-4013
"MANHEIM MACHINE CO., INC. A CLOSE CORPORATION",CORPORATION,NAN,3938 RIDGE PIKE,COLLEGEVILLE,,PA 19426-0 MONTGOMERY,3938 RIDGE PIKE,COLLEGEVILLE,,616944,OTTO HEIMES,PRESIDENT,3938 RIDGE PIKE COLLEGEVILLE PA 19426-0 MONTGOMERY,3938 RIDGE PIKE COLLEGEVILLE PA 19426-46
"P B ASSOCIATES, INC.",CORPORATION,NAN,425 LITTLE CONESTOGA RD,DOWNINGTOWN,,PA 19355-0 CHESTER,11 BIRCH RD,MALVERN,,616945,PHILIP C SMITH,VICEPRESIDENT,11 BIRCH RD MALVERN PA 19355-0 CHESTER,425 LITTLE CONESTOGA RD DOWNINGTOWN PA 19335-1829
REGIS BEAUTY SALONS,CORPORATION,MN,7201 METRO BLVD,MINNEAPOLIS,,,,,,616946,KOLTKAR SHRINIVAS,TREASURER,"%NATIONAL REGISTERED AGENTS, INC. DAUPHIN",7201 METRO BLVD MINNEAPOLIS MN 55439
"KEYS TO COMMUNITY DEVELOPMENT, INC.",NONPROFIT,NAN,,,,,,,,616947,,,"PEOPLES BANK BLDG., 4TH & WOOD STREETS C/O BRADY KEYS, JR. PITTSBURGH PA 0 -0 ALLEGHENY",
"SILVER SCHNAUZER, LP",PARTNERSHIP,PA,5313 ST JAMES TERRACE,PITTSBURGH,15232,PA,5313 ST. JAMES TERRACE,PITTSBURGH,15232,616948,IMAGEBOX PRODUCTIONS INC,GENPARTNER,5313 ST. JAMES TERRACE PITTSBURGH PA 15232 ALLEGHENY,5313 ST JAMES TERRACE PITTSBURGH PA 15232
"SEWICKLEY OB-GYN ASSOCIATES, P.C.",CORPORATION,NAN,D52 PILGRIM DR,SEWICKLEY,,PA 15143-0 ALLEGHENY,701 BROAD ST,SEWICKLEY,,616950,ROBERT SABATELLE,PRESIDENT,701 BROAD ST SEWICKLEY PA 15143-0 ALLEGHENY,D52 PILGRIM DR SEWICKLEY PA 15143-02
"BENJAMIN FRANKLIN CLINIC, INC.",CORPORATION,PA,C/O CT CORP SYSTEM 1635 MARKET STREET,PHILADELPHIA,,PA 19107-0 PHILADELPHIA,330 S. 9TH ST.,PHILADELPHIA,,616951,NANCY JOHNSON,VICEPRESIDENT,330 S. 9TH ST. PHILADELPHIA PA 19107-0 PHILADELPHIA,C/O CT CORP SYSTEM 1635 MARKET STREET PHILADELPHIA PA 19103-51
R.E. CONDIT COMPANY,CORPORATION,OH,3050 SPRINGBORO W,DAYTON,,,,,,616954,JOSEPH W MINER,VICEPRESIDENT,%CT CORPORATION SYSTEM UNKNOWN,3050 SPRINGBORO W DAYTON OH 45439
DATACOMM SERVICE CORPORATION,CORPORATION,DE,PO BOX 1299,MIDDLEBURY,,,,,,616955,WILLIAM S LAWRENCE,VICEPRESIDENT,"%THE PRENTICE-HALL CORPORATION SYSTEM, INC. DAUPHIN",PO BOX 1299 MIDDLEBURY CT 06762
"SALESWORLD, INC.",CORPORATION,OH,C/O KENNETH A WELT TST3005 GREENE ST,HOLLYWOOD,,PA 19103-0 PHILADELPHIA,C/O C T CORPORATION SYSTEM 1635 MARKET STREET,PHILADELPHIA,,616956,M GIUSEFFI,VICEPRESIDENT,C/O C T CORPORATION SYSTEM 1635 MARKET STREET PHILADELPHIA PA 19103-0 PHILADELPHIA,C/O KENNETH A WELT TST3005 GREENE ST HOLLYWOOD FL 33020
"CLARK INDUSTRIES, INC.",CORPORATION,NAN,,,,,,,,616957,FRED R CLARK JR,TREASURER,"PO BOX 540, RD #4 BELLE VERNON PA 15012-0 FAYETTE",
"HALLSTEAD MOTOR SPORT, INC.",CORPORATION,NAN,,,,PA 18822-0 SUSQUEHANNA,53 MAIN STREET,HALLSTEAD,,616958,,,53 MAIN STREET HALLSTEAD PA 18822-0 SUSQUEHANNA,
"FAMOUS FAMILY FURNITURE & MATRESSES, LLC",LLC,NY,,,,PA,400 SOUTH MAIN ST.,WILKES BARRE,18701,616959,,,400 SOUTH MAIN ST. WILKES BARRE PA 18701 LUZERNE,
"FULL HOUSE FURNITURE, INC.",CORPORATION,NJ,,,,,,,,616960,,,"NORMANDY MART, ROOSEVELT BOULEVARD AND C OMLY ROAD PHILADELPHIA PA 19154-0 PHILADELPHIA",
SCHUYLKILL COUNTY VISITORS BUREAU,NONPROFIT,PA,,,,,,,,616961,,,"BOX 94, RD #2 TAMAQUA PA 18252-0 SCHUYLKILL",
GRALE DEVELOPMENT CORP.,CORPORATION,NAN,,,,PA,"B 72- CROSBY SQUARE APTS, 14TH & CROSBY STREETS",CHESTER,,616962,,,"B 72- CROSBY SQUARE APTS, 14TH & CROSBY STREETS CHESTER PA 0 -0 DELAWARE",
"CHARLES M. BANKO, INC.",CORPORATION,NAN,PO BOX 39,MOUNT POCONO,,,,,,616963,CHARLES M BANKO,PRESIDENT,1101 BLDG EASTON PA 18042-0 NORTHAMPTON,PO BOX 39 MOUNT POCONO PA 18344-0039
"THE NEW BIRTH BAPTIST CHURCH, PHILADELPHIA, PA.",NONPROFIT,PA,,,,PA 19150-0 PHILADELPHIA,7870 PROVIDENT RD,PHILA,,616964,,,7870 PROVIDENT RD PHILA PA 19150-0 PHILADELPHIA,
"T & F STEEL SERVICE, INC.",CORPORATION,NAN,,,,PA 19148-0 PHILADELPHIA,1812 S CAMAC ST,PHILA,,616965,,,1812 S CAMAC ST PHILA PA 19148-0 PHILADELPHIA,
"SCRAPBOOK SUPER STATION, LLC",LLC,PA,168 POINT PLZ,BUTLER,16001,PA,168 POINT PLAZA,BUTLER,16001,616966,AMY SHEPHERD,PRESIDENT,168 POINT PLAZA BUTLER PA 16001 BUTLER,168 POINT PLZ BUTLER PA 16001-2540
"PAGAN AND MONTANEZ, INC.",CORPORATION,NAN,2353 59-61 N 6TH ST,PHILADELPHIA,,PA,1600 N. 6TH ST,PHILADELPHIA,,616967,EDWIN PAGAN,VICEPRESIDENT,1600 N. 6TH ST PHILADELPHIA PA 0 -0 PHILADELPHIA,2353 59-61 N 6TH ST PHILADELPHIA PA 19133
A.C. HIPPLE III LP,PARTNERSHIP,PA,244 SOUTH MAIN ST.,NEW HOPE,18938,PA,244 SOUTH MAIN ST.,NEW HOPE,18938,616969,AC HIPPLE II LLC,GENPARTNER,244 SOUTH MAIN ST. NEW HOPE PA 18938 BUCKS,244 SOUTH MAIN ST. NEW HOPE PA 18938
"CHINA ROYAL, INC.",CORPORATION,NAN,,,,PA 19341-0 CHESTER,615 BRAINARD PLACE,EXTON,,616970,,,615 BRAINARD PLACE EXTON PA 19341-0 CHESTER,
"RTD FINANCIAL ADVISORS, INC.",CORPORATION,NJ,,,,PA,"30 S. 17TH STREET, STE 1620",PHILADELPHIA,19103,616971,ROY T DILIBERTO,TREASURER,"30 S. 17TH STREET, STE 1620 PHILADELPHIA PA 19103 PHILADELPHIA",
"PAN AMERICAN FILMS, INC.",CORPORATION,PA,,,,PA 19063-0 DELAWARE,"STE 8,",MEDIA TOWN MALL MEDIA,,616975,,,"STE 8, MEDIA TOWN MALL MEDIA PA 19063-0 DELAWARE",
"ENTERTANIUM HEALTH SPA, INC.",CORPORATION,NAN,,,,PA,3061 BRISTOL ROAD,CORNWELLS HEIGHTS,,616976,,,3061 BRISTOL ROAD CORNWELLS HEIGHTS PA 19020-0 BUCKS,
"G.B.I., INC.",CORPORATION,PA,7500 STATE RD,PHILADELPHIA,19136,PA,7500 STATE ROAD,PHILADELPHIA,19136,616977,MICHAEL L GERSHEL,SECRETARY,7500 STATE ROAD PHILADELPHIA PA 19136 PHILADELPHIA,7500 STATE RD PHILADELPHIA PA 19136-3402
AMERICAN SYSTEMS CORPORATION,CORPORATION,PA,1632 DENNISTON ST,PITTSBURGH,,PA 15221-0 ALLEGHENY,901 WOOD STREET,WILKENSBURG,,616978,JOEL PLATT,PRESIDENT,901 WOOD STREET WILKENSBURG PA 15221-0 ALLEGHENY,1632 DENNISTON ST PITTSBURGH PA 15217-1458
"SENGER, L. M. ASSOCIATES, INC.",CORPORATION,NAN,,,,PA 19083-0 DELAWARE,1202 CENTER RD,HAVERTOWN,,616979,,,1202 CENTER RD HAVERTOWN PA 19083-0 DELAWARE,
"ANDERSON AUCTIONEERS, INC.",CORPORATION,NAN,,,,PA,R.D.#1,GEORGETOWN,15043-0,616980,HARRY ANDERSON,PRESIDENT,R.D.#1 GEORGETOWN PA 15043-0 BEAVER,R D 2 BOX 50 GEORGETOWN PA 15043-04
METALON ENGINEERING CORPORATION,CORPORATION,NAN,,,,PA 15668-0 WESTMORELAND,4064 WILLIAMS PENN HWY.,MURRAYSVILLE,,616981,,,4064 WILLIAMS PENN HWY. MURRAYSVILLE PA 15668-0 WESTMORELAND,
"JULIET PROPERTIES, INCORPORATED",CORPORATION,NAN,,,,PA 15237-0 ALLEGHENY,3410 BABCOCK BLVD.,PITTSBURGH,,616982,,,3410 BABCOCK BLVD. PITTSBURGH PA 15237-0 ALLEGHENY,
"ARMSTRONG UROLOGICAL SYSTEMS, INC.",CORPORATION,PA,,,,PA 16201-0 ARMSTRONG,"132 N. MCKEAN ST., PO BOX 535",KITTANNING,,616983,,,"132 N. MCKEAN ST., PO BOX 535 KITTANNING PA 16201-0 ARMSTRONG",
W & L CO.,CORPORATION,PA,832 NORTHRIDGE DR,PITTSBURGH,15216,PA,832 NORTHRIDGE DRIVE,PITTSBURGH,15216,616984,GARY LUCHINI,PRESIDENT,832 NORTHRIDGE DRIVE PITTSBURGH PA 15216 ALLEGHENY,832 NORTHRIDGE DR PITTSBURGH PA 15216-1121
COLONY INSURANCE MANAGEMENT CO.,CORPORATION,NAN,,,,,,,,616985,,,ONE DECKER SQUARE-C523 BALA CYNWYD PA 0 -0 MONTGOMERY,
"ABE BEVERAGE, INC.",CORPORATION,DE,C/O SUN CO TAX DEPT 1801 MARKET ST,PHILADELPHIA,,PA 19103-0 PHILADELPHIA,C/O C T CORPORATION SYSTEM 1635 MARKET STREET,PHILADELPHIA,,616986,ROBERT J DARBY,TREASURER,C/O C T CORPORATION SYSTEM 1635 MARKET STREET PHILADELPHIA PA 19103-0 PHILADELPHIA,C/O SUN CO TAX DEPT 1801 MARKET ST PHILADELPHIA PA 19103-51
"FUEL AND ENERGY SAVINGS, INC.",CORPORATION,NAN,,,,PA 15132-0 ALLEGHENY,1614 LYSLE BLVD,MCKEESPORT,,616988,,,1614 LYSLE BLVD MCKEESPORT PA 15132-0 ALLEGHENY,
"CREATIVE WOOD CONCEPTS, LLC.",LLC,PA,,,,PA,660 HOLLOW RD,PHOENIXVILLE,19460,616989,,,660 HOLLOW RD PHOENIXVILLE PA 19460 CHESTER,
"WEST BRANCH PATHOLOGY SERVICES, INC.",CORPORATION,NAN,845 GRAMPIAN BLVD,WILLIAMSPORT,,PA,845 GRAMPIAN BLVD.,WILLIAMSPORT,,616990,DANIEL E HILL,PRESIDENT,845 GRAMPIAN BLVD. WILLIAMSPORT PA 0 -0 LYCOMING,845 GRAMPIAN BLVD WILLIAMSPORT PA 17701-41
CHESAPEAKE CHOWDER HOUSE COMPANY,CORPORATION,NAN,,,,PA 17108-0 DAUPHIN,"100 PINE STREET, P.O. BOX 1166",HARRISBURG,,616991,,,"100 PINE STREET, P.O. BOX 1166 HARRISBURG PA 17108-0 DAUPHIN",
"TRAMARK, INC.",CORPORATION,NAN,,,,,,,,616992,,,"340 NORTH 9TH STREET, C/O SAM KERMAN LEHIGHTON PA 18235-0 CARBON",
"PALUMBO'S INN, INC.",CORPORATION,NAN,,,,,,,,616993,,,"NORTH ABINGTON TOWNSHIP, R.D.#1 DALTON PA 18414-0 LACKAWANNA",
PENN-YORK ELECTRIC SUPPLY CO.,CORPORATION,NAN,,,,PA 17403-0 YORK,1215 ELM ST,YORK,,616994,,,1215 ELM ST YORK PA 17403-0 YORK,
"MODULAR CONCEPTUAL SYSTEMS, INC.",CORPORATION,NAN,,,,PA 19046-0 MONTGOMERY,122 OLD YORK RD,JENKINTOWN,,616995,,,122 OLD YORK RD JENKINTOWN PA 19046-0 MONTGOMERY,
MOSGROVE ENGINEERING COMPANY,CORPORATION,NAN,,,,PA 16259-0 ARMSTRONG,R.D. #1,TEMPLETON,,616997,,,R.D. #1 TEMPLETON PA 16259-0 ARMSTRONG,
"NEONCRAFTERS, INC.",CORPORATION,NAN,,,,PA 19147-0 PHILADELPHIA,1535-39 S 7TH ST,PHILA,,616998,,,1535-39 S 7TH ST PHILA PA 19147-0 PHILADELPHIA,
"RUSTIC RESTAURANT, INC.",CORPORATION,NAN,,,,PA 19460-0 CHESTER,178-182 BRIDGE STREET,PHOENIXVILLE,,616999,,,178-182 BRIDGE STREET PHOENIXVILLE PA 19460-0 CHESTER,
"ROSEMONT PRODUCE, INC.",CORPORATION,NAN,,,,,,,,617000,,,NORTHEAST CORNER OF FRANKLIN & LANCASTER AVE. 1125 LANCASTER AV ROSEMONT PA 0 -0 MONTGOMERY,
WILLIAM J. HNATH CORPORATION,CORPORATION,DE,PO BOX 443,POTTSTOWN,,PA 19464-0 MONTGOMERY,380 HIGH ST,POTTSTOWN,,617001,WILLIAM J HNATH,VICEPRESIDENT,380 HIGH ST POTTSTOWN PA 19464-0 MONTGOMERY,PO BOX 443 POTTSTOWN PA 19464-46
SULLIVAN COUNTY MIDGET LEAGUE,NONPROFIT,NAN,,,,,,,,617002,,,"C/O MISS ALICE M. BAHR, SECRETARY, RD #2 DUSHORE PA 18614-0 SULLIVAN",
"MACKRELL, CAROL INC.",CORPORATION,PA,,,,PA 19124-0 PHILADELPHIA,4354 TORRESDALE AVE,PHILADELPHIA,,617003,,,4354 TORRESDALE AVE PHILADELPHIA PA 19124-0 PHILADELPHIA,
INTER GLOBAL CORPORATION,CORPORATION,DE,C/O CAPPELLETTI ETAL 2081 E HIGH ST,POTTSTOWN,,PA 19464-0 MONTGOMERY,380 HIGH STREET,POTTSTOWN,,617004,WILLIAM J HNATH,VICEPRESIDENT,380 HIGH STREET POTTSTOWN PA 19464-0 MONTGOMERY,C/O CAPPELLETTI ETAL 2081 E HIGH ST POTTSTOWN PA 19464-46
INTERCULTURAL COMMUNICATIONS NETWORK,NONPROFIT,NAN,,,,PA 15217-0 ALLEGHENY,6524 DALZELL PLACE,PITTSBURGH,,617005,,,6524 DALZELL PLACE PITTSBURGH PA 15217-0 ALLEGHENY,
GROVE VALVE AND REGULATOR COMPANY,CORPORATION,CA,,,,PA 19109-0 PHILADELPHIA,"C/O C T CORPORATION SYSTEM, 123 SOUTH BR OAD STREET",PHILADELPHIA,,617006,,,"C/O C T CORPORATION SYSTEM, 123 SOUTH BR OAD STREET PHILADELPHIA PA 19109-0 PHILADELPHIA",
"IDLE HOUR INN, INC.",CORPORATION,NAN,,,,PA,"RICHLANDTOWN PIKE, R.D.#1",COOPERSBURG,18036-0,617007,,,"RICHLANDTOWN PIKE, R.D.#1 COOPERSBURG PA 18036-0 LEHIGH",
LUDWIG'S MARKET INC.,CORPORATION,NAN,R D 3066,FLEETWOOD,,PA,"ROUTE 73 & PRICETOWN RD., R.D. #3",FLEETWOOD,,617008,DORIS M LUDWIG,SECRETARY,"ROUTE 73 & PRICETOWN RD., R.D. #3 FLEETWOOD PA 19522-0 BERKS",R D 3066 FLEETWOOD PA 19522-06
"PARENTS WITHOUT PARTNERS, GREATER HARRISBURG, CHAPTER NO. 294, INC.",NONPROFIT,NAN,,,,PA 17011-0 CUMBERLAND,2 CEDAR CLIFF DR.,CAMP HILL,,617009,,,2 CEDAR CLIFF DR. CAMP HILL PA 17011-0 CUMBERLAND,
"AMERICAN FLOWERS, INC.",CORPORATION,NAN,,,,PA 19034-0 MONTGOMERY,1000 HAWTHORNE LANE FORT,WASHINGTON,,617010,,,1000 HAWTHORNE LANE FORT WASHINGTON PA 19034-0 MONTGOMERY,
SHADYSIDE HOSPITAL FOUNDATION,NONPROFIT,PA,,,,PA 15232-0 ALLEGHENY,532 S AIKEN AVENUE SUITE 302,PITTSBURGH,,617011,,,532 S AIKEN AVENUE SUITE 302 PITTSBURGH PA 15232-0 ALLEGHENY,
"GULF MINES, INC.",CORPORATION,NAN,4945 CARLYN DR,PITTSBURGH,,PA 15236-0 ALLEGHENY,4945 CARLYN DR.,PITTSBURGH,,617012,FRED P FIORE,PRESIDENT,4945 CARLYN DR. PITTSBURGH PA 15236-0 ALLEGHENY,4945 CARLYN DR PITTSBURGH PA 15236-02
"OLYMPIC FOOD SERVICES, INC.",CORPORATION,NAN,,,,PA,712 MONROE ST,STROUDSBURG,18360-0,617013,,,712 MONROE ST STROUDSBURG PA 18360-0 MONROE,
"PROFESSIONAL FUNDING, INC.",CORPORATION,NAN,,,,,,,,617014,,,"2717 FIDELITY BLDG., 123 SOUTH BROAD STR EET PHILADELPHIA PA 19109-0 PHILADELPHIA",
"STONEHENGE ENTERPRISES, INC.",CORPORATION,PA,,,,PA,2224 MACK BLVD.,ALLENTOWN,18103-0,617015,,,2224 MACK BLVD. ALLENTOWN PA 18103-0 LEHIGH,
"BRG, INC.",CORPORATION,PA,,,,,,,,617016,,,R.D.#1 PLEASANT MOUNTAIN PA 0 -0 WAYNE,
"R C R ASSOCIATES, INC.",CORPORATION,NAN,,,,PA 19301-0 CHESTER,4 BERYL ROAD,PAOLI,,617017,,,4 BERYL ROAD PAOLI PA 19301-0 CHESTER,
"FULL GOSPEL CHURCH OF KENNETT SQUARE, INCORPORATED",NONPROFIT,PA,,,,PA 19348-0 CHESTER,430 EAST SOUTH STREET,KENNETT SQUARE,,617018,,,430 EAST SOUTH STREET KENNETT SQUARE PA 19348-0 CHESTER,
KEISER STERLING CORPORATION,CORPORATION,PA,,,,PA 19106-0 PHILADELPHIA,134 N THIRD ST,PHILADELPHIA,,617020,,,134 N THIRD ST PHILADELPHIA PA 19106-0 PHILADELPHIA,
GREAT EASTERN SHIPPERS COOPERATIVE ASSOCIATION,CORPORATION,NAN,,,,PA 18509-0 LACKAWANNA,1801 MEYLERT AVE,SCRANTON,,617021,,,1801 MEYLERT AVE SCRANTON PA 18509-0 LACKAWANNA,
"PARKE PLACE PROPERTIES, L.P.",PARTNERSHIP,PA,1227 HIGHMAN ST,PITTSBURGH,15219,PA,1207 FIFTH AVE,PITTSBURGH,15219,617022,PARKE PLACE PROPERTY MANAGEMENT LLC,GENPARTNER,1207 FIFTH AVE PITTSBURGH PA 15219 ALLEGHENY,1227 HIGHMAN ST PITTSBURGH PA 15205
"LADIES AUXILIARY OF WASHINGTON TOWNSHIP, INC.",NONPROFIT,NAN,,,,PA 15613-0 WESTMORELAND,"R.D.#1, BOX 134 A, ROUTE 66",APOLLO,,617023,,,"R.D.#1, BOX 134 A, ROUTE 66 APOLLO PA 15613-0 WESTMORELAND",
"SHALO'S, INC.",CORPORATION,NAN,,,,PA,3110 KENSINGTON AVE.,PHILADELPHIA,,617024,,,3110 KENSINGTON AVE. PHILADELPHIA PA 0 -0 PHILADELPHIA,
"FRESH TOUCH FARMS, LLC",LLC,PA,,,,PA,810 PENN GREEN RD,LANDENBERG,19350,617025,,,810 PENN GREEN RD LANDENBERG PA 19350 CHESTER,
"DEBORAH'S INTERIORS AND GIFTS, LLC",LLC,PA,,,,PA,3227 GRISTMILL ROAD,OREFIELD,18069,617026,,,3227 GRISTMILL ROAD OREFIELD PA 18069 LEHIGH,
"PAXSUN GROUP, LP",PARTNERSHIP,PA,581 WOODBINE RD.,LANCASTER,17603,PA,581 WOODBINE RD.,LANCASTER,17603,617027,PAXSUN GROUP PROPERTIES LLC,GENPARTNER,581 WOODBINE RD. LANCASTER PA 17603 LANCASTER,581 WOODBINE RD. LANCASTER PA 17603
"TRIPLE NET INVESTMENTS XXIII, L.P.",PARTNERSHIP,PA,171 RTE 173 STE 201,ASBURY,18017,PA,22 S COMMERCE WAY STE 7,BETHLEHEM,18017,617028,C-ROC LLC,GENPARTNER,22 S COMMERCE WAY STE 7 BETHLEHEM PA 18017 NORTHAMPTON,171 RTE 173 STE 201 ASBURY NJ 08802
BERKS FILM MAKERS,NONPROFIT,NAN,,,,PA,503 PENN ST.,READING,,617030,,,503 PENN ST. READING PA 19601-0 BERKS,
FUNDING INTERNATIONAL CORPORATION OF AMERICA,CORPORATION,PA,,,,PA 19087-0 DELAWARE,108 LEMONTON WAY,RADNOR,,617031,,,108 LEMONTON WAY RADNOR PA 19087-0 DELAWARE,
DERRY AREA ASSOCIATION FOR AMERICA'S BICENTENNIAL,NONPROFIT,NAN,,,,PA 15627-0 WESTMORELAND,118 EAST FIRST AVE.,DERRY,,617032,,,118 EAST FIRST AVE. DERRY PA 15627-0 WESTMORELAND,
"JOY & RON, INC.",CORPORATION,NAN,,,,PA 19464-0 MONTGOMERY,1115 SEMBLING AVE,POTTSTOWN,,617035,,,1115 SEMBLING AVE POTTSTOWN PA 19464-0 MONTGOMERY,
"BILL KELLY OLDSMOBILE-CADILLAC, INC.",CORPORATION,NAN,P.O. BOX 1283,MCMURRAY,,PA 15301-0 WASHINGTON,131 MURTLAND AVE,WASHINGTON,,617036,WILLIS P DARR,PRESIDENT,131 MURTLAND AVE WASHINGTON PA 15301-0 WASHINGTON,P.O. BOX 1283 MCMURRAY PA 15317-63
"1660 PEMBERTON RD., LLC",LLC,PA,,,,PA,653 SKIPPACK PIKE. STE. 111,BLUE BELL,19422,617037,,,653 SKIPPACK PIKE. STE. 111 BLUE BELL PA 19422 MONTGOMERY,
"WILLOW GROVE BEVERAGE DISTRIBUTORS, INC.",CORPORATION,NAN,,,,PA 19001-0 MONTGOMERY,2132 MORELAND RD,ABINGTON,,617038,,,2132 MORELAND RD ABINGTON PA 19001-0 MONTGOMERY,
ALICE K. ROBINSON INC.,CORPORATION,NAN,107 MT BLAINE DR,MCMURRAY,,PA 15317-0 WASHINGTON,107 MT. BLAINE DRIVE,MCMURRAY,,617040,PHILIP L ROBINSON,TREASURER,107 MT. BLAINE DRIVE MCMURRAY PA 15317-0 WASHINGTON,107 MT BLAINE DR MCMURRAY PA 15317-63
HIGHLANDS HISTORICAL SOCIETY,NONPROFIT,NAN,,,,PA 19422-0 MONTGOMERY,"P.O. BOX 231,",SKIPPACK PIKE BLUE BELL,,617041,,,"P.O. BOX 231, SKIPPACK PIKE BLUE BELL PA 19422-0 MONTGOMERY",
"C. J. CHARLES LUMBER, INC.",CORPORATION,PA,127 LANDIS DRIVE,LANCASTER,,,,,,617042,KEITH J CHARLES,TREASURER,RD 2 NEW PROVIDENCE PA 17560-0 LANCASTER,127 LANDIS DRIVE LANCASTER PA 17602-36
"DEE'S SPORTSLAND, INC.",CORPORATION,PA,,,,PA 15801-0 CLEARFIELD,"RD #3, SHAFFER RD.",AT DUBOIS MALL DUBOIS,,617043,,,"RD #3, SHAFFER RD. AT DUBOIS MALL DUBOIS PA 15801-0 CLEARFIELD",
"FASHIONS BY DAFFODIL, LTD.",CORPORATION,NAN,,,,,,,,617044,,,"51 PLAZA, R.D. #2 BELLE VERNON PA 15012-0 FAYETTE",
"LAIN, JOSEPH W. INC.",CORPORATION,NAN,,,,PA 19114-0 PHILADELPHIA,9411 ACADEMY RD,PHILA,,617045,,,9411 ACADEMY RD PHILA PA 19114-0 PHILADELPHIA,
N. C. & C. CORPORATION,CORPORATION,NAN,,,,PA 15907-0 CAMBRIA,207 1/2 MARKET ST,JOHNSTOWN,,617046,,,207 1/2 MARKET ST JOHNSTOWN PA 15907-0 CAMBRIA,
"WIVES SELF HELP FOUNDATION, INC.",NONPROFIT,PA,,,,PA,8001 ROOSEVELT BLVD STE 205-207,PHILADELPHIA,19152,617047,,,8001 ROOSEVELT BLVD STE 205-207 PHILADELPHIA PA 19152 PHILADELPHIA,
"LOHMAR MANUFACTURING COMPANY, INC.",CORPORATION,NAN,,,,PA 18014-0 NORTHAMPTON,147 S. WALNUT ST.,BATH,,617048,,,147 S. WALNUT ST. BATH PA 18014-0 NORTHAMPTON,
"FREY & SON, INC.",CORPORATION,NAN,,,,PA 17604-0 LANCASTER,1000 N. PRINCE ST.,LANCASTER,,617049,,,1000 N. PRINCE ST. LANCASTER PA 17604-0 LANCASTER,
"MICHAEL, SHABEN SONS, INC.",CORPORATION,PA,119 MICHAEL DR,ALIQUIPPA,15001-0,PA,119 MICHAEL DR,ALIQUIPPA,15001-0,617050,THOMAS MICHAEL,SECRETARY,119 MICHAEL DR ALIQUIPPA PA 15001-0 BEAVER,119 MICHAEL DR ALIQUIPPA PA 15001-1432
PENN COAL COMPANY,CORPORATION,PA,,,,,,,,617052,,,"P.O. BOX 626, DECATUR TWP. PHILIPSBURG PA 16866-0 CENTRE",
BERKS-LEHIGH C.B. EMERGENCY ASSOCIATION,NONPROFIT,NAN,,,,PA,206 NORTH 6TH STREET,READING,,617053,,,206 NORTH 6TH STREET READING PA 19601-0 BERKS,
"WEST HILLS STUDIOS, INC.",CORPORATION,NAN,1020 BEERS SCHOL RD,CORAOPOLIS,,PA 15108-0 ALLEGHENY,1088 BEERS SCHOOL RD,PITTSBURGH,,617054,GLENN PRZYBORSKI,SECRETARY,1088 BEERS SCHOOL RD PITTSBURGH PA 15108-0 ALLEGHENY,1020 BEERS SCHOL RD CORAOPOLIS PA 15108-02
"U.I.C.S., INC.",CORPORATION,NAN,,,,PA 15209-0 ALLEGHENY,311 GRANT AVE.,PITTSBURGH,,617055,,,311 GRANT AVE. PITTSBURGH PA 15209-0 ALLEGHENY,
"NU-ENERGY SYSTEMS, INC.",CORPORATION,NAN,,,,PA 15237-0 ALLEGHENY,3450 BABCOCK BLVD.,PITTSBURGH,,617056,,,3450 BABCOCK BLVD. PITTSBURGH PA 15237-0 ALLEGHENY,
"SUNWALL, INC.",CORPORATION,NAN,,,,PA 15229-0 ALLEGHENY,113 SNOWDEN DRIVE,PITTSBURGH,,617057,,,113 SNOWDEN DRIVE PITTSBURGH PA 15229-0 ALLEGHENY,
"R.S.V.P. CARD AND GIFT SHOP, INC.",CORPORATION,NAN,,,,PA 19115-0 PHILADELPHIA,1916 WELSH RD,PHILA,,617059,,,1916 WELSH RD PHILA PA 19115-0 PHILADELPHIA,
"RC KITCHENS, INC.",CORPORATION,NAN,,,,PA 17011-0 CUMBERLAND,1721 HUMMEL AVE,CAMP HILL,,617060,,,1721 HUMMEL AVE CAMP HILL PA 17011-0 CUMBERLAND,
ALLAN STUART INC.,CORPORATION,NAN,,,,,,,,617062,,,"COMMERCE BLDG., SECOND & PINE STREET HARRISBURG PA 17101-0 DAUPHIN",
"CHILLISQUAQUE DEVELOPMENT CO., INC.",CORPORATION,NAN,,,,PA 17821-0 MONTOUR,"BOX 68, R.D. #3",DANVILLE,,617063,,,"BOX 68, R.D. #3 DANVILLE PA 17821-0 MONTOUR",
"SPISAK, WILLIAM M. INC.",CORPORATION,NAN,1216 GREENSBURG RD,NEW KENSINGTON,,PA,1216 GREENSBURG RD,NEW KENSINGTON,,617064,WILLIAM M SPISAK,PRESIDENT,1216 GREENSBURG RD NEW KENSINGTON PA 0 -0 WESTMORELAND,1216 GREENSBURG RD NEW KENSINGTON PA 15068-65
"FIFE & DRUM PRODUCTIONS, INC.",CORPORATION,NAN,,,,PA 19087-0 DELAWARE,130 W. LANCASTER AVE,WAYNE,,617065,,,130 W. LANCASTER AVE WAYNE PA 19087-0 DELAWARE,
"HENNEMUTH, GUY INC.",CORPORATION,NAN,,,,PA 15057-0 ALLEGHENY,"RD#1, BOX 44",MCDONALD,,617066,,,"RD#1, BOX 44 MCDONALD PA 15057-0 ALLEGHENY",
"MAUK, W. E. CORPORATION",CORPORATION,NAN,RTE 3 BOX 210,DU BOIS,,PA 15801-0 CLEARFIELD,"PO BOX 102, 41 E. SCRIBNER AVE.",DUBOIS,,617067,WILLIAM E MAUK,TREASURER,"PO BOX 102, 41 E. SCRIBNER AVE. DUBOIS PA 15801-0 CLEARFIELD",RTE 3 BOX 210 DU BOIS PA 15801-17
NORMRO CORPORATION,CORPORATION,NAN,,,,PA 15215-0 ALLEGHENY,"BOX 7739, 1734 MAIN ST",PITTSBURGH,,617068,,,"BOX 7739, 1734 MAIN ST PITTSBURGH PA 15215-0 ALLEGHENY",
"MARK MILLER CONSTRUCTION, INC.",CORPORATION,PA,2187 KRING ST,JOHNSTOWN,,PA 15904-0 CAMBRIA,433 EISENHOWER BLVD,JOHNSTOWN,,617069,MARK MILLEN SR,TREASURER,433 EISENHOWER BLVD JOHNSTOWN PA 15904-0 CAMBRIA,2187 KRING ST JOHNSTOWN PA 15905-6905
"EDUCATIONAL INNOVATIONS, INC.",CORPORATION,PA,,,,PA,"4000 GYPSY LANE, UNIT 242",PHILADELPHIA,19129,617070,,,"4000 GYPSY LANE, UNIT 242 PHILADELPHIA PA 19129 PHILADELPHIA",
"BEDA, INC.",CORPORATION,NAN,538 SPRUCE ST,SCRANTON,,PA 18503-0 LACKAWANNA,200,SCRANTON,,617071,ANTHONY J RINALDI,VICEPRESIDENT,"200 SCRANTON LIFE BLDG, SPRUCE STREET SCRANTON PA 18503-0 LACKAWANNA",538 SPRUCE ST SCRANTON PA 18503-1845
DELTABURGH HOUSE CORPORATION,NONPROFIT,NAN,,,,PA 19128-0 PHILADELPHIA,8201 HENRY AVE. I-12,PHILA,,617072,,,8201 HENRY AVE. I-12 PHILA PA 19128-0 PHILADELPHIA,
"ROCKLAND, INC.",CORPORATION,PA,152 WEBER LN,BEDFORD,,,,,,617073,SAMUEL J PRATT,PRESIDENT,152 WEBER LANE BEDFORD INDUSTRIAL PARK BEDFORD PA 15522-0 BEDFORD,152 WEBER LN BEDFORD PA 15522-7782
HAGENDORF RUBBISH REMOVAL INC.,CORPORATION,NAN,,,,PA 19137-0 PHILADELPHIA,3958 RICHMOND ST,PHILADELPHIA,,617074,,,3958 RICHMOND ST PHILADELPHIA PA 19137-0 PHILADELPHIA,
J R J ENTERPRISES INC.,CORPORATION,NAN,,,,PA 15217-0 ALLEGHENY,4227 MURRAY AVE,PITTSBURGH,,617075,,,4227 MURRAY AVE PITTSBURGH PA 15217-0 ALLEGHENY,
"JACK O' DIAMONDS, INC.",CORPORATION,NAN,,,,PA 15224-0 ALLEGHENY,4114 MAIN ST,PITTSBURGH,,617076,,,4114 MAIN ST PITTSBURGH PA 15224-0 ALLEGHENY,
ROLET INC.,CORPORATION,NAN,,,,PA 19082-0 DELAWARE,6501 MARKET ST.,UPPER DARBY,,617077,,,6501 MARKET ST. UPPER DARBY PA 19082-0 DELAWARE,
CELLUCAP INTERNATIONAL SALES CORP.,CORPORATION,NAN,4626 N 15TH ST,PHILADELPHIA,,PA 19140-0 PHILADELPHIA,4626 NORTH 15TH ST.,PHILADELPHIA,,617078,JANE G WAGENFELD,PRESIDENT,4626 NORTH 15TH ST. PHILADELPHIA PA 19140-0 PHILADELPHIA,4626 N 15TH ST PHILADELPHIA PA 19140-51
"8138 CAPRICORN LOUNGE, INC.",CORPORATION,NAN,,,,PA 19152-0 PHILADELPHIA,8138 BUSTLETON AVE.,PHILADELPHIA,,617079,,,8138 BUSTLETON AVE. PHILADELPHIA PA 19152-0 PHILADELPHIA,
SOJOURNER FOUNDATION,NONPROFIT,NAN,,,,PA 19108-0 PHILADELPHIA,"SUITE 740, 401 N. BROAD ST.",PHILA,,617080,,,"SUITE 740, 401 N. BROAD ST. PHILA PA 19108-0 PHILADELPHIA",
"THORNTON, THOMAS ENTERPRISES, INC.",CORPORATION,NAN,,,,PA,52 MAIN ST.,EAST GREENVILLE,,617081,,,52 MAIN ST. EAST GREENVILLE PA 18041-0 BUCKS,
"VOLPE ROOFING, INC.",CORPORATION,PA,2449 SCHLOSSER RD,HARLEYSVILLE,19454,PA,217 CHURCH RD,NORTH WALES,19454,617082,JANET VOLPE,SECRETARY,217 CHURCH RD NORTH WALES PA 19454 MONTGOMERY,2449 SCHLOSSER RD HARLEYSVILLE PA 19438-3132
COSTA BROS. INC.,CORPORATION,NAN,,,,PA 15206-0 ALLEGHENY,551 LARIMER AVE,PITTSBURGH,,617083,,,551 LARIMER AVE PITTSBURGH PA 15206-0 ALLEGHENY,
OILSAVER LTD.,CORPORATION,NAN,,,,PA 19063-0 DELAWARE,215 WEST BAKER ST,MEDIA,,617084,,,215 WEST BAKER ST MEDIA PA 19063-0 DELAWARE,
"TRIPLE NET INVESTMENTS XXIV, L.P.",PARTNERSHIP,PA,171 RTE 173 STE 201,ASBURY,18017,PA,22 S COMMERCE WAY STE 7,BETHLEHEM,18017,617085,C-ROC LLC,GENPARTNER,22 S COMMERCE WAY STE 7 BETHLEHEM PA 18017 NORTHAMPTON,171 RTE 173 STE 201 ASBURY NJ 08802
"RICHARD I. BIXLER HOME REMODELING, INC.",CORPORATION,NAN,,,,PA 15401-0 FAYETTE,43 JANE ST.,UNIONTOWN,,617086,,,43 JANE ST. UNIONTOWN PA 15401-0 FAYETTE,
"SHIRON ASSOCIATES, INC.",CORPORATION,PA,,,,,,,,617087,,,"STE 102, NESHAMINY PLAZA BRISTOL PIKE & STREET RD. CORNWELLS HEIGHTS PA 19020-0 BUCKS",
"BIG RUN FREE MILITIA ASSOCIATES, INC.",NONPROFIT,PA,,,,PA 15715-0 JEFFERSON,420 EAST MAIN STREET PO BOX 173,BIG RUN,,617088,,,420 EAST MAIN STREET PO BOX 173 BIG RUN PA 15715-0 JEFFERSON,
FIRST REDLEY SQUARE CORPORATION (PROTEST),CORPORATION,NAN,,,,PA 19405-0 MONTGOMERY,3RD & MERION STS,BRIDGEPORT,,617089,,,3RD & MERION STS BRIDGEPORT PA 19405-0 MONTGOMERY,
"BOB KIEFFER & SON, INC.",CORPORATION,NAN,,,,PA 18017-0 NORTHAMPTON,534 WASHINGTON AVE,BETHLEHEM,,617090,,,534 WASHINGTON AVE BETHLEHEM PA 18017-0 NORTHAMPTON,
"E. L. NORMAN & CO., INC.",CORPORATION,NAN,,,,PA 19107-0 PHILADELPHIA,"1321 ARCH ST., STE 300",PHILA,,617091,,,"1321 ARCH ST., STE 300 PHILA PA 19107-0 PHILADELPHIA",
"JERON MANUFACTURING, INC.",CORPORATION,NAN,,,,PA,83 BUSTLETON PIKE,FEASTERVILLE,,617093,,,83 BUSTLETON PIKE FEASTERVILLE PA 19047-0 BUCKS,
"VICTOR PLANNED COMMUNITIES, INC.",CORPORATION,NAN,,,,PA 15216-0 ALLEGHENY,1308 ALTON ST,PITTSBURGH,,617094,,,1308 ALTON ST PITTSBURGH PA 15216-0 ALLEGHENY,
DB REAL ESTATE ASSETS II LLC,LLC,DE,,,,,,,,617095,,,%CORPORATION SERVICE COMPANY DAUPHIN,
"MR. PHOTO, INC.",CORPORATION,NAN,,,,PA 19111-0 PHILADELPHIA,111 BLAKE AVENUE,ROCKLEDGE,,617096,,,111 BLAKE AVENUE ROCKLEDGE PA 19111-0 PHILADELPHIA,
SAN REMO INC.,CORPORATION,PA,RR 2 BOX 490,THOMASVILLE,,PA,856 EAST MARKET STREET,YORK,,617097,RAYMOND CALDERONE,PRESIDENT,856 EAST MARKET STREET YORK PA 0 -0 YORK,RR 2 BOX 490 THOMASVILLE PA 17364-67
"THRIFTAIR, INCORPORATED",CORPORATION,NAN,,,,PA,230 WOOLSTON DR,MORRISVILLE,,617098,,,230 WOOLSTON DR MORRISVILLE PA 19067-0 BUCKS,
"FRAZIER, BEN CONTRACTOR, INC.",CORPORATION,NAN,,,,PA 19139-0 PHILADELPHIA,5210 WALNUT ST,PHILA,,617100,,,5210 WALNUT ST PHILA PA 19139-0 PHILADELPHIA,
"JUNOD, JIM WOMEN'S LEAGUE",NONPROFIT,NAN,,,,PA 19154-0 PHILADELPHIA,203 HICKORY HILL ROAD,PHILA,,617101,,,203 HICKORY HILL ROAD PHILA PA 19154-0 PHILADELPHIA,
"CAREER UNIFORMS, INC.",CORPORATION,NAN,C/O 1461 MULBERRY LN,FAIRVIEW,,PA,2603 PARADE STREET,ERIE,,617102,ROBERT N DOBBINS,PRESIDENT,2603 PARADE STREET ERIE PA 16504-0 ERIE,C/O 1461 MULBERRY LN FAIRVIEW PA 16415-25
PHARMOP ASSOCIATES,CORPORATION,NAN,4168 GERMANTOWN AVE,PHILADELPHIA,,,,,,617103,VICTOR BAROUH,TREASURER,"1400 WESTERN SAVINGS BANK BLDG., BROAD & CHESTNUT STS. PHILA PA 19107-0 PHILADELPHIA",4168 GERMANTOWN AVE PHILADELPHIA PA 19140-2946
"BRENT INDUSTRIES, INC.",CORPORATION,PA,,,,PA 19134-0 PHILADELPHIA,2000 E WESTMORELAND ST,PHILADELPHIA,,617104,,,2000 E WESTMORELAND ST PHILADELPHIA PA 19134-0 PHILADELPHIA,
"PORTION PRODUCTS, INC.",CORPORATION,NAN,1623 PARADE ST,ERIE,,PA,1711 LIBERTY ST,ERIE,,617105,ROBERT BREAKSTONE,PRESIDENT,1711 LIBERTY ST ERIE PA 16502-0 ERIE,1623 PARADE ST ERIE PA 16503-25
"ROCKY GLEN FOOD ASSOCIATES, INCORPORATED",CORPORATION,NAN,,,,PA 18507-0 LACKAWANNA,ROCKY GLEN ROAD,MOOSIC,,617106,,,ROCKY GLEN ROAD MOOSIC PA 18507-0 LACKAWANNA,
"NORTHEAST SPORTSMEN ASSOCIATION, INC.",CORPORATION,NAN,,,,PA,"P.O. BOX 786, 501 PITTSTON AVE.",DUPONT,,617107,,,"P.O. BOX 786, 501 PITTSTON AVE. DUPONT PA 0 -0 LUZERNE",
"DUERR'S FLOWERS, INC.",CORPORATION,NAN,,,,PA 16335-0 CRAWFORD,1115 MORGAN ST.,MEADVILLE,,617108,,,1115 MORGAN ST. MEADVILLE PA 16335-0 CRAWFORD,
"YOUNG'S RIVIERA CAMP SITES, INC.",CORPORATION,PA,,,,PA 17740-0 LYCOMING,RD 4 BOX 481,JERSEY SHORE,,617109,,,RD 4 BOX 481 JERSEY SHORE PA 17740-0 LYCOMING,
"ED'S AUTO, INC.",CORPORATION,NAN,,,,,,,,617110,,,R. D. #1 LINDEN PA 17744-0 LYCOMING,
SHARON MAYOR'S COMMITTEE ON THE ARTS,NONPROFIT,NAN,,,,PA,"P.O. BOX 404, BOYLE BLDG., RM 22, 149 EA ST STATE STREET",SHARON,16146-0,617111,,,"P.O. BOX 404, BOYLE BLDG., RM 22, 149 EA ST STATE STREET SHARON PA 16146-0 MERCER",
"F.A.C. OUTLET, INC.",CORPORATION,NAN,,,,PA 19111-0 PHILADELPHIA,7217 A RISING SUN AVE,PHILADELPHIA,,617112,,,7217 A RISING SUN AVE PHILADELPHIA PA 19111-0 PHILADELPHIA,
"MAIN LINE TOBACCO, INC.",CORPORATION,NAN,PO BOX 231,WAYNE,,PA 19085-0 DELAWARE,722 LARCHWOOD ROAD,VILLANOVA,,617113,ANTHONY N RITORA,PRESIDENT,722 LARCHWOOD ROAD VILLANOVA PA 19085-0 DELAWARE,PO BOX 231 WAYNE PA 19087-23
"MERION BUILDERS, INC.",CORPORATION,NAN,,,,PA 19401-0 MONTGOMERY,617 SWEDE STREET,NORRISTOWN,,617114,,,617 SWEDE STREET NORRISTOWN PA 19401-0 MONTGOMERY,
"CAPITOL ALARM SYSTEMS, INC.",CORPORATION,NAN,,,,PA,663 HALL AVE,ST MARYS,15857-0,617115,,,663 HALL AVE ST MARYS PA 15857-0 ELK,
"PROMOTIONS UNLIMITED, INC.",CORPORATION,NAN,,,,,,,,617116,,,555 FURNACE HILLS PIKE (REAR) LITITZ PA 17543-0 LANCASTER,
"ROHE & ROHE ASSOCIATES, INC.",CORPORATION,NAN,,,,PA 17361-0 YORK,25 LEXINGTON DRIVE,SHREWSBURY,,617117,,,25 LEXINGTON DRIVE SHREWSBURY PA 17361-0 YORK,
PHILADELPHIA BUILDING TRADES COUNCIL HOUSING CORPORATION,NONPROFIT,NAN,,,,PA 19137-0 PHILADELPHIA,2535 ORTHODOX STREET,PHILADELPHIA,,617118,,,2535 ORTHODOX STREET PHILADELPHIA PA 19137-0 PHILADELPHIA,
"SCHUYLKILL FLOOR COVERING, INC.",CORPORATION,PA,,,,PA 17976-0 SCHUYLKILL,310 WEST CHERRY STREET,SHENANDOAH,,617119,,,310 WEST CHERRY STREET SHENANDOAH PA 17976-0 SCHUYLKILL,
"TRI-COUNTY PAVING CO., INC.",CORPORATION,NAN,,,,,,,,617120,,,"316 DONALDSON BLDG., GOVERNOR SPROUL APT S BROOMALL PA 19008-0 DELAWARE",
"LISTER AUTOMOTIVE, INC.",CORPORATION,NAN,3 E DUTTON MILL RD,ASTON,,PA 19013-0 DELAWARE,143 CON,CHESTER,,617121,ROBERT LISTER III,PRESIDENT,143 CONCHESTER HIGHWAY CHESTER PA 19013-0 DELAWARE,3 E DUTTON MILL RD ASTON PA 19014-23
ENVIRONMENTAL MINING COMPANY,CORPORATION,NAN,,,,PA 19025-0 MONTGOMERY,3365 SUSQUEHANNA RD,DRESHER,,617122,,,3365 SUSQUEHANNA RD DRESHER PA 19025-0 MONTGOMERY,
"MINIT COPY OF LOWER BUCKS, INC.",CORPORATION,NAN,,,,,,,,617123,,,"SUITE 623, 4 PENN CENTER PLAZA PHILA PA 19103-0 PHILADELPHIA",
"HISTORIC GETTYSBURG-ADAMS COUNTY, INC.",NONPROFIT,NAN,,,,PA,104 BALTIMORE ST.,GETTYSBURG,,617124,,,104 BALTIMORE ST. GETTYSBURG PA 17325-0 ADAMS,
"CITIZEN KANE, INC.",CORPORATION,NAN,,,,PA 18704-0 LUZERNE,40 YATES ST,FORTY FORT,,617125,,,40 YATES ST FORTY FORT PA 18704-0 LUZERNE,
STONE MANSE CHRISTIAN CRUSADE CHURCH,NONPROFIT,NAN,,,,PA 16142-0 LAWRENCE,"BOX 38, RD #1",NEW WILMINGTON,,617126,,,"BOX 38, RD #1 NEW WILMINGTON PA 16142-0 LAWRENCE",
"K V, INC.",CORPORATION,NAN,,,,PA 19046-0 MONTGOMERY,420 BENSON EAST,JENKINTOWN,,617127,MARIA WILHELM,TREASURER,420 BENSON EAST JENKINTOWN PA 19046-0 MONTGOMERY,
"ELECTRO-GLASS PRODUCTS, INC.",CORPORATION,NAN,PO BOX 157,MAMMOTH,,,,,,617128,WENDY R KOCH,TREASURER,"P.O. BOX 157, MT PLEASANT TWP, WESTMOREL AND CO. PA. RTE. 982 MAMMOTH PA 15664-0 WESTMORELAND",PO BOX 157 MAMMOTH PA 15664-0157
"RR3, LLC",LLC,PA,,,,PA,RR3 BOX 3067B CRANBERRY CT.,NORTH EAST STROUDSBURG,18301,617129,,,RR3 BOX 3067B CRANBERRY CT. NORTH EAST STROUDSBURG PA 18301 MONROE,
BENJAMIN'S PHARMACY INC.,CORPORATION,NAN,316 6TH ST PO BOX 751,ELLWOOD CITY,,PA 16117-0 LAWRENCE,701 LAWRENCE AVE,ELLWOOD CITY,,617130,ANDREW F KINDLE,PRESIDENT,701 LAWRENCE AVE ELLWOOD CITY PA 16117-0 LAWRENCE,316 6TH ST PO BOX 751 ELLWOOD CITY PA 16117-37
"THE STEREO HOUSE, INC.",CORPORATION,NAN,,,,PA 17701-0 LYCOMING,906 PENN ST,WILLIAMSPORT,,617131,,,906 PENN ST WILLIAMSPORT PA 17701-0 LYCOMING,
"PENNSYLVANIA PERSONAL CARE, INC.",CORPORATION,PA,,,,PA 19145-0 PHILADELPHIA,1425-29 SNYDER AVENUE,PHILADELPHIA,,617133,,,1425-29 SNYDER AVENUE PHILADELPHIA PA 19145-0 PHILADELPHIA,
"TRIMM GLASS COMPANY, INC.",CORPORATION,NAN,316,MEDIA,,PA 19063-0 DELAWARE,609 W. STATE ST.,MEDIA,,617134,STEVEN M WHITMORE,SECRETARY,609 W. STATE ST. MEDIA PA 19063-0 DELAWARE,316 MEDIA STATION RD MEDIA PA 19063-4753
"H & H DELICATESSENS, INC.",CORPORATION,NAN,,,,,,,,617135,,,81 MORRISVILLE SHOPPING CENTER MORRISVILLE PA 0 -0 BUCKS,
FLAG CONTRACTING CO.,CORPORATION,NAN,PO BOX 1042,BALA-CYNWYD,,PA 19115-0 PHILADELPHIA,9409 HILSPACH STREET,PHILADELPHIA,,617136,JOSEPH GALLAGHER,PRESIDENT,9409 HILSPACH STREET PHILADELPHIA PA 19115-0 PHILADELPHIA,PO BOX 1042 BALA-CYNWYD PA 19004-46
"FREELAND, INC.",CORPORATION,NAN,,,,PA 19134-0 PHILADELPHIA,258 E ONTARIO ST,PHILA,,617137,,,258 E ONTARIO ST PHILA PA 19134-0 PHILADELPHIA,
"PYRAMID PLASTICS, LTD.",CORPORATION,PA,5533 PROGRESS BLVD,BETHEL PARK,,PA 15102-0 ALLEGHENY,5533 PROGRESS BLVD,BETHEL PARK,,617138,PATRICIA FREUDEN,TREASURER,5533 PROGRESS BLVD BETHEL PARK PA 15102-0 ALLEGHENY,5533 PROGRESS BLVD BETHEL PARK PA 15102-2564
"PORTLAND READY-MIX, INC.",CORPORATION,PA,,,,PA 18343-0 NORTHAMPTON,"PO BOX 207,",JACOBY RD MOUNT BETHEL,,617139,,,"PO BOX 207, JACOBY RD MOUNT BETHEL PA 18343-0 NORTHAMPTON",
ALLEGHENY LEAGUE OF MUNICIPALITIES INSTITUTE,NONPROFIT,PA,,,,PA,REGIONAL ENTERPRISE TOWER 425 SIXTH AVENUE SUITE 2710,PITTSBURGH,15219,617140,,,REGIONAL ENTERPRISE TOWER 425 SIXTH AVENUE SUITE 2710 PITTSBURGH PA 15219 ALLEGHENY,
AVANTI INDUSTRIES OF PENNSYLVANIA LTD.,CORPORATION,NAN,,,,,,,,617141,,,"123 S BROAD ST, C/O C T CORP SYSTEM PHILADELPHIA PA 19109-0 PHILADELPHIA",
"MARTINEZ GROCERY CO., INC.",CORPORATION,PA,,,,PA 19123-0 PHILADELPHIA,513 WEST GIRARD AVE,PHILADELPIA,,617142,,,513 WEST GIRARD AVE PHILADELPIA PA 19123-0 PHILADELPHIA,
RACEWAY PLAZA II 2006 LIMITED PARTNERSHIP,PARTNERSHIP,PA,500 GRANT ST SUITE 2000,PITTSBURGH,15219,PA,"ONE MELLON BANK CENTER 500 GRANT ST., SUITE 2000",PITTSBURGH,15219,617145,"RACEWAY PLAZA II 2010, LLC",GENPARTNER,"ONE MELLON BANK CENTER 500 GRANT ST., SUITE 2000 PITTSBURGH PA 15219 ALLEGHENY",500 GRANT ST SUITE 2000 PITTSBURGH PA 15219
BRISTOL HILLS CONSTRUCTION COMPANY,CORPORATION,PA,,,,PA,1352 EASTON ROAD,WARRINGTON,,617146,,,1352 EASTON ROAD WARRINGTON PA 18976-0 BUCKS,
"NOLAMI, LLC",LLC,PA,,,,,,,,617147,,,%CORPORATION SERVICE COMPANY DAUPHIN,
"LEISENRING ASSOCIATES, INC.",CORPORATION,NAN,991 SILVER LAKE RD,LEWISBERRY,,PA,RD #3,MILLERSTOWN,,617148,SCOT LEISENRING,VICEPRESIDENT,RD #3 MILLERSTOWN PA 17062-0 PERRY,991 SILVER LAKE RD LEWISBERRY PA 17339-9117
W. A. BUTLER COMPANY,CORPORATION,OH,400 METRO PL,NWA BUTLER COMPANY DUBLIN,,,,,,617150,SALLY B BAKER,SECRETARY,%CORPORATION SERVICE COMPANY DAUPHIN,400 METRO PL NWA BUTLER COMPANY DUBLIN OH 43017-3378
"HUNTZINGER HEATING OIL, INC.",CORPORATION,NAN,,,,PA,128 W. BROAD ST.,SHILLINGTON,,617152,,,128 W. BROAD ST. SHILLINGTON PA 19607-0 BERKS,
"JUHASZ INDUSTRIES, INC.",CORPORATION,NAN,4032 DOMINION DR,ERIE,,PA,4039 RICE AVE.,ERIE,,617153,FRANK JUHASZ,PRESIDENT,4039 RICE AVE. ERIE PA 16510-0 ERIE,4032 DOMINION DR ERIE PA 16510-3262
"RUFFLES & TRUFFLES, LLC",LLC,PA,,,,,,,,617155,,,%CORPORATION SERVICE COMPANY DAUPHIN,
"DONALD J. BRADY D.D.S., P.C.",CORPORATION,NAN,C/O R E KREIDER CPA PO BOX 112,PALMYRA,,PA 17033-0 DAUPHIN,153 CEDAR AVE,HERSHEY,,617156,DONALD J BRADY,PRESIDENT,153 CEDAR AVE HERSHEY PA 17033-0 DAUPHIN,C/O R E KREIDER CPA PO BOX 112 PALMYRA PA 17078-38
"COMPUTERVISION R&D, INC.",CORPORATION,DE,,,,PA 19103-0 PHILADELPHIA,C/O C T CORPORATION SYSTEM 1635 MARKET STREET,PHILADELPHIA,,617157,,,C/O C T CORPORATION SYSTEM 1635 MARKET STREET PHILADELPHIA PA 19103-0 PHILADELPHIA,
"MCCOY FOOD MANAGEMENT, INC.",CORPORATION,NAN,,,,PA,1701 FARRAGUT AVE,BRISTOL,,617158,,,1701 FARRAGUT AVE BRISTOL PA 19007-0 BUCKS,
"MECHANICAL PRODUCTS, INC.",CORPORATION,NAN,,,,,,,,617160,,,"R.D.#2, DEERPATH KENNETH SQUARE PA 19348-0 CHESTER",
"NEW CAROUSEL, INC.",CORPORATION,NJ,5 STATION RD,SOMERVILLE,,PA 17967-0 SCHUYLKILL,"RR 1, BOX 362",RINGTOWN,,617161,THOMAS NUNAMACHER,SECRETARY,"RR 1, BOX 362 RINGTOWN PA 17967-0 SCHUYLKILL",5 STATION RD SOMERVILLE NJ 08876
LVMH FRAGRANCE BRANDS US LLC,LLC,DE,,,,,,,,617162,,,%CORPORATION SERVICE COMPANY DAUPHIN,
COMPASS REALTY CO,CORPORATION,PA,28 S WATERLOO RD,DEVON,,,,,,617163,MAUREEN RIESER,SECRETARY,600 CLARK AVE PO BOX 426 KING OF PRUSSIA PA 19406-0 MONTGOMERY,28 S WATERLOO RD DEVON PA 19333-1574
"THE GALE CONTRACTING COMPANY, LLC",LLC,DE,,,,,,,,617164,,,%CORPORATION SERVICE COMPANY DAUPHIN,
"FLOYD K. ALDERFER & SONS, INC.",CORPORATION,NAN,841 ARROWHEAD LN,HARLEYSVILLE,,PA 19438-0 MONTGOMERY,492 MAIN ST,HARLEYSVILLE,,617165,KEITH ALDERFER,TREASURER,492 MAIN ST HARLEYSVILLE PA 19438-0 MONTGOMERY,841 ARROWHEAD LN HARLEYSVILLE PA 19438-2141
"HOUSE OF CRAFTS, INC.",CORPORATION,NAN,,,,PA,ROUTE 940,POCONO LAKE,18347-0,617166,,,ROUTE 940 POCONO LAKE PA 18347-0 MONROE,
SCHUYLKILL CHURCH OF THE BRETHREN,NONPROFIT,PA,347 SWEET ARROW LAKE ROAD PINE GROVE,FURNACE,,,,,,617167,ROBERT SCHAEFFER,OTHER,R D 2 PINE GROVE PA 0 -0 SCHUYLKILL,347 SWEET ARROW LAKE ROAD PINE GROVE FURNACE PA 17963
"FRANKLIN BRANCH LINE 1012, INC.",NONPROFIT,NAN,,,,PA 18702-0 LUZERNE,85 W UNION ST,WILKES-BARRE,,617168,,,85 W UNION ST WILKES-BARRE PA 18702-0 LUZERNE,
"UNITY GOLDEN AGE CLUB, INC.",NONPROFIT,PA,,,,PA,215 UNITY TRESTLE RD,PITTSBURGH,15239,617169,,,215 UNITY TRESTLE RD PITTSBURGH PA 15239 ALLEGHENY,
"FORMCRAFT SYSTEMS, INC.",CORPORATION,PA,PO BOX 38010,CHARLESTON,,PA 15213-0 ALLEGHENY,340 FORBES AVE.,PITTSBURGH,,617170,NANCY B SLIWA,SECRETARY,340 FORBES AVE. PITTSBURGH PA 15213-0 ALLEGHENY,PO BOX 38010 CHARLESTON SC 29407
"DITTO, J. R. CO., INC.",CORPORATION,NAN,,,,,,,,617171,,,923 UNITED PENN BANK BLDG WILKES-BARRE PA 18701-0 LUZERNE,
"A. & B. CRAFTS, INC.",CORPORATION,NAN,,,,PA 19087-0 DELAWARE,124 W. LANCASTER AVE.,WAYNE,,617172,,,124 W. LANCASTER AVE. WAYNE PA 19087-0 DELAWARE,
WESTOVER HARBOR ASSOC. OF OWNERS,NONPROFIT,NAN,,,,,,,,617173,,,24 WOODSTREAM DR #1 JEFFERSONVILLE PA 19403-0 MONTGOMERY,
"HEILMANS, INC.",CORPORATION,NAN,7360 ESTERO BLVD,CONDO C-303 FT MYERS,18103-0,PA,R.D. #3 GRAMMES LANE,ALLENTOWN,18103-0,617175,R HEILMAN,PRESIDENT,R.D. #3 GRAMMES LANE ALLENTOWN PA 18103-0 LEHIGH,7360 ESTERO BLVD CONDO C-303 FT MYERS FL 33931
"D'ACCORD, INC.",CORPORATION,NAN,,,,,,,,617176,,,LOVELL PARK EBENSBURG PA 15931-0 CAMBRIA,
"CHARLE & MARIA, INC.",CORPORATION,NAN,,,,PA 19026-0 DELAWARE,3703 GARRETT ROAD,DREXEL HILL,,617177,,,3703 GARRETT ROAD DREXEL HILL PA 19026-0 DELAWARE,
ACU-STAPLE BY LISA LLC.,LLC,PA,,,,PA,97 CAMPBELL ROAD,BROCKWAY,15824,617178,,,97 CAMPBELL ROAD BROCKWAY PA 15824 JEFFERSON,
FLOWER BASKET INC.,CORPORATION,PA,,,,PA 19008-0 DELAWARE,2204 WEST CHESTER PIKE,BROOMALL,,617179,,,2204 WEST CHESTER PIKE BROOMALL PA 19008-0 DELAWARE,
ACE AMUSEMENT COMPANY,CORPORATION,PA,417 SNITHFIELD STREET,PITTSBURGH,,PA 15222-0 ALLEGHENY,811 LIBERTY AVE.,PITTSBURGH,,617180,DEBORAH DOUCETTE,PRESIDENT,811 LIBERTY AVE. PITTSBURGH PA 15222-0 ALLEGHENY,417 SNITHFIELD STREET PITTSBURGH PA 15122
"SOUTH OF THE BORDER, INC.",CORPORATION,NAN,,,,PA 18840-0 BRADFORD,115 SPRING ST,SAYRE,,617181,,,115 SPRING ST SAYRE PA 18840-0 BRADFORD,
REALTY CORPORATION OF AMERICA,CORPORATION,NAN,PO BOX 70,MOUNT POCONO,,PA,551 THOMAS STREET,STROUDSBURG,,617182,JACOB E SEIP,PRESIDENT,551 THOMAS STREET STROUDSBURG PA 0 -0 MONROE,PO BOX 70 MOUNT POCONO PA 18344-0070
"MEDICAL DIAGNOSTIC SERVICES, INC.",CORPORATION,NAN,,,,PA 19041-0 MONTGOMERY,532 COLLEGE AVE,HAVERFORD,,617183,,,532 COLLEGE AVE HAVERFORD PA 19041-0 MONTGOMERY,
"ENCOUNTERS, INC.",CORPORATION,PA,,,,PA 19446-0 MONTGOMERY,902 JAMESTOWN DR,LANSDALE,,617184,,,902 JAMESTOWN DR LANSDALE PA 19446-0 MONTGOMERY,
"ANCHOR REAL ESTATE, INC.",CORPORATION,NAN,,,,PA 15530-0 SOMERSET,"P.O. BOX 185, MAIN STREET",BERLIN,,617186,,,"P.O. BOX 185, MAIN STREET BERLIN PA 15530-0 SOMERSET",
GREAT-PHILLY RECORDS INC.,CORPORATION,NAN,,,,PA 19102-0 PHILADELPHIA,"STE 1815, 1405 LOCUST ST",PHILA,,617187,,,"STE 1815, 1405 LOCUST ST PHILA PA 19102-0 PHILADELPHIA",
"LAFLIN TRUCK SERVICE, INC.",CORPORATION,PA,525 E MAIN ST,WILKES BARRE,,PA 18705-0 LYCOMING,525 E MAIN,ST PLAINS WILKES-BARRE,,617188,NELSON W FEY,VICEPRESIDENT,525 E MAIN ST PLAINS WILKES-BARRE PA 18705-0 LYCOMING,525 E MAIN ST WILKES BARRE PA 18702-6944
"HEALTH SYSTEMS AGENCY OF NORTHEAST PENNSYLVANIA, INC.",NONPROFIT,NAN,,,,PA 18702-0 LUZERNE,85 W. UNION ST.,WILKES-BARRE,,617189,,,85 W. UNION ST. WILKES-BARRE PA 18702-0 LUZERNE,
"MARKEY ELECTRIC, INC.",CORPORATION,NAN,,,,PA 17313-0 YORK,R.D. #2,DALLASTOWN,,617190,,,R.D. #2 DALLASTOWN PA 17313-0 YORK,
HUMBERT CONSTRUCTION INC.,CORPORATION,NAN,,,,PA,26 BROADLEAF RD.,LEVITTOWN,,617191,,,26 BROADLEAF RD. LEVITTOWN PA 19057-0 BUCKS,
RAY WETZEL INC.,CORPORATION,NAN,,,,,,,,617192,,,1320 GRANT BLDG PITTSBURGH PA 15219-0 ALLEGHENY,
"PA-MEA, INC.",CORPORATION,NAN,1728 BRINTON AVE,BRADDOCK,,,,,,617193,THOMAS W ROSS,VICEPRESIDENT,1806 LAW & FINANCE BLDG PITTSBURGH PA 15219-0 ALLEGHENY,1728 BRINTON AVE BRADDOCK PA 15104-02
"MUSTANG CONSTRUCTION CO., INC.",CORPORATION,NAN,,,,PA 15681-0 INDIANA,R.D. #2,SALTSBURG,,617194,,,R.D. #2 SALTSBURG PA 15681-0 INDIANA,
"MEN AGAINST RAPE OF DELAWARE COUNTY, INC.",NONPROFIT,NAN,,,,PA 19063-0 DELAWARE,302 S. JACKSON ST,MEDIA,,617195,,,302 S. JACKSON ST MEDIA PA 19063-0 DELAWARE,
"MURRY, H. L. DRILLING COMPANY",CORPORATION,NAN,,,,PA,75 SULLIVAN RD,BRADFORD,16701-0,617196,,,75 SULLIVAN RD BRADFORD PA 16701-0 MCKEAN,
"THE BOARDWALK, INC.",CORPORATION,PA,,,,PA 15234-0 ALLEGHENY,415 MT. LEBANON BLVD,PITTSBURGH,,617197,,,415 MT. LEBANON BLVD PITTSBURGH PA 15234-0 ALLEGHENY,
"STONE ENTERPRISES, INC.",CORPORATION,NAN,12 STONERIDGE DR,NEW FREEDOM,,PA 17349-0 YORK,12 STONERIDGE DR,NEW FREEDOM,,617199,THOMAS S SUMMERS,VICEPRESIDENT,12 STONERIDGE DR NEW FREEDOM PA 17349-0 YORK,12 STONERIDGE DR NEW FREEDOM PA 17349-67
"G. B. HABBERSETT, LTD.",CORPORATION,PA,,,,PA 19380-0 CHESTER,500 LUCKY HILL RD,WEST CHESTER,,617200,,,500 LUCKY HILL RD WEST CHESTER PA 19380-0 CHESTER,
AMERICAN STORES COMPANY,CORPORATION,DE,,,,,,,,617201,PAUL G ROWAN,PRESIDENT,%CT CORPORATION SYSTEM DAUPHIN,CORP TAX DEPT 70428PO BOX 20 BOISE ID 83726-0020
"AANDD, INC.",CORPORATION,NAN,,,,,,,,617205,,,1300 TWO PENN CENTER PLAZA PHILA PA 19102-0 PHILADELPHIA,
DARA ELECTRONICS INC.,CORPORATION,NAN,721 E MAIN ST,MAPLE SHADE,,,,,,617206,GEORGE FLETCHER,PRESIDENT,1300 TWO PENN CENTER PLAZA PHILADELPHIA PA 19102-0 PHILADELPHIA,721 E MAIN ST MAPLE SHADE NJ 08052-1311
"ALCHEMY, INC.",CORPORATION,PA,,,,,,,,617207,,,HENNING RD PERKIOMENVILLE PA 18074-0 MONTGOMERY,
"I & S GROSSTOWN ROAD, INC.",CORPORATION,NAN,,,,,,,,617208,,,"20 THOMAS OAKS DR, COVENTRY FARMS POTTSTOWN PA 19464-0 CHESTER",
"TRI-OAKS, INC.",CORPORATION,NAN,,,,PA 15601-0 WESTMORELAND,525 KETTERING ST.,GREENSBURG,,617209,,,525 KETTERING ST. GREENSBURG PA 15601-0 WESTMORELAND,
"7 STARS CHINESE RESTAURANT, INC.",CORPORATION,NAN,1205 CHESTER PIKE,SHARON HILL,,PA 19013-0 DELAWARE,1205 CHESTER PIKE,SHARON HILL,,617210,TAT L SUEN,PRESIDENT,1205 CHESTER PIKE SHARON HILL PA 19013-0 DELAWARE,1205 CHESTER PIKE SHARON HILL PA 19079-23
"BATTERY SYSTEMS, INC.",CORPORATION,PA,303 CHERRY HILL DR,PRESTO,,PA 19102-0 ALLEGHENY,C/O C T CORP SYSTEM 1515 MARKET ST STE 1210,PHILA,,617211,TERRY BROADDRICK,PRESIDENT,C/O C T CORP SYSTEM 1515 MARKET ST STE 1210 PHILA PA 19102-0 ALLEGHENY,303 CHERRY HILL DR PRESTO PA 15142-1094
"SUNSET HOMES, INCORPORATED",CORPORATION,NAN,,,,PA,"BOX 227, ROUTE 423",MOUNT POCONO,,617212,,,"BOX 227, ROUTE 423 MOUNT POCONO PA 0 -0 MONROE",
JUNIATA REALTY PARTNERS (LIMITED PARTNERSHIP),PARTNERSHIP,NAN,,,,PA 15221-0 ALLEGHENY,1717 PENN AVE,WILKINSBURG,,617213,J DONALD MCKINNEY ET AL,GENPARTNER,1717 PENN AVE WILKINSBURG PA 15221-0 ALLEGHENY,PA
POTAMKIN AUTO CORP.,CORPORATION,NAN,,,,PA,1101 S BROAD ST,PHILA,,617215,,,1101 S BROAD ST PHILA PA 0 -0 PHILADELPHIA,
STILL WATER KESEF LLC,LLC,DE,,,,,,,,617216,,,%CORPORATION SERVICE COMPANY DAUPHIN,
DELAWARE COUNTY OSTEOPATHIC MEDICAL SOCIETY,NONPROFIT,NAN,,,,PA 19063-0 DELAWARE,280 N. PROVIDENCE RD,MEDIA,,617218,,,280 N. PROVIDENCE RD MEDIA PA 19063-0 DELAWARE,
"FACTOTUM TECHNOLOGIES, INC.",CORPORATION,NAN,PO BOX 609,MONTGOMERYVL,,PA,"46 CEDAR HILL RD, PO BOX 123",CHALFONT,,617219,ROBERT BERTA,PRESIDENT,"46 CEDAR HILL RD, PO BOX 123 CHALFONT PA 18914-0 BUCKS",PO BOX 609 MONTGOMERYVL PA 18936-46
MUHLENBERG AREA JAYCEES,NONPROFIT,NAN,,,,PA,217 N. 6TH ST.,READING,,617220,,,217 N. 6TH ST. READING PA 19603-0 BERKS,
"DIXON & GAVIGAN, P.C.",CORPORATION,PA,APT 903307 S DITHRIDGE ST,PITTSBURGH,,PA 15219-0 ALLEGHENY,527 2ND AVE,PITTSBURGH,,617221,WILLIAM F GOODRICH,SECRETARY,527 2ND AVE PITTSBURGH PA 15219-0 ALLEGHENY,APT 903307 S DITHRIDGE ST PITTSBURGH PA 15213-3519
INDIAN VALLEY BICENTENNIAL COMMISSION,NONPROFIT,NAN,,,,PA 18964-0 MONTGOMERY,9 MAIN STREET,SOUDERTON,,617222,,,9 MAIN STREET SOUDERTON PA 18964-0 MONTGOMERY,
"PENNSYLVANIA SCHOOL FOR SKIN AND SCUBA, INC.",CORPORATION,NAN,,,,PA,112 E ALLEGHENY AVE,PHILADELPHIA,,617223,,,112 E ALLEGHENY AVE PHILADELPHIA PA 0 -0 PHILADELPHIA,
"RUBIN, I. INVESTMENTS, INC.",CORPORATION,NAN,,,,PA 15146-0 ALLEGHENY,"3983 WM. PENN HWY., SUITE 7",MONROEVILLE,,617224,,,"3983 WM. PENN HWY., SUITE 7 MONROEVILLE PA 15146-0 ALLEGHENY",
JOSEPH JOHN GAMBLE INC.,CORPORATION,NAN,,,,PA 19119-0 PHILADELPHIA,731 E. PHIL ELLENA ST.,PHILA,,617225,,,731 E. PHIL ELLENA ST. PHILA PA 19119-0 PHILADELPHIA,
"JOSEPH AND INSOGNA, INC.",CORPORATION,NAN,,,,PA 15235-0 ALLEGHENY,720 PARKWAY AVE,PITTSBURGH,,617228,,,720 PARKWAY AVE PITTSBURGH PA 15235-0 ALLEGHENY,
"CALEY, BRUCE ASSOCIATES, INC.",CORPORATION,NAN,,,,PA 19475-0 CHESTER,"RD #1, SAYLORS MILL RD.",SPRING CITY,,617229,,,"RD #1, SAYLORS MILL RD. SPRING CITY PA 19475-0 CHESTER",
AMERICAN REAL MORTGAGE CORP.,CORPORATION,NJ,PO BOX 5822,CLARK,19135,PA,6652 HEGGERMAN ST #4,PHILADELPHIA,19135,617230,PANKAJ PARIKA,PRESIDENT,6652 HEGGERMAN ST #4 PHILADELPHIA PA 19135 PHILADELPHIA,PO BOX 5822 CLARK NJ 07066
TH. JANSEN GMBH,CORPORATION,NAN,,,,PA 15228-0 ALLEGHENY,1699 WASHINGTON RD.,PITTSBURGH,,617234,,,1699 WASHINGTON RD. PITTSBURGH PA 15228-0 ALLEGHENY,
SOUCHUCK LUMBER AND CONSTRUCTION COMPANY,CORPORATION,NAN,622 E CENTRE ST,SHENANDOAH,,,,,,617235,THEODORE D SOUCHACK,TREASURER,"AMERICAN BANK BLDG., 4TH FLOOR POTTSVILLE PA 0 -0 SCHUYLKILL",622 E CENTRE ST SHENANDOAH PA 17976-1825
"CHARLES PRESTON AUTO SERVICE, INC.",CORPORATION,NAN,C/O MILLER & CO 7 E MARKET ST,YORK,,PA 17402-0 YORK,1777 WHITEFORD ROAD,YORK,,617237,REGINA K PRESTON,VICEPRESIDENT,1777 WHITEFORD ROAD YORK PA 17402-0 YORK,C/O MILLER & CO 7 E MARKET ST YORK PA 17401-67
"RIVERDALE CATTLE COMPANY, INC.",CORPORATION,NAN,,,,PA 19010-0 MONTGOMERY,400 NORTH ITHAN AVE,ROSEMONT,,617238,,,400 NORTH ITHAN AVE ROSEMONT PA 19010-0 MONTGOMERY,
"KEYSTONE PROPERTY MANAGEMENT, INC.",CORPORATION,PA,PO BOX 190,DALLASTOWN,,PA 17313-0 YORK,"PO BOX 164,",LOCUST STREET DALLASTOWN,,617239,RONALD D FITZ,TREASURER,"PO BOX 164, LOCUST STREET DALLASTOWN PA 17313-0 YORK",PO BOX 190 DALLASTOWN PA 17313-67
"GATEWAY ORTHOPEDIC ASSOCIATES, INC.",CORPORATION,NAN,490 E NORTH AVE 500,PITTSBURGH,,,,,,617240,E REESE OWENS,TREASURER,THE RENAISSANCE BLDG 5TH FL 933 LIBERT Y AVE PITTSBURGH PA 15222-0 ALLEGHENY,490 E NORTH AVE 500 PITTSBURGH PA 15212-02
CHRIST COMMUNITY CHURCH OF THE CHRISTIAN AND MISSIONARY ALLIANCE,NONPROFIT,PA,,,,,,,,617241,,,ROUTE 611 BOX 386 PLUMSTEAD TOWNSHIP PLUMSTEADVILLE PA 18949-0 BUCKS,
"OLD MILL RACQUET CLUB, INC.",NONPROFIT,NAN,,,,,,,,617242,,,700 UNITED PENN BANK BLDG WILKES-BARRE PA 18701-0 LUZERNE,
"REILLY & SONS, INC.",CORPORATION,PA,PO BOX 183,EXTON,,PA 19341-0 CHESTER,601 EAST LINCOLN HIGHWAY,EXTON,,617243,MARTIN REILLY,SECRETARY,601 EAST LINCOLN HIGHWAY EXTON PA 19341-0 CHESTER,PO BOX 183 EXTON PA 19341-0183
"BALLOCO, INC.",CORPORATION,PA,8 WATER ST,BROWNSVILLE,15442,PA,6027 NATIONAL PIKE,GRINDSTONE,15442,617245,PATRICK BALLON,PRESIDENT,6027 NATIONAL PIKE GRINDSTONE PA 15442 FAYETTE,8 WATER ST BROWNSVILLE PA 15417-26
SIG-FAB CO. INC.,CORPORATION,NAN,,,,PA 19063-0 DELAWARE,18 RIDGE ROAD,MEDIA,,617246,,,18 RIDGE ROAD MEDIA PA 19063-0 DELAWARE,
"ROBERTS CONSOLIDATED INDUSTRIES, INC.",CORPORATION,CA,,,,PA 19102-0 PHILADELPHIA,"UNITED STATES CORPORATION COMPANY, 225 S OUTH 15TH STREET",PHILADELPHIA,,617247,,,"UNITED STATES CORPORATION COMPANY, 225 S OUTH 15TH STREET PHILADELPHIA PA 19102-0 PHILADELPHIA",
"VIRGO DENTAL PRODUCTS, INC.",CORPORATION,NAN,,,,,,,,617248,,,"SUITE A-100, BENJAMIN FOX PAVILION JENKINTOWN PA 19046-0 MONTGOMERY",
"LANTERN DINER, INC.",CORPORATION,NAN,,,,PA,712 MONROE STREET,STROUDSBURG,18360-0,617249,,,712 MONROE STREET STROUDSBURG PA 18360-0 MONROE,
"SOUTH EAST AUTO SALES, INC.",CORPORATION,NAN,,,,PA 17602-0 LANCASTER,55 SOUTH DUKE STREET,LANCASTER,,617251,,,55 SOUTH DUKE STREET LANCASTER PA 17602-0 LANCASTER,
ZEMEX COMPANY,CORPORATION,NAN,,,,PA 15139-0 ALLEGHENY,140 PENNSYLVANIA AVE,OAKMONT,,617252,,,140 PENNSYLVANIA AVE OAKMONT PA 15139-0 ALLEGHENY,
"DORFNER, INC.",CORPORATION,NAN,24 MUIRFIELD CT,BRIDGEVILLE,,PA 15236-0 ALLEGHENY,4553 COUNTRY CLUB DR.,PITTSBURGH,,617253,WILHELM F DORFNER,TREASURER,4553 COUNTRY CLUB DR. PITTSBURGH PA 15236-0 ALLEGHENY,24 MUIRFIELD CT BRIDGEVILLE PA 15017-1073
"SWEET MANNA, INC.",NONPROFIT,NAN,,,,PA,209 W. PINE,ST. GROVE CITY,16127-0,617254,,,209 W. PINE ST. GROVE CITY PA 16127-0 MERCER,
"STOP IN, INC.",CORPORATION,NAN,,,,PA 18407-0 LACKAWANNA,321 MAIN ST.,SIMPSON,,617255,,,321 MAIN ST. SIMPSON PA 18407-0 LACKAWANNA,
LAWN BUTLER LANDSCAPING LLC,LLC,PA,,,,PA,1842 LONGVIEW DRIVE,LANCASTER,17601,617256,,,1842 LONGVIEW DRIVE LANCASTER PA 17601 LANCASTER,
THE BEE CORPORATION,CORPORATION,PA,,,,,,,,617257,,,12TH FL PACKARD BLDG 15TH & CHESTNUT STS PHILA PA 19102-0 PHILADELPHIA,
"THE PHILIP JAISOHN MEMORIAL FOUNDATION, INC.",NONPROFIT,PA,,,,,,,,617258,,,60 EAST TOWNSHIP LINE ELKINS PARK PA 19117-0 MONTGOMERY,
"AMERICAN AMBULANCE ASSOCIATES, INC.",CORPORATION,NAN,,,,PA 19136-0 PHILADELPHIA,3427 LANSING STREET,PHILADELPHIA,,617259,,,3427 LANSING STREET PHILADELPHIA PA 19136-0 PHILADELPHIA,
NORMAN H. AMSTER D.O.,CORPORATION,NAN,,,,PA,1736 HAMILTON ST,ALLENTOWN,18104-0,617260,,,1736 HAMILTON ST ALLENTOWN PA 18104-0 LEHIGH,
SOCCIA CORPORATION,CORPORATION,NAN,716 W 16,ERIE,,PA,716 W. 16TH ST.,ERIE,,617262,ANTHONY D DAURORA,PRESIDENT,716 W. 16TH ST. ERIE PA 16502-0 ERIE,716 W 16 ERIE PA 16502-25
"P H & C CONSTRUCTION, INC.",CORPORATION,NAN,9854 FRY RD,MCKEAN,,PA,"R.D. #1, FRY ROAD",MCKEAN,,617263,RALPH PARKER,PRESIDENT,"R.D. #1, FRY ROAD MCKEAN PA 16426-0 ERIE",9854 FRY RD MCKEAN PA 16426-25
"HAUG, WILLIAM A. III, D.O.",CORPORATION,NAN,1320 SUNNY AYRE WAY,LANSDALE,,PA 19401-0 MONTGOMERY,40 N. PROSPECT AVE,JEFFERSONVILLE,,617264,WILLIAM A HAUG III,TREASURER,40 N. PROSPECT AVE JEFFERSONVILLE PA 19401-0 MONTGOMERY,1320 SUNNY AYRE WAY LANSDALE PA 19446-5120
"MALAMUT, LEONARD L. M.D., LTD.",CORPORATION,NAN,,,,PA,5908 DEVON PLACE,PHILA,,617265,,,5908 DEVON PLACE PHILA PA 0 -0 PHILADELPHIA,
"MANAGEMENT IMPLEMENTATION ASSOCIATES, INC.",CORPORATION,NAN,PO BOX 409,DUNMORE,,PA 18512-0 LACKAWANNA,2012 GREENRIDGE ST.,DUNMORE,,617266,EUGENE WALSH,PRESIDENT,2012 GREENRIDGE ST. DUNMORE PA 18512-0 LACKAWANNA,PO BOX 409 DUNMORE PA 18512-35
GRACE BAPTIST CHURCH OF BUTLER,NONPROFIT,NAN,,,,PA,415 MITCHELL AVE,BUTLER,16001-0,617267,,,415 MITCHELL AVE BUTLER PA 16001-0 BUTLER,
W. I. C. INC.,CORPORATION,NAN,,,,PA 19064-0 DELAWARE,1501 BALTIMORE PIKE,SPRINGFIELD,,617268,,,1501 BALTIMORE PIKE SPRINGFIELD PA 19064-0 DELAWARE,
URBAN MODERNIZATION AND CONSTRUCTION CO. INC.,CORPORATION,NAN,,,,PA,5225 BALTIMORE AVE.,PHILADELPHIA,,617269,,,5225 BALTIMORE AVE. PHILADELPHIA PA 0 -0 PHILADELPHIA,
"NATIONWIDE LIGHTING, INC.",CORPORATION,NAN,,,,PA 19102-0 PHILADELPHIA,1601 WALNUT ST,PHILA,,617270,,,1601 WALNUT ST PHILA PA 19102-0 PHILADELPHIA,
"SAFT, LEON INC.",CORPORATION,NAN,,,,PA 19130-0 PHILADELPHIA,846 N BROAD STREET,PHILA,,617271,,,846 N BROAD STREET PHILA PA 19130-0 PHILADELPHIA,
TRAVEL DREAMS UNLIMITED LLC,LLC,PA,,,,PA,612 AUBURN DRIVE,MANHEIM,17545,617272,,,612 AUBURN DRIVE MANHEIM PA 17545 LANCASTER,
HEDGEROW,NONPROFIT,NAN,,,,,,,,617273,,,"PO BOX 100, RD 1 NESCOPECK PA 0 -0 LUZERNE",
"JIM'S MOBILE HOMES, INC.",CORPORATION,PA,,,,PA,4500 ALLENTOWN PIKE,TEMPLE,,617274,,,4500 ALLENTOWN PIKE TEMPLE PA 19560-0 BERKS,
CVC HOLDINGS LLC,LLC,PA,,,,PA,"33 W 3RD ST., STE. 202",WILLIAMSPORT,17701,617275,,,"33 W 3RD ST., STE. 202 WILLIAMSPORT PA 17701 LYCOMING",
"RELAX FOR SURVIVAL FOUNDATION, INC.",NONPROFIT,NAN,,,,PA 19130-0 PHILADELPHIA,2948 OGDEN ST,PHILA,,617276,,,2948 OGDEN ST PHILA PA 19130-0 PHILADELPHIA,
"LOMBARDI PACKING CO., INC.",CORPORATION,NAN,,,,PA 15644-0 WESTMORELAND,101 LINCOLN HWY.,EAST JEANNETTE,,617277,,,101 LINCOLN HWY. EAST JEANNETTE PA 15644-0 WESTMORELAND,
"STEPHEN J. BOSACCO M.D., P.C.",CORPORATION,NAN,500 DARLINGTON RD,MEDIA,,PA 19342-0 DELAWARE,"FOX VALLEY CONDO. WEST 26 DOUGHERTY BOUL EVARD, UNIT F-3",GLEN MILLS,,617278,STEPHEN J BOSACCO,VICEPRESIDENT,"FOX VALLEY CONDO. WEST 26 DOUGHERTY BOUL EVARD, UNIT F-3 GLEN MILLS PA 19342-0 DELAWARE",500 DARLINGTON RD MEDIA PA 19063-23
"RESTAURANTS INTERNATIONALE, INC.",CORPORATION,NAN,,,,,,,,617279,,,"SUITE 720, TWO PENN CENTER PLAZA PHILADELPHIA PA 19102-0 PHILADELPHIA",
"ALCAST, INC.",CORPORATION,NAN,PO BOX 380,SELLERSVILLE,,PA,ROUTE 309,SELLERSVILLE,,617282,JOHN F MATCZAK,PRESIDENT,ROUTE 309 SELLERSVILLE PA 18960-0 BUCKS,PO BOX 380 SELLERSVILLE PA 18960-09
"CONSULTANTS FOR EDUCATIONAL COSTS, INC.",CORPORATION,NAN,,,,PA 19124-0 PHILADELPHIA,5233 DUFFIELD ST.,PHILA,,617283,,,5233 DUFFIELD ST. PHILA PA 19124-0 PHILADELPHIA,
"CELLONE BAKERY, INC.",CORPORATION,PA,193 CHARTIERS AVE,PITTSBURGH,15205,PA,663 NAPOR BLVD,PITTSBURGH,15205,617284,RANDALL CELLONE,PRESIDENT,663 NAPOR BLVD PITTSBURGH PA 15205 ALLEGHENY,193 CHARTIERS AVE PITTSBURGH PA 15205-3321
"HOWARD SUBURBAN MOTORS, INC.",CORPORATION,PA,,,,PA,"R.D.#2, EAST HIGH STREET.",EXTENSION WAYNESBURG,15370-0,617285,,,"R.D.#2, EAST HIGH STREET. EXTENSION WAYNESBURG PA 15370-0 GREENE",
"OWEN R. LYONS, INC.",CORPORATION,NJ,PO BOX 1010,ALPHA,15370-0,,,,,617286,WARSLOW WARDLOW,SECRETARY,"405 VALLEY FEDERAL SAVINGS BLDG., 100 NO RTH 3RD STREET EASTON PA 0 -0 NORTHAMPTON",PO BOX 1010 ALPHA NJ 08865-1010
"WHITEWATER CHALLENGERS, INC.",CORPORATION,NAN,PO BOX 8,WHITE HAVEN,,PA 18707-0 PHILADELPHIA,5 PINETREE RD,MOUNTAINTOP,,617287,KENNETH E POWLEY,PRESIDENT,5 PINETREE RD MOUNTAINTOP PA 18707-0 PHILADELPHIA,PO BOX 8 WHITE HAVEN PA 18661-0008
"MIDLANTIC AERIAL SURVEYS, INC.",CORPORATION,NJ,,,,,,,,617288,,,"R.D.#2, ROUTE 115 EASTON PA 18042-0 NORTHAMPTON",
"LISLE T. MILLER CO., INC.",CORPORATION,NAN,,,,PA,912 SEVENTH AVE,BEAVER FALLS,15010-0,617289,,,912 SEVENTH AVE BEAVER FALLS PA 15010-0 BEAVER,
"COLLINS-KENT SECTION, INC.",CORPORATION,NAN,,,,PA 19103-0 PHILADELPHIA,"C/O ALAN L. SPIELMAN, LTD., 2037 PINE ST .",PHILA,,617290,,,"C/O ALAN L. SPIELMAN, LTD., 2037 PINE ST . PHILA PA 19103-0 PHILADELPHIA",
WILLIAM O'NEIL & CO. INCORPORATED,CORPORATION,CA,,,,PA 19103-0 PHILADELPHIA,C/O C T CORPORATION SYSTEM 1635 MARKET STREET,PHILADELPHIA,,617291,,,C/O C T CORPORATION SYSTEM 1635 MARKET STREET PHILADELPHIA PA 19103-0 PHILADELPHIA,
"GOLF-SHIELDS, INC.",CORPORATION,NAN,,,,PA 15056-0 ALLEGHENY,190 OHIO RIVER BLVD.,LEETSDALE,,617292,,,190 OHIO RIVER BLVD. LEETSDALE PA 15056-0 ALLEGHENY,
"REBER'S BEVERAGES, INC.",CORPORATION,NAN,,,,,,,,617293,,,WEST SIDE LEGISLATIVE ROUTE 53074 LANDINGVILLE PA 17942-0 SCHUYLKILL,
"MAJESTIC HEALTH SPA'S OF PENNSYLVANIA, INC.",CORPORATION,NAN,4807 MARTINIQUE WAY,NAPLES,,PA 17033-0 DAUPHIN,"232 TOWNHOUSE,",BRIAR CREST GARDENS HERSHEY,,617295,STEVEN P ISRAELOFF,PRESIDENT,"232 TOWNHOUSE, BRIAR CREST GARDENS HERSHEY PA 17033-0 DAUPHIN",4807 MARTINIQUE WAY NAPLES FL 34119
"CITRONE, GOODWORTH AND MCDOUGALL, M.D., PROFESSIONAL CORPORATION",CORPORATION,NAN,4815 LIBERTY AVE,PITTSBURGH,,PA 15224-0 ALLEGHENY,4815 LIBERTY AVE,PITTSBURGH,,617296,WILLIAM A MCDOUGALL,SECRETARY,4815 LIBERTY AVE PITTSBURGH PA 15224-0 ALLEGHENY,4815 LIBERTY AVE PITTSBURGH PA 15224-02
"SNYDER-GOODMAN ASSOCIATES, INC.",CORPORATION,NAN,,,,PA 17110-0 DAUPHIN,3301 HOFFMAN ST,HARRISBURG,,617297,,,3301 HOFFMAN ST HARRISBURG PA 17110-0 DAUPHIN,
PENNSYLVANIA LIVESTOCK ASSOCIATION,NONPROFIT,PA,,,,PA,1736 BETHEL HOLLOW ROAD,NEW PARIS,15554,617298,,,1736 BETHEL HOLLOW ROAD NEW PARIS PA 15554 BEDFORD,
"RESOURCE INVESTMENTS, INC.",CORPORATION,PA,STONEWOOD CMMNS I 310 101 BRADFORD RD,WEXFORD,15212-5392,PA,"SUITE 650, 1 ALLEGHENY CENTER",PITTSBURGH,15212-5392,617300,MICHAEL J ARANSON,PRESIDENT,"SUITE 650, 1 ALLEGHENY CENTER PITTSBURGH PA 15212-5392 ALLEGHENY",STONEWOOD CMMNS I 310 101 BRADFORD RD WEXFORD PA 15090-02
CENTRAL PENN CARPET INC.,CORPORATION,NAN,PO BOX 136,WINFIELD,,PA,"RD #1, SPRUCE HILLS",LEWISBURG,,617302,KATHRYN I KISSELL,TREASURER,"RD #1, SPRUCE HILLS LEWISBURG PA 17837-0 UNION",PO BOX 136 WINFIELD PA 17889-0136
"C & D TRUCKING, INC.",CORPORATION,PA,1497 COTHELL RD,PITTSBURGH,,PA 15227-0 ALLEGHENY,38 MERITT AVE,PITTSBURGH,,617303,JACQUELINE J CISKARI,TREASURER,38 MERITT AVE PITTSBURGH PA 15227-0 ALLEGHENY,1497 COTHELL RD PITTSBURGH PA 15236-02
SKY HAVEN COAL INC.,CORPORATION,PA,5510 STATE PARK RD,PENFIELD,,,,,,617304,JOSEPH A OWENS,TREASURER,"7 MILES N.W. OF CLEARFIELD ON STATE HWY. RTE. 153, RD 1 PENFIELD PA 15849-0 CLEARFIELD",5510 STATE PARK RD PENFIELD PA 15849-4116
"AMERICAN VISITORS NEWSPAPER, INC.",CORPORATION,NAN,,,,PA 19130-0 PHILADELPHIA,2229 GREEN ST.,PHILA,,617305,,,2229 GREEN ST. PHILA PA 19130-0 PHILADELPHIA,
"BLACK CORRECTIONAL EMPLOYEES OF PITTSBURGH, INC.",NONPROFIT,NAN,,,,PA 15210-0 ALLEGHENY,414 MICHIGAN AVENUE,PITTSBURGH,,617307,,,414 MICHIGAN AVENUE PITTSBURGH PA 15210-0 ALLEGHENY,
"PEN AND INK PUBLISHERS, LTD.",CORPORATION,NAN,,,,PA 19446-0 MONTGOMERY,C/O HAMBURG RUBIN MULLIN & MAXWELL 800 E MAIN ST,LANSDALE,,617308,,,C/O HAMBURG RUBIN MULLIN & MAXWELL 800 E MAIN ST LANSDALE PA 19446-0 MONTGOMERY,
"DUNBAR DISTRIBUTING CO., INC.",CORPORATION,NAN,1621 MORRELL AVE,CONNELLSVILLE,,PA 15425-0 FAYETTE,1621 MORRELL AVE,CONNELLSVILLE,,617309,MARK DEMICHELIS,SECRETARY,1621 MORRELL AVE CONNELLSVILLE PA 15425-0 FAYETTE,1621 MORRELL AVE CONNELLSVILLE PA 15425-3814
MOP CORPORATION OF PENNSYLVANIA,CORPORATION,NAN,,,,PA,"C/O GARDNER GARDNER & RACINES, 546 HAMIL TON ST",ALLENTOWN,18101-0,617311,,,"C/O GARDNER GARDNER & RACINES, 546 HAMIL TON ST ALLENTOWN PA 18101-0 LEHIGH",
"B & G PIAZZA, INC.",CORPORATION,NAN,,,,PA 15106-0 ALLEGHENY,"1 WALNUT AVE.,",RENNERDALE CARNEGIE,,617312,,,"1 WALNUT AVE., RENNERDALE CARNEGIE PA 15106-0 ALLEGHENY",
"CUSHEY, DON INC.",CORPORATION,NAN,301 FOX RUN DR,VENETIA,,PA 15317-0 WASHINGTON,123 FAWN VALLEY DR.,MCMURRAY,,617314,LEONARD D CUSHEY,PRESIDENT,123 FAWN VALLEY DR. MCMURRAY PA 15317-0 WASHINGTON,301 FOX RUN DR VENETIA PA 15367-63
"WEST POINT SUPPLY CO., INC.",CORPORATION,PA,255 SCHOOLHOUSE RD,SOUDERTON,,PA 19486-0 MONTGOMERY,MAIN STREET AND JONES AVE.,WEST POINT,,617315,SHIRLEY SMITH,SECRETARY,MAIN STREET AND JONES AVE. WEST POINT PA 19486-0 MONTGOMERY,255 SCHOOLHOUSE RD SOUDERTON PA 18964-2430
F.M.E. CORPORATION,CORPORATION,NAN,,,,,,,,617316,,,"85 INDUSTRIAL DR., NORTHAMPTON INDUSTRIA L PARK IVYLAND PA 18974-0 BUCKS",
"WEST FAIRVIEW INN, INC.",CORPORATION,NAN,104 MARKET ST,WEST FAIRVIEW,,,,,,617317,PETER A PATURZO,PRESIDENT,"C/O DAVID S. HECKARD, JR., RD 4 MECHANICSBURG PA 17055-0 CUMBERLAND",104 MARKET ST WEST FAIRVIEW PA 17025-21
THE HORNBY SCHOOL RESTORATION SOCIETY,NONPROFIT,PA,10000 STATION RD,NORTH EAST,,,,,,617318,RUBY KIMALL,TREASURER,10000 COLT STATION ROAD P O BOX 270 NORTH EAST PA 16428-270 ERIE,10000 STATION RD NORTH EAST PA 16428
"SUELEE INDUSTRIES, INC.",CORPORATION,PA,,,,,,,,617319,,,2010 TWO PENN CENTER PLAZA PHILADELPHIA PA 19102-0 PHILADELPHIA,
"NORTH EAST TECHNICAL SALES, INC.",CORPORATION,PA,171 RUTH RD,HARLEYSVILLE,,PA 19341-0 CHESTER,402 GORDON DR,EXTON,,617320,MICHAEL SCOTT,PRESIDENT,402 GORDON DR EXTON PA 19341-0 CHESTER,171 RUTH RD HARLEYSVILLE PA 19438-1823
RED ROCK ARTS LLC,LLC,PA,,,,PA,88 BOYER ROAD,OLEY,19547,617321,,,88 BOYER ROAD OLEY PA 19547 BERKS,
"K. JESSE REITENBACH ASSOCIATES, LTD.",CORPORATION,NAN,PO BOX 717,CAMP HILL,,PA 17043-0 CUMBERLAND,1205 MARKET ST,LEMOYNE,,617322,REYNOLD R WOOF JR,VICEPRESIDENT,1205 MARKET ST LEMOYNE PA 17043-0 CUMBERLAND,PO BOX 717 CAMP HILL PA 17001-21
"SCHNEIDER AGENCY, INC.",CORPORATION,NAN,855 FRONT ST,BERWICK,,,,,,617323,JOSEPH SCHNEIDER,PRESIDENT,709 I.B.E. BLDG. WILKES-BARRE PA 0 -0 LUZERNE,855 FRONT ST BERWICK PA 18603-19
KNB LLC.,LLC,PA,,,,PA,104 ROSSMOR COURT,PITTSBURGH,15201,617324,,,104 ROSSMOR COURT PITTSBURGH PA 15201 ALLEGHENY,
"TISDALE & ASSOCIATES, INC.",CORPORATION,PA,1325 PITTSBURGH RD,VALENCIA,,,,,,617325,PEGGY J TISDALE,SECRETARY,RD #3 VALENCIA PA 16059-0 BUTLER,1325 PITTSBURGH RD VALENCIA PA 16059-1103
"PROFESSOR'S IN, INC.",CORPORATION,NAN,,,,PA 15905-0 CAMBRIA,100 VALLEY PIKE,JOHNSTOWN,,617326,,,100 VALLEY PIKE JOHNSTOWN PA 15905-0 CAMBRIA,
HERMANSON & ASSOCIATES LLC,LLC,PA,,,,PA,900 HEATHDALE LANE,MEDIA,19063,617327,,,900 HEATHDALE LANE MEDIA PA 19063 DELAWARE,
"DANIEL D. COHEN D.D.S., P.C.",CORPORATION,NAN,298 PROGRESS AVE,HARRISBURG,,PA,298 S. PROGRESS AVE,HARRISBURG,,617328,DANIEL D COHEN,PRESIDENT,298 S. PROGRESS AVE HARRISBURG PA 0 -0 DAUPHIN,298 PROGRESS AVE HARRISBURG PA 17109-22
"HENRY A. WEITZ JR., DMD, ORAL SURGERY ASSOCIATES, INC.",CORPORATION,PA,,,,PA 17522-0 LANCASTER,107 E. LOCUST ST,EPHRATA,,617329,,,107 E. LOCUST ST EPHRATA PA 17522-0 LANCASTER,
"PHILLIPS OF DEVON, INC.",CORPORATION,NAN,,,,PA 19312-0 CHESTER,10 LEOPARD RD,BERWYN,,617330,,,10 LEOPARD RD BERWYN PA 19312-0 CHESTER,
"ARCTIC SPAS PITTSBURGH, LLC.",LLC,PA,10620 STATE ROUTE 30 NORTH,HUNTINGDON,15642,PA,10620 ROUTE 30 NORTH,HUNTINGDON,15642,617331,GARY PIVIROTTO,PRESIDENT,10620 ROUTE 30 NORTH HUNTINGDON PA 15642,10620 STATE ROUTE 30 NORTH HUNTINGDON PA 15642-2048
"DE SHIELDS, GRANVILLE P. INC.",CORPORATION,NAN,,,,PA,1036 BURNSIDE RD,SHARON HILL,,617332,,,1036 BURNSIDE RD SHARON HILL PA 0 -0 DELAWARE,
"WILLIAMS & WORKS, INC.",CORPORATION,MI,,,,,,,,617334,,,"225 S. 15TH ST., C/O U.S. CORP. CO. PHILA PA 19102-0 PHILADELPHIA",
"THE ILLINI, INC.",CORPORATION,PA,,,,,,,,617335,,,1403 LAW & FINANCE BLDG PITTSBURGH PA 15219-0 ALLEGHENY,
"VALLEY FORGE AGENCY, INC.",CORPORATION,DE,,,,,,,,617336,,,700 VALLEY FORGE PLAZA KING OF PRUSSIA PA 19406-0 MONTGOMERY,
"MARKWARD & KARAFILIS, INC.",CORPORATION,MI,,,,,,,,617337,,,"123 S BROAD ST, C/O C T CORP SYSTEM PHILA PA 19109-0 PHILADELPHIA",
JOSEPH CARUSO INC.,CORPORATION,NAN,,,,,,,,617338,,,RD #3 BURGETTSTOWN PA 15021-0 WASHINGTON,
POTTER COUNTY MARRIAGE COUNSELING SERVICE,NONPROFIT,NAN,,,,PA,28 EAST SECOND STREET,COUDERSPORT,16915-0,617339,,,28 EAST SECOND STREET COUDERSPORT PA 16915-0 POTTER,
DELAWARE VALLEY HOME FURNISHINGS CREDIT ASSOCIATION LTD.,NONPROFIT,NAN,,,,,,,,617340,,,1900 TWO PENN CENTER PHILADELPHIA PA 19102-0 PHILADELPHIA,
BIBLE FAITH FELLOWSHIP OF THE WEST SHORE,NONPROFIT,NAN,,,,PA 17070-0 CUMBERLAND,619 BROOKHAVEN ROAD,NEW CUMBERLAND,,617341,,,619 BROOKHAVEN ROAD NEW CUMBERLAND PA 17070-0 CUMBERLAND,
"SOLAR PLUMBING, HEATING & COOLING SYSTEMS, INC.",CORPORATION,NAN,C/O BARRY B SOKOLOW 215 GRANT BLDG,PITTSBURGH,,PA 15215-0 ALLEGHENY,223 MAIN ST.,PITTSBURGH,,617343,SHIRLEY A SMITH,TREASURER,223 MAIN ST. PITTSBURGH PA 15215-0 ALLEGHENY,C/O BARRY B SOKOLOW 215 GRANT BLDG PITTSBURGH PA 15219-02
"CRAFTSMEN, INC.",CORPORATION,PA,,,,PA 19087-0 DELAWARE,107 CALVARESE LANE,WAYNE,,617344,,,107 CALVARESE LANE WAYNE PA 19087-0 DELAWARE,
J-J VILLAGE ALE HOUSE INCORPORATED,CORPORATION,NAN,,,,PA,268 PENNELL RD,MEDIA,,617348,,,268 PENNELL RD MEDIA PA 0 -0 DELAWARE,
PENNELL ROAD INCORPORATED,CORPORATION,NAN,,,,PA,268 PENNELL ROAD,MEDIA,,617349,,,268 PENNELL ROAD MEDIA PA 0 -0 DELAWARE,
MILANO INCORPORATED,CORPORATION,PA,,,,PA 19102-0 PHILADELPHIA,2700 TWO GIRARD PLAZA,PHILA,,617350,,,2700 TWO GIRARD PLAZA PHILA PA 19102-0 PHILADELPHIA,
"RENUIT NOW, INC.",CORPORATION,DE,,,,,,,,617351,,,%CT CORPORATION SYSTEM DAUPHIN,
AUTOMOTIVE SUPPLIES MORGANTOWN INC.,CORPORATION,NAN,E MAIN ST PO BOX 95,MORGANTOWN,,PA,EAST MAIN ST (PO BOX 95),MORGANTOWN,,617352,THOMAS E CHRIST,PRESIDENT,EAST MAIN ST (PO BOX 95) MORGANTOWN PA 19543-0 BERKS,E MAIN ST PO BOX 95 MORGANTOWN PA 19543-06
HAMLIN TOWNSHIP VOLUNTEER FIRE DEPARTMENT,NONPROFIT,PA,,,,,,,,617353,,,HAZELHURST PA 16733-0 MCKEAN,
"INTERNATIONAL COMMUNITY DEVELOPERS CO., INC.",CORPORATION,NAN,,,,PA 19428-0 MONTGOMERY,"15 E. RIDGE PIKE, SUITE 312",CONSHOHOCKEN,,617354,,,"15 E. RIDGE PIKE, SUITE 312 CONSHOHOCKEN PA 19428-0 MONTGOMERY",
LILIP CORPORATION,CORPORATION,PA,,,,,,,,617355,,,"732 CAMBRIDGE RD, C/O LILIAN LIPSCHUTZ BALA CYNWYD PA 19004-0 MONTGOMERY",
DAVIS-ZEMO ASSOCIATES,CORPORATION,NAN,STE E924,COLONIAL AVE YORK,,PA 17403-0 YORK,924-E COLONIAL AVE,YORK,,617356,GARTH GOOD,TREASURER,924-E COLONIAL AVE YORK PA 17403-0 YORK,STE E924 COLONIAL AVE YORK PA 17403-3450
"AQUA-DREDGE, INC.",CORPORATION,NY,O BYRAM RID6E RD,ARMONK,,,,,,617358,ROBERT POUND,VICEPRESIDENT,%UNITED STATES CORPORATION COMPANY DAUPHIN,O BYRAM RID6E RD ARMONK NY 10504
"T.D.S., INC.",CORPORATION,PA,2670 W MAPLE AVE,FSTRVL TRVOSE,,PA,2670 W. MAPLE AVE,FEASTERVILLE,,617359,RUSSELL GIBSON,PRESIDENT,2670 W. MAPLE AVE FEASTERVILLE PA 19047-0 BUCKS,2670 W MAPLE AVE FSTRVL TRVOSE PA 19053-7203
"TORCOMIAN INDUSTRIES, INC.",CORPORATION,PA,,,,PA 19083-0 DELAWARE,1709 JOSIE LANE,HAVERTOWN,,617360,,,1709 JOSIE LANE HAVERTOWN PA 19083-0 DELAWARE,
"AUTOMOTIVE RENTALS, INC.",CORPORATION,NJ,244 E KINGS HWY244 E,KINGS HWY MAPLE SHADE,,,,,,617361,KATHERINE A MULLIN,SECRETARY,%CORPORATION SERVICE COMPANY DAUPHIN,244 E KINGS HWY244 E KINGS HWY MAPLE SHADE NJ 08052-3400
"BUCKINGHAM TV & STEREO CENTRE, INC.",CORPORATION,NAN,,,,PA,"BOX 117,",EDGEWOOD ROAD MECHANICSVILLE,,617362,,,"BOX 117, EDGEWOOD ROAD MECHANICSVILLE PA 18934-0 BUCKS",
"I I C, INC.",CORPORATION,NAN,,,,,,,,617363,,,3320 GRANT BLDG PITTSBURGH PA 15219-0 ALLEGHENY,
"HOUSTON HARBAUGH, P.C.",CORPORATION,PA,3 GATEWAY CTR 401 LIBE,PITTSBURGH,15222,PA,"401 LIBERTY AVENUE, 22ND FLOOR",PITTSBURGH,15222,617364,MARY JO REBELO,SECRETARY,"401 LIBERTY AVENUE, 22ND FLOOR PITTSBURGH PA 15222 ALLEGHENY",3 GATEWAY CTR 401 LIBE PITTSBURGH PA 15222
"KRISCH COAL COMPANY, INC.",CORPORATION,NAN,,,,PA 15748-0 INDIANA,"ROUTE 119 AND LUCERNE ROAD, R.D.",HOMER CITY,,617365,,,"ROUTE 119 AND LUCERNE ROAD, R.D. HOMER CITY PA 15748-0 INDIANA",
SRI BHALCHANDRA LLC,LLC,PA,,,,PA,210 E STREET ROAD STE 3B,FEASTERVILLE,19053,617366,,,210 E STREET ROAD STE 3B FEASTERVILLE PA 19053 BUCKS,
"JATS TRANSMISSION, INC.",CORPORATION,PA,733 FERNDALE AVE,JOHNSTOWN,,PA 15905-0 CAMBRIA,733 FERNDALE AVE,JOHNSTOWN,,617367,JOHN I CAFEO,PRESIDENT,733 FERNDALE AVE JOHNSTOWN PA 15905-0 CAMBRIA,733 FERNDALE AVE JOHNSTOWN PA 15905-3900
"DOM'S FOODLAND, INC.",CORPORATION,PA,,,,PA 15401-0 FAYETTE,111 E. MAIN ST.,UNIONTOWN,,617368,,,111 E. MAIN ST. UNIONTOWN PA 15401-0 FAYETTE,
"DIANE PERRY ENTERPRISES, INC.",CORPORATION,NAN,,,,PA 15206-0 ALLEGHENY,6608 FIFTH AVE,PITTSBURGH,,617369,,,6608 FIFTH AVE PITTSBURGH PA 15206-0 ALLEGHENY,
"BO-GRAF, INC.",CORPORATION,NAN,,,,PA 15228-0 ALLEGHENY,1675 WASHINGTON ROAD,PITTSBURGH,,617370,,,1675 WASHINGTON ROAD PITTSBURGH PA 15228-0 ALLEGHENY,
"CRANBERRY ENTERPRISES, INC.",CORPORATION,PA,,,,,,,,617371,,,404 PROGRESS AVE CRANBERRY INDUSTRIAL PA RK ZELIENOPLE PA 16063-0 BUTLER,
"LEROY COMMUNITY ASSOCIATION, INC.",NONPROFIT,PA,,,,,,,,617372,,,UNKNOWN LEROY PA 17743-0 BRADFORD,
JONES AUTOMOTIVE INC.,CORPORATION,PA,1541 POORHOUSE RD,DOWNINGTOWN,,PA 19335-0 CHESTER,1541 POORHOUSE ROAD,DOWNINGTOWN,,617373,WILLIAM C JONES JR,TREASURER,1541 POORHOUSE ROAD DOWNINGTOWN PA 19335-0 CHESTER,1541 POORHOUSE RD DOWNINGTOWN PA 19335-3511
SOLAR DESIGN CORP.,CORPORATION,NAN,,,,PA,3107 LEHIGH ST,ALLENTOWN,18103-0,617374,,,3107 LEHIGH ST ALLENTOWN PA 18103-0 LEHIGH,
MATRIX GOLF & HOSPITALITY SERVICES LLC,LLC,NJ,,,,,,,,617376,,,%CORPORATION SERVICE COMPANY DAUPHIN,
"WAHL, WILLIAM J. INC.",CORPORATION,NY,,,,PA,402 BROAD ST,MILFORD,18337-0,617377,,,402 BROAD ST MILFORD PA 18337-0,
ENERSYS ADVANCED SYSTEMS INC.,CORPORATION,DE,PO BOX 14145,READING,,,,,,617378,THOMAS L ONEILL,TREASURER,CORPORATION SERVICE COMCPANY PA DAUPHIN,PO BOX 14145 READING PA 19612-06
"NU-LOOK HOME REMODELING, INC.",CORPORATION,NAN,42102 DELAIRE LNDNG RD,PHILADELPHIA,,PA 19111-0 PHILADELPHIA,6339 RISING SUN AVE,PHILA,,617379,ESTELLE SWERDLOW,SECRETARY,6339 RISING SUN AVE PHILA PA 19111-0 PHILADELPHIA,42102 DELAIRE LNDNG RD PHILADELPHIA PA 19114-51
"ROSE'S WAY, LLC",LLC,PA,,,,PA,1119 APPLE BLOSSOM RD.,EASTON,18040,617380,,,1119 APPLE BLOSSOM RD. EASTON PA 18040 NORTHAMPTON,
PALMYRA AREA INTER-FAITH HOUSING COUNCIL,NONPROFIT,PA,,,,PA,1220 MIFFLIN ST,P LEBANON,17042,617381,,,1220 MIFFLIN ST P LEBANON PA 17042 LEBANON,
LAKE ERIE DISTRICT MISSIONARY BAPTIST ASSOCIATION,NONPROFIT,NAN,,,,PA,318 REED ST,ERIE,,617382,,,318 REED ST ERIE PA 16507-0 ERIE,
"FMQ, INC.",CORPORATION,NAN,,,,,,,,617383,,,R.D. 1 TUNKHANNOCK PA 18657-0 WYOMING,
"PLAZA DELI RESTAURANT, INC.",CORPORATION,NAN,,,,,,,,617384,,,"C/O MARTIN N. GHEN, ESQ 506 ONE E PENN SQUARE PHILA PA 19107-0 PHILADELPHIA",
"HELMIC, INC.",CORPORATION,PA,2103 MARY ST,PITTSBURGH,,PA 15203-0 ALLEGHENY,21ST AND MARY STREETS,PITTSBURGH,,617385,MICHAEL C JASKOWSKI,PRESIDENT,21ST AND MARY STREETS PITTSBURGH PA 15203-0 ALLEGHENY,2103 MARY ST PITTSBURGH PA 15203-02
"TERRAPIN ENTERPRISES, INC.",CORPORATION,NAN,,,,PA 18702-0 LUZERNE,313 SOUTH RIVER ST,WILKES-BARRE,,617387,,,313 SOUTH RIVER ST WILKES-BARRE PA 18702-0 LUZERNE,
FIRST AMERICAN REALTY CORPORATION,CORPORATION,NAN,,,,,,,,617389,,,SUITE 760 VALLEY FORGE PLAZA KING OF PRUSSIA PA 19406-0 MONTGOMERY,
"CAPOZZOLI REAL ESTATE CO., INC.",CORPORATION,PA,801 MORTON AVE,FOLSOM,,PA 19033-0 DELAWARE,112 LINCOLN ST,FOLSOM,,617390,RALPH V CAPOZZOLI,TREASURER,112 LINCOLN ST FOLSOM PA 19033-0 DELAWARE,801 MORTON AVE FOLSOM PA 19033-2937
"FRANK E. ELSTER NEWS AGENCY, INC.",CORPORATION,NAN,,,,,,,,617393,,,123 S BROAD ST C/O C T CORP SYSTEM PHILA PA 19109-0 PHILADELPHIA,
"PAPA PAPP'S PUPPIES, INC.",CORPORATION,NAN,,,,PA 18704-0 LUZERNE,1902 WYOMING AVE,FORTY FORT,,617394,,,1902 WYOMING AVE FORTY FORT PA 18704-0 LUZERNE,
"TRI-REGION RACE GROUP, INC.",NONPROFIT,NAN,,,,PA 19107-0 PHILADELPHIA,21 S. 12TH ST.,PHILA,,617395,,,21 S. 12TH ST. PHILA PA 19107-0 PHILADELPHIA,
"F.P.J., INCORPORATED",CORPORATION,PA,,,,PA,221 LINDEN ST,SCRANTON,,617396,,,221 LINDEN ST SCRANTON PA 0 -0 LACKAWANNA,
"MARBO CONSTRUCTION COMPANY, INC.",CORPORATION,NAN,,,,,,,,617397,,,C/O C T CORP SYSTEM OLIVER BLDG. MELLON SQUARE PITTSBURGH PA 15222-0 ALLEGHENY,
J AND J TRADING ASSOCIATION,CORPORATION,NAN,,,,PA 15221-0 ALLEGHENY,627 FRANKLIN AVE,PITTSBURGH,,617398,,,627 FRANKLIN AVE PITTSBURGH PA 15221-0 ALLEGHENY,
"DONALD J. FAGER & ASSOCIATES, INC.",CORPORATION,NY,,,,PA 19109-0 PHILADELPHIA,123 S BROAD ST SUITE 1728,PHILADELPHIA,,617399,,,123 S BROAD ST SUITE 1728 PHILADELPHIA PA 19109-0 PHILADELPHIA,
FORT LEBOEUF HISTORICAL SOCIETY,NONPROFIT,PA,,,,PA,BOX 26 240 E. 4TH ST.,WATERFORD,,617400,,,BOX 26 240 E. 4TH ST. WATERFORD PA 16441-0 ERIE,
PAH LIQUIDATING CORP.,CORPORATION,NAN,,,,PA,402,WASHINGTON,,617401,,,402 WASHINGTON LANE FORT WASHINGTON PA 0 -0 MONTGOMERY,
"RAM MANAGEMENT, INC.",CORPORATION,DE,PO BOX 618,WHITEHALL,18101-0,PA,137 N. 8TH ST.,ALLENTOWN,18101-0,617403,PHILIP KRASNER,PRESIDENT,137 N. 8TH ST. ALLENTOWN PA 18101-0 LEHIGH,PO BOX 618 WHITEHALL PA 18052-0618
OIL CITY YOUTH FOOTBALL ASSOCIATION,NONPROFIT,NAN,,,,PA 16301-0 VENANGO,"YOUNG MEN'S CHRISTIAN ASSOCIATION, 296 S ENECA ST.",OIL CITY,,617405,,,"YOUNG MEN'S CHRISTIAN ASSOCIATION, 296 S ENECA ST. OIL CITY PA 16301-0 VENANGO",
WESTIN MARKETING COMPANY,CORPORATION,DE,,,,,,,,617406,,,C/O C T CORP SYSTEM OLIVER BLDG MELLON S QUARE PITTSBURGH PA 15222-0 ALLEGHENY,
NATIONAL VETERAN BOXERS ASSOCIATION,NONPROFIT,NAN,,,,,,,,617407,,,"AMERICUS HOTEL, 6TH & HAMILTON STS. ALLENTOWN PA 18101-0 LEHIGH",
"CLUB ANONYMOUS, INC.",NONPROFIT,PA,,,,PA 19460-0 CHESTER,131 GAY ST,PHOENIXVILLE,,617409,,,131 GAY ST PHOENIXVILLE PA 19460-0 CHESTER,
NAUTILUS ATHLETIC CLUB OF POTTSTOWN INC.,CORPORATION,PA,PO BOX 280703,HARRISBURG,,PA 19464-0 MONTGOMERY,MOSER RD & CENTRE AVE,POTTSTOWN,,617410,THOMAS A CALVARIO,PRESIDENT,MOSER RD & CENTRE AVE POTTSTOWN PA 19464-0 MONTGOMERY,PO BOX 280703 HARRISBURG PA 17128-0703
"AUMENT'S MARKET, INC.",CORPORATION,NAN,C/O RON AUMENT 2525 CAMP RD,MANHEIM,,PA 17022-0 LANCASTER,626 S MARKET ST,ELIZABETHTOWN,,617411,RONALD R AUMENT,SECRETARY,626 S MARKET ST ELIZABETHTOWN PA 17022-0 LANCASTER,C/O RON AUMENT 2525 CAMP RD MANHEIM PA 17545-36
"THE CLOTHES GARDEN, INC.",CORPORATION,PA,,,,PA 19072-0 MONTGOMERY,OAK HILL ESTATES APT. 2-F,NARBERTH,,617412,,,OAK HILL ESTATES APT. 2-F NARBERTH PA 19072-0 MONTGOMERY,
"THE FAMILY FOUNDATION, INC.",NONPROFIT,NY,431 CHAPEL HILL RD,HANCOCK,18508,PA,501 MADISON AVE,SCRANTON,18508,617413,EMMANUAL ARGIROS,PRESIDENT,501 MADISON AVE SCRANTON PA 18508 LACKAWANNA,431 CHAPEL HILL RD HANCOCK NY 13783
"UNDERWRITERS INVESTIGATION BUREAU, INC.",CORPORATION,PA,C/O JACK FISHER 551 S W 135TH AVE,PEMBROKE PIN,,PA 19152-0 PHILADELPHIA,2735 MOWER STREET,PHILADELPHIA,,617414,JACK FISHER,PRESIDENT,2735 MOWER STREET PHILADELPHIA PA 19152-0 PHILADELPHIA,C/O JACK FISHER 551 S W 135TH AVE PEMBROKE PIN FL 33027
"CEDAR-TREXLER PLAZA 2, LLC",LLC,DE,,,,,,,,617416,,,%CORPORATION SERVICE COMPANY DAUPHIN,
BASIC RESOURCES CORPORATION,CORPORATION,DE,,,,PA 19109-0 PHILADELPHIA,"C/O C T CORP. SYSTEM, 123 S. BROAD ST.",PHILADELPHIA,,617417,,,"C/O C T CORP. SYSTEM, 123 S. BROAD ST. PHILADELPHIA PA 19109-0 PHILADELPHIA",
THE ALLEGHENY CHAPTER OF THE DOOR AND HARDWARE INSTITUTE,NONPROFIT,PA,,,,PA 15102-0 ALLEGHENY,2101 HILLCREST ST,BETHEL PARK,,617418,,,2101 HILLCREST ST BETHEL PARK PA 15102-0 ALLEGHENY,
"COUNTRY SKI SHOP, INC.",CORPORATION,NAN,836 BROAD ST,MONTOURSVILLE,,PA 17754-0 LYCOMING,836 BROAD ST.,MONTOURSVILLE,,617419,EDWARD J OSHEA,TREASURER,836 BROAD ST. MONTOURSVILLE PA 17754-0 LYCOMING,836 BROAD ST MONTOURSVILLE PA 17754-2439
"COUNTY AMBULANCE SERVICE, INC.",CORPORATION,NAN,,,,PA 15074-0 ARMSTRONG,437 HARMONY AVE,ROCHESTER,,617420,,,437 HARMONY AVE ROCHESTER PA 15074-0 ARMSTRONG,
"INDUSTRIAL NAMEPLATE, INC.",CORPORATION,PA,29 INDIAN DR,IVYLAND,,PA 18974-0 CHESTER,29 INDIAN DR,IVYLAND,,617422,JOHN STITZER,PRESIDENT,29 INDIAN DR IVYLAND PA 18974-0 CHESTER,29 INDIAN DR IVYLAND PA 18974-1430
LANCASTER BAPTIST TEMPLE,NONPROFIT,NAN,,,,PA 17543-0 LANCASTER,21 N. SPRUCE ST.,LITITZ,,617423,,,21 N. SPRUCE ST. LITITZ PA 17543-0 LANCASTER,
J.G. ARCHIBALD CO.,CORPORATION,NAN,R D 1,DALTON,,,,,,617424,JOHN G ARCHIBALD,TREASURER,R.D. 1 DALTON PA 18414-0 LACKAWANNA,R D 1 DALTON PA 18414-35
R-C RIDING ACADEMY,NONPROFIT,NAN,,,,,,,,617425,,,RIDLEY CREEK ST PARK SYCAMORE MILLS RD MEDIA PA 19063-0 DELAWARE,
"LAKELAND NORTH ASSOCIATION, INC.",NONPROFIT,PA,,,,PA,16 LAKELAND,NORTH LAKE ARIEL,,617426,,,16 LAKELAND NORTH LAKE ARIEL PA 18436-0 WAYNE,
"ANDORRA MEAT MARKET, INC.",CORPORATION,NAN,,,,PA 19128-0 PHILADELPHIA,8919 RIDGE AVE,PHILA,,617428,,,8919 RIDGE AVE PHILA PA 19128-0 PHILADELPHIA,
"TECHNOSCI, INC.",CORPORATION,NAN,,,,PA,"PO BOX 337, 145 BALTIMORE ST",GETTYSBURG,,617429,,,"PO BOX 337, 145 BALTIMORE ST GETTYSBURG PA 17325-0 ADAMS",
"BOOTHBY'S SEAFOOD RESTAURANT, INC.",CORPORATION,PA,,,,PA 19140-0 PHILADELPHIA,3700-02 NORTH RANDOLPH STREET,PHILADELPHIA,,617430,,,3700-02 NORTH RANDOLPH STREET PHILADELPHIA PA 19140-0 PHILADELPHIA,
"STUDIO 33, INC.",CORPORATION,NAN,,,,PA 19107-0 PHILADELPHIA,319 S CAMAS ST,PHILADELPHIA,,617431,,,319 S CAMAS ST PHILADELPHIA PA 19107-0 PHILADELPHIA,
LARMEL HOLDING CORPORATION,CORPORATION,NAN,,,,,,,,617432,,,APT 1B 1700 BUTLER PIKE C/O CHERYL BRAAT Z PLYMOUTH TWP PA 0 -0 MONTGOMERY,
BLUE STAR INSURANCE MANAGERS INC,CORPORATION,UT,535 S 960 E 200,SALT LAKE CI,,,,,,617433,KENNETH PALMER SR,PRESIDENT,%CORPORATION SERVICE COMPANY DAUPHIN,535 S 960 E 200 SALT LAKE CI UT 84117
"CLYDE O. BLACK, INC.",CORPORATION,NAN,,,,PA,409 WATER ST.,ROARING SPRING,,617434,,,409 WATER ST. ROARING SPRING PA 16673-0 BLAIR,
"ADVANCED WELDING, INC.",CORPORATION,NAN,,,,PA 15203-0 ALLEGHENY,1500 BINGHAM ST.,PITTSBURGH,,617435,,,1500 BINGHAM ST. PITTSBURGH PA 15203-0 ALLEGHENY,
"DORAN & ASSOCIATES, INC.",CORPORATION,NAN,750 WASHINGTON RD,PITTSBURGH,,PA 15220-0 ALLEGHENY,200 ROESSLER ROAD,PITTSBURGH,,617436,WELDON C DORAN JR,PRESIDENT,200 ROESSLER ROAD PITTSBURGH PA 15220-0 ALLEGHENY,750 WASHINGTON RD PITTSBURGH PA 15228-2051
WEST VENDING CO.,CORPORATION,NAN,,,,PA,1139 S. 58TH ST.,PHILA,,617437,,,1139 S. 58TH ST. PHILA PA 0 -0 PHILADELPHIA,
"THIRD EYE INFORMATION CONSULTANTS, LLC",LLC,PA,,,,PA,1504 WHARTON ST,PHILADELPHIA,19146,617438,,,1504 WHARTON ST PHILADELPHIA PA 19146 PHILADELPHIA,
"LANDWHALE, LTD.",CORPORATION,NAN,,,,,,,,617439,,,"APT. H-201, VALLEY STREAM APTS., RT. 463 & LINE ST. LANSDALE PA 19446-0 MONTGOMERY",
"USI INSURANCE SERVICES OF RHODE ISLAND, INC.",CORPORATION,RI,555 PLEASANTVILLE ROAD555 PLEASANTVILLE ROAD,BRIARCLIFF MANOR,,,,,,617441,TIMOTVIY MURRAY,PRESIDENT,CT CORPORATION SYSTEM PA PHILADELPHIA,555 PLEASANTVILLE ROAD555 PLEASANTVILLE ROAD BRIARCLIFF MANOR NY 10510
"ELECTROCARD, INC.",CORPORATION,NAN,7202 HIBBS LN,LEVITTOWN,,PA,"SUITE 102, NESHAMINY PLAZA, BRISTOL PIKE & STREET ROAD",CORNWELLS,,617442,LESTER FORAKER,PRESIDENT,"SUITE 102, NESHAMINY PLAZA, BRISTOL PIKE & STREET ROAD CORNWELLS PA 19020-0 BUCKS",7202 HIBBS LN LEVITTOWN PA 19057-4307
"R. V. BOLTZ HOLDINGS, INC.",CORPORATION,NAN,45 GUILFORD ST,LEBANON,,PA 17042-0 LEBANON,35 MINE RD,LEBANON,,617443,BOLTZ ROBERT,TREASURER,35 MINE RD LEBANON PA 17042-0 LEBANON,45 GUILFORD ST LEBANON PA 17046-3849
"RITE-ODOR SANITATION SERVICES, INC.",CORPORATION,PA,,,,PA 19026-0 DELAWARE,3991 VERNON,DREXEL HILL,,617444,,,3991 VERNON DREXEL HILL PA 19026-0 DELAWARE,
"HANOVER STREET ROD ASSOCIATION, INCORPORATED",NONPROFIT,NAN,,,,PA 17331-0 YORK,R.D.#4 EVERGREEN DRIVE,HANOVER,,617445,,,R.D.#4 EVERGREEN DRIVE HANOVER PA 17331-0 YORK,
"HOUCK & COMPANY, INC.",CORPORATION,PA,7464 LINGLESTOWN RD,HARRISBURG,17112,PA,7464 LINGLESTOWN ROAD,HARRISBURG,17112,617446,STEVE ROYER,VICEPRESIDENT,7464 LINGLESTOWN ROAD HARRISBURG PA 17112 DAUPHIN,7464 LINGLESTOWN RD HARRISBURG PA 17112-9432
QUEMAHONING COAL PROCESSING COMPANY,CORPORATION,PA,CO CBS CORPORATION TA 51 WEST 52ND STREET,NEW YORK,,,,,,617447,W F RYAN,TREASURER,"%THE PRENTICE-HALL CORPORATION SYSTEM, INC. PHILADELPHIA",CO CBS CORPORATION TA 51 WEST 52ND STREET NEW YORK NY 10019
"CENTRAL PARK AUTO SALES, INC.",CORPORATION,NAN,1949 RAVENWOOD DR,BETHLEHEM,,PA 18018-0 NORTHAMPTON,2157 W BROAD ST,BETHLEHEM,,617448,RICHARD J KEREOZ,PRESIDENT,2157 W BROAD ST BETHLEHEM PA 18018-0 NORTHAMPTON,1949 RAVENWOOD DR BETHLEHEM PA 18018-1534
"ZERBE SISTERS NURSING CENTER, INC.",CORPORATION,NAN,2499 ZERBE RD,NARVON,,,,,,617449,NANCY A CAFFREYSHAFER,PRESIDENT,RD 1 NARVON PA 17555-0 LANCASTER,2499 ZERBE RD NARVON PA 17555-9328
"5329 WEST, INC.",CORPORATION,NAN,5329 MARKET ST,PHILADELPHIA,,PA 19139-0 PHILADELPHIA,5327 MARKET STREET,PHILADELPHIA,,617450,ROBERT L ROGER,PRESIDENT,5327 MARKET STREET PHILADELPHIA PA 19139-0 PHILADELPHIA,5329 MARKET ST PHILADELPHIA PA 19139-3320
"SCHANTZ, HORACE W. FUNERAL HOME, INC.",CORPORATION,NAN,250 MAIN ST,EMMAUS,18049-0,PA,250 MAIN STREET,EMMAUS,18049-0,617451,WALKER SCHANTZ,PRESIDENT,250 MAIN STREET EMMAUS PA 18049-0 LEHIGH,250 MAIN ST EMMAUS PA 18049-2703
"COMCO, INCORPORATED",CORPORATION,PA,,,,PA 15205-0 ALLEGHENY,10 MIDDLE STREET,PITTSBURGH,,617453,,,10 MIDDLE STREET PITTSBURGH PA 15205-0 ALLEGHENY,
"MCGUANE, H. B. INC.",CORPORATION,NAN,,,,PA 15071-0 ALLEGHENY,"BOX 218,",NOBLESTOWN RD OAKDALE,,617454,,,"BOX 218, NOBLESTOWN RD OAKDALE PA 15071-0 ALLEGHENY",
"LEPA, INC.",CORPORATION,PA,,,,PA 18794-0 LUZERNE,635 CHARLES AVE,KINGSTON,,617455,,,635 CHARLES AVE KINGSTON PA 18794-0 LUZERNE,
CHILDREN'S LOBBY OF WESTERN PENNSYLVANIA,NONPROFIT,NAN,,,,PA 15213-0 ALLEGHENY,4401 FIFTH AVE,PITTSBURGH,,617456,,,4401 FIFTH AVE PITTSBURGH PA 15213-0 ALLEGHENY,
"K. B. LEE M.D., ASSOCIATES",CORPORATION,NAN,2 E BROAD ST STE 514,HAZLETON,,PA 18201-0 LUZERNE,1751 EAST BROAD STREET,HAZLETON,,617457,YOUNG R LEE,SECRETARY,1751 EAST BROAD STREET HAZLETON PA 18201-0 LUZERNE,2 E BROAD ST STE 514 HAZLETON PA 18201-40
"GALLO AUTO SERVICE, INC.",CORPORATION,NAN,,,,PA 15215-0 ALLEGHENY,113 NORTH CANAL STREET,SHARPSBURG,,617458,,,113 NORTH CANAL STREET SHARPSBURG PA 15215-0 ALLEGHENY,
"EIA CONSTRUCTION DIVISION, INC.",CORPORATION,NJ,8 CEDAR,KNOLLS,17102,PA,2001 NORTH FRONT ST,HARRISBURG,17102,617459,GAETANO CIPRIANO,PRESIDENT,2001 NORTH FRONT ST HARRISBURG PA 17102 DAUPHIN,8 CEDAR KNOLLS NJ 07927
"ALAN, LARRY INC.",CORPORATION,NAN,,,,PA 19107-0 PHILADELPHIA,1312 WALNUT STREET,PHILADELPHIA,,617460,,,1312 WALNUT STREET PHILADELPHIA PA 19107-0 PHILADELPHIA,
"HOURLY EMPLOYEES OF LAVA SOCIAL CLUB, INC.",NONPROFIT,NAN,,,,,,,,617461,,,"JO DEENER DR., R.D. 2 ZELIENOPLE PA 0 -0 BUTLER",
"SI GELLA MANAGEMENT, LLC",LLC,PA,,,,PA,205 TAUNTON DRIVE,CARLISLE,17013,617462,,,205 TAUNTON DRIVE CARLISLE PA 17013 CUMBERLAND,
"STEEL SERVICE & INSTALLATION, INC.",CORPORATION,NAN,,,,,,,,617463,,,600 DEKALB PIKE KING OF PRUSSIA PA 0 -0 MONTGOMERY,
"PRESCIENT APPLIED INTELLIGENCE, INC.",CORPORATION,DE,1247 WARD AVE STE 200,WEST CHESTER,19380,PA,1247 WARD AVE,WEST CHESTER,19380,617465,THOMAS AIKEN,VICEPRESIDENT,1247 WARD AVE WEST CHESTER PA 19380 CHESTER,1247 WARD AVE STE 200 WEST CHESTER PA 19380-15
"GOOD DAY ENTERPRISES, INC.",CORPORATION,PA,,,,PA,612 BRENDA LANE,NORRISTOWN,,617466,,,612 BRENDA LANE NORRISTOWN PA 0 -0 MONTGOMERY,
SUMMIT LODGE MASONIC HALL ASSOCIATION,NONPROFIT,PA,,,,,,,,617467,,,MASONIC BLDG HIGH & CENTER STS EBENSBURG PA 15931-0 CAMBRIA,
"KEYSTONE IRON & METAL CO., INC.",CORPORATION,PA,4903 E CARSON ST,PITTSBURGH,,PA 15207-0 ALLEGHENY,4903 EAST CARSON STREET,PITTSBURGH,,617468,MARY L THOMPSON,TREASURER,4903 EAST CARSON STREET PITTSBURGH PA 15207-0 ALLEGHENY,4903 E CARSON ST PITTSBURGH PA 15207-1943
"HARRISVILLE HOSPITALITY MANAGEMENT, LLC",LLC,PA,,,,PA,1010 DHOLU RD,HARRISVILLE,16038,617469,,,1010 DHOLU RD HARRISVILLE PA 16038 BUTLER,
ACCUPROBE INVESTIGATION AND ADJUSTMENT BUREAU INC.,CORPORATION,NAN,C/O MRS. STUCATUR 4203 GREENMOUNT RD.,PHILADELPHIA,16038,,,,,617470,IRVIN A STUCATUR,PRESIDENT,"1605 PHILADELPHIA SAVING FUND BLDG., 12 SOUTH 12TH STREET PHILADELPHIA PA 19107-0 PHILADELPHIA",C/O MRS. STUCATUR 4203 GREENMOUNT RD. PHILADELPHIA PA 19154-51
"LYONS FABRICATORS, INC.",CORPORATION,NAN,,,,PA 18001-0 NORTHAMPTON,COLONY DR INDUSTRIAL PARK PO BOX 2484,BETHLEHEM,,617471,,,COLONY DR INDUSTRIAL PARK PO BOX 2484 BETHLEHEM PA 18001-0 NORTHAMPTON,
"WASHINGTON CENTER FOR DESIGN, LTD.",CORPORATION,NAN,,,,PA 15301-0 WASHINGTON,125 S COLLEGE STREET,WASHINGTON,,617472,,,125 S COLLEGE STREET WASHINGTON PA 15301-0 WASHINGTON,
"MUTEN FOOD SERVICE OF PA., INC.",CORPORATION,NAN,,,,,,,,617473,,,R.D. #1 KENNETT SQUARE PA 18042-0 CHESTER,
MAYNARD CONSTRUCTION CO.,CORPORATION,NAN,3524 COTTMAN AVE,PHILADELPHIA,,PA,837 STATE ROAD,ANDALUSIA,,617474,DENNIS SIGOVICH,PRESIDENT,837 STATE ROAD ANDALUSIA PA 19020-0 BUCKS,3524 COTTMAN AVE PHILADELPHIA PA 19149-51
HAMPDEN TOWNSHIP AMBULANCE ASSOCIATION,NONPROFIT,NAN,,,,PA 17055-0 CUMBERLAND,230 SOUTH SPORTING HILL ROAD,MECHANICSBURG,,617476,,,230 SOUTH SPORTING HILL ROAD MECHANICSBURG PA 17055-0 CUMBERLAND,
MIDDLETOWN TAXI COMPANY,CORPORATION,NAN,,,,PA 17057-0 DAUPHIN,117 E. MAIN ST.,MIDDLETOWN,,617477,,,117 E. MAIN ST. MIDDLETOWN PA 17057-0 DAUPHIN,
"WEIDHAAS ENTERPRISES, INC.",CORPORATION,NAN,,,,PA 16926-0 BRADFORD,R.D. #1,GRANVILLE SUMMIT,,617479,,,R.D. #1 GRANVILLE SUMMIT PA 16926-0 BRADFORD,
AMERICAN REFUSE INCINERATION COMPANY,CORPORATION,NAN,,,,PA 17108-0 DAUPHIN,1801 NORTH FRONT ST,HARRISBURG,,617480,,,1801 NORTH FRONT ST HARRISBURG PA 17108-0 DAUPHIN,
"CONTROL TECHNOLOGY, INC.",CORPORATION,PA,C/O 924 N WASHINGTN RD,MCMURRAY,,PA 15317-0 WASHINGTON,924 N WASHINGTON RD,MCMURRAY,,617481,FRANK J HEMSHER,SECRETARY,924 N WASHINGTON RD MCMURRAY PA 15317-0 WASHINGTON,C/O 924 N WASHINGTN RD MCMURRAY PA 15317-63
"PITTSBURGH REAL ESTATE & INVESTMENT EXCHANGE, INC.",CORPORATION,NAN,,,,PA 15237-0 ALLEGHENY,1017 PERRY HIGHWAY,PITTSBURGH,,617482,,,1017 PERRY HIGHWAY PITTSBURGH PA 15237-0 ALLEGHENY,
"2ND OFFICE, INC.",CORPORATION,PA,,,,PA 19107-0 PHILADELPHIA,1323-27 RACE ST,PHILADELPHIA,,617485,,,1323-27 RACE ST PHILADELPHIA PA 19107-0 PHILADELPHIA,
AMBERWOOD CORPORATION,CORPORATION,NAN,,,,,,,,617486,,,"BOX 704, RD #2 HALIFAX PA 17032-0 DAUPHIN",
"TYRONE & MICHAEL'S GOLDEN GLOVE, INC.",CORPORATION,NAN,,,,PA 19146-0 PHILADELPHIA,1547 S. 31ST ST.,PHILA,,617487,,,1547 S. 31ST ST. PHILA PA 19146-0 PHILADELPHIA,
"VIZTEK ENTERPRISES, INC.",CORPORATION,NAN,,,,PA,13540 PHILMONT AVE,PHILA,,617488,,,13540 PHILMONT AVE PHILA PA 0 -0 PHILADELPHIA,
"421 MARIO'S PLACE, INC,",CORPORATION,NAN,,,,PA 19133-0 PHILADELPHIA,421 WEST CUMBERLAND STREET,PHILADELPHIA,,617489,,,421 WEST CUMBERLAND STREET PHILADELPHIA PA 19133-0 PHILADELPHIA,
BARTLETT EXPLORATION ASSOCIATION,CORPORATION,NAN,,,,,,,,617490,,,WYNNEWOOD PARK APTS. 18H WYNNEWOOD PA 19096-0 NORTHAMPTON,
THE DONESCO - HARTWELL COMPANY,CORPORATION,PA,PO BOX 216,LAFAYETTE HL,19462,PA,350 STENTON AVE,PLYMOUTH MEETING,19462,617491,DONALD COHAN,PRESIDENT,350 STENTON AVE PLYMOUTH MEETING PA 19462 MONTGOMERY,PO BOX 216 LAFAYETTE HL PA 19444-0216
"NATIONAL MAINTENANCE & BUILD OUT COMPANY, LLC",LLC,DE,,,,PA,48-A VINCENT CIRCLE,IVYLAND,18974,617492,,,48-A VINCENT CIRCLE IVYLAND PA 18974 BUCKS,
"CALVIN C. RUSH, M.D. ASSOC.",CORPORATION,NAN,270 W WAYNE ST,WAYNESBURG,15370-0,PA,106 W. GREENE ST,WAYNESBURG,15370-0,617493,JOANNE D RUSH,SECRETARY,106 W. GREENE ST WAYNESBURG PA 15370-0 GREENE,270 W WAYNE ST WAYNESBURG PA 15370-30
"BERKS ELECTRIC APPLIANCE REPAIR, INC.",CORPORATION,NAN,C/O VICTORIA DAMIANO 529 CHERRY ST,READING,,PA,115 S 5TH STREET,READING,,617496,VICTORIA DAMIANO,VICEPRESIDENT,115 S 5TH STREET READING PA 19602-0 BERKS,C/O VICTORIA DAMIANO 529 CHERRY ST READING PA 19602-06
FIFTY ONE HUNDRED CORP.,CORPORATION,NAN,,,,,,,,617497,,,"C/O HENRY A VANCE, CPA, 179 WASHINGTON L ANE JENKINTOWN PA 19046-0 MONTGOMERY",
BERKS TRADING CORP.,CORPORATION,NAN,,,,PA,221 NORTH SIXTH STREET,READING,,617498,,,221 NORTH SIXTH STREET READING PA 19601-0 BERKS,
"EDWARD LLOYD WILLIAMSON, M.D. (A PROFESSIONAL CORPORATION)",CORPORATION,NAN,426 PELLIS RD,GREENSBURG,,,,,,617499,EDWARD L WILLIAMSON,TREASURER,"AMBULATORY CARE CENTER, LATROBE AREA HOS PITAL LATROBE PA 15650-0 WESTMORELAND",426 PELLIS RD GREENSBURG PA 15601-4574
"ROBERT C. & BROWN SON, INC.",CORPORATION,NAN,1684 RT 110 HWY,INDIANA,,PA 15701-0 INDIANA,RD 1 BOX 331,INDIANA,,617500,VIOLA R BROWN,SECRETARY,RD 1 BOX 331 INDIANA PA 15701-0 INDIANA,1684 RT 110 HWY INDIANA PA 15701-32
"YARBOROUGH DEVELOPMENT, INC.",CORPORATION,PA,1700 WASHINGTON BLVD,MCKEESPORT,,PA 15133-0 ALLEGHENY,1700 WASHINGTON BLVD,MCKEESPORT,,617501,R LEE TOTTY,VICEPRESIDENT,1700 WASHINGTON BLVD MCKEESPORT PA 15133-0 ALLEGHENY,1700 WASHINGTON BLVD MCKEESPORT PA 15133-3718
"1257 PRATT, INC.",CORPORATION,NAN,,,,PA 19120-0 PHILADELPHIA,126 E ELEANOR STREET,PHILADELPHIA,,617502,,,126 E ELEANOR STREET PHILADELPHIA PA 19120-0 PHILADELPHIA,
"VASIL'S BEAUTY SALON, INC.",CORPORATION,PA,,,,PA 19131-0 PHILADELPHIA,2733 CRANSTON RD,PHILADELPHIA,,617503,,,2733 CRANSTON RD PHILADELPHIA PA 19131-0 PHILADELPHIA,
"PEPPERMILL, INC.",CORPORATION,NAN,,,,PA 17067-0 LEBANON,55 WEST MAIN AVENUE,MYERSTOWN,,617504,,,55 WEST MAIN AVENUE MYERSTOWN PA 17067-0 LEBANON,
THE ERIE CIVIC ORCHESTRA,NONPROFIT,NAN,,,,PA,1217 ARIS DR,ERIE,,617505,,,1217 ARIS DR ERIE PA 16506-0 ERIE,
ENDERS PLUMBING & HEATING CO.,CORPORATION,NAN,,,,PA 16201-0 ARMSTRONG,328 BLUFF STREET,KITTANNING,,617506,LISA ENDERS,TREASURER,328 BLUFF STREET KITTANNING PA 16201-0 ARMSTRONG,
"CHROMATEX, INC.",CORPORATION,NJ,PO BOX 388,LOOKOUT MOUNTAIN,,,,,,617508,W FRANK HUTCHESON,PRESIDENT,%CT CORPORATION SYSTEM PHILADELPHIA,PO BOX 388 LOOKOUT MOUNTAIN TN 37350-0388
GARNET VALLEY RECREATION ASSOCIATION,NONPROFIT,NAN,,,,PA 19017-0 DELAWARE,35 WENDY LANE,GLEN MILLS,,617509,,,35 WENDY LANE GLEN MILLS PA 19017-0 DELAWARE,
HAPCO,NONPROFIT,PA,,,,PA,2101 CHESTNUT ST STE 1615,PHILADELPHIA,19103,617510,,,2101 CHESTNUT ST STE 1615 PHILADELPHIA PA 19103 PHILADELPHIA,
"SABO, JOSEPH R. M.D., LTD",CORPORATION,PA,1184 OLD MILLER RD,HASTINGS,,PA 16646-0 CAMBRIA,RR#1 BOX 183AAA,HASTINGS,,617511,JOSEPH R SABO,PRESIDENT,"RR#1 BOX 183AAA HASTINGS, PA 16646-0 CAMBRIA",1184 OLD MILLER RD HASTINGS PA 16646-11
"EMBURG TRAFFIC SERVICES, INC.",CORPORATION,PA,,,,PA 19083-0 DELAWARE,33 FULMER AVE,HAVERTOWN,,617512,,,33 FULMER AVE HAVERTOWN PA 19083-0 DELAWARE,
"M*PACK, LLC",LLC,PA,,,,PA,119 MILTON CIRCLE,LITITZ,17543,617513,,,119 MILTON CIRCLE LITITZ PA 17543 LANCASTER,
"MIRABILE BUCKS, INC.",CORPORATION,PA,STE 150 190 W GERMANTOWN PIKE,NORRISTOWN,,PA 19401-0 MONTGOMERY,115 W GERMANTOWN PIKE STE 100,NORRISTOWN,,617514,MARY GIAIMO,PRESIDENT,115 W GERMANTOWN PIKE STE 100 NORRISTOWN PA 19401-0 MONTGOMERY,STE 150 190 W GERMANTOWN PIKE NORRISTOWN PA 19401-46
"FALLSINGTON AUTO SALVAGE CO., INC.",CORPORATION,NAN,,,,PA,"RT 1, PO BOX 74",MORRISVILLE,,617515,,,"RT 1, PO BOX 74 MORRISVILLE PA 19067-0 BUCKS",
"C AND Y GENERAL CONTRACTORS, INC.",CORPORATION,NAN,,,,PA,"R.D. #1, QUAKAKE-BEAVER MEADOWS RD.",WEATHERLY,18255-0,617516,,,"R.D. #1, QUAKAKE-BEAVER MEADOWS RD. WEATHERLY PA 18255-0 CARBON",
"WEIMER COAL CO., INC.",CORPORATION,PA,,,,PA 15748-0 INDIANA,"RD 2, BOX 222A",HOMER CITY,,617517,,,"RD 2, BOX 222A HOMER CITY PA 15748-0 INDIANA",
"C & R BULK TRANSPORT, INC.",CORPORATION,NAN,,,,PA 15701-0 INDIANA,"BOX 185 A, R.D.#3",INDIANA,,617518,,,"BOX 185 A, R.D.#3 INDIANA PA 15701-0 INDIANA",
"LOUIS J SPORTSWEAR, INC.",CORPORATION,PA,247 S MAIN ST,PITTSTON,,PA 18640-0 LUZERNE,247 S. MAIN ST.,PITTSTON,,617519,LEO GUTSTEIN,PRESIDENT,247 S. MAIN ST. PITTSTON PA 18640-0 LUZERNE,247 S MAIN ST PITTSTON PA 18640-40
CAMP DIMENSION INC,NONPROFIT,NAN,,,,PA 19128-0 PHILADELPHIA,641 E. SHAWMONT AVE.,PHILA,,617521,,,641 E. SHAWMONT AVE. PHILA PA 19128-0 PHILADELPHIA,
DEBORAH HOSPITAL FOUNDATION,NONPROFIT,NJ,,,,PA 19103-0 PHILADELPHIA,1721 ARCH ST,PHILA,,617522,,,1721 ARCH ST PHILA PA 19103-0 PHILADELPHIA,
"VILLAGE SQUARE PHARMACY, INC.",CORPORATION,NAN,,,,PA,"VILLAGE SQUARE SHOPPING CENTER, N 5TH ST & BLOOMING GLEN RD",PERKASIE,,617523,,,"VILLAGE SQUARE SHOPPING CENTER, N 5TH ST & BLOOMING GLEN RD PERKASIE PA 18960-0 BUCKS",
"THOMPSON-PENN TWP, LP",PARTNERSHIP,PA,1301 LANCASTER AVENUE,BERWYN,19312,PA,1301 LANCASTER AVENUE,BERWYN,19312,617526,"THOMPSON-PENN TWP GP, INC.",GENPARTNER,1301 LANCASTER AVENUE BERWYN PA 19312 CHESTER,1301 LANCASTER AVENUE BERWYN PA 19312
"SMITSKY, CARL K. INC.",CORPORATION,NAN,,,,,,,,617528,,,R.D. #1 HICKORY PA 15340-0 WASHINGTON,
"INTERNATIONAL HAIR PRODUCTS, INC.",CORPORATION,NAN,,,,PA 15232-0 ALLEGHENY,5120 CENTRE AVE,PITTSBURGH,,617529,,,5120 CENTRE AVE PITTSBURGH PA 15232-0 ALLEGHENY,
"ENVIRO-FUEL, INC.",CORPORATION,NAN,,,,,,,,617530,,,"R. D. #1, PO BOX 211 PEN ARGYL PA 18072-0 NORTHAMPTON",
"MEMORIAL MINDERS, INC.",CORPORATION,NAN,,,,PA 15906-0 CAMBRIA,900 BROAD STREET,JOHNSTOWN,,617531,,,900 BROAD STREET JOHNSTOWN PA 15906-0 CAMBRIA,
CENTRAL SUSQUEHANNA VALLEY INTER FAITH COUNCIL,NONPROFIT,PA,,,,PA 17801-0 NORTHUMBERLAND,900 SUSQUEHANNA AVE.,SUNBURY,,617532,,,900 SUSQUEHANNA AVE. SUNBURY PA 17801-0 NORTHUMBERLAND,
RONTINA INC.,CORPORATION,PA,921 N 4TH ST,OLEAN,16701-0,PA,38 FOSTER BROOOK BLVD,BRADFORD,16701-0,617533,RONALD CECCHI,PRESIDENT,38 FOSTER BROOOK BLVD BRADFORD PA 16701-0 MCKEAN,921 N 4TH ST OLEAN NY 14760-1242
VINTAGE TIN OF WESTERN PENNSYLVANIA,NONPROFIT,PA,,,,PA,307 KENNEDY AVE,DUQUESNE,15110,617534,,,307 KENNEDY AVE DUQUESNE PA 15110 ALLEGHENY,
INTERNATIONAL MARTIAL ARTS FEDERATION,NONPROFIT,NAN,,,,PA,2506 MEREDITH ST.,PHILA,,617535,,,2506 MEREDITH ST. PHILA PA 0 -0 PHILADELPHIA,
"RUBY LEES, INC.",CORPORATION,NAN,,,,PA 19133-0 PHILADELPHIA,311 W SOMERSET ST,PHILADELPHIA,,617536,,,311 W SOMERSET ST PHILADELPHIA PA 19133-0 PHILADELPHIA,
"CHESTER COMMUNITY HEALTH CENTER, INC.",CORPORATION,NAN,,,,PA 19063-0 DELAWARE,214 NORTH JACKSON STREET,MEDIA,,617537,,,214 NORTH JACKSON STREET MEDIA PA 19063-0 DELAWARE,
"SUNRISE BICYCLE SHOPS, INC.",CORPORATION,NAN,,,,PA 17801-0 NORTHUMBERLAND,21 S 4TH ST,SUNBURY,,617538,,,21 S 4TH ST SUNBURY PA 17801-0 NORTHUMBERLAND,
"REXROTH TRUCKING, INC.",CORPORATION,NAN,,,,PA 15541-0 SOMERSET,R.D. #2,FRIEDENS,,617539,,,R.D. #2 FRIEDENS PA 15541-0 SOMERSET,
"DI-JO, INC.",CORPORATION,NAN,,,,PA,540 SOUTH PIKE ROAD,SARVER,16055-0,617540,,,540 SOUTH PIKE ROAD SARVER PA 16055-0 BUTLER,
LAND USE TASK FORCE,NONPROFIT,NAN,,,,PA,RD 2,DOYLESTOWN,,617541,,,RD 2 DOYLESTOWN PA 18912-0 BUCKS,
"LOUIS, ADAM REALTY, INC.",CORPORATION,NAN,C/O ADAM KAUFFMAN PO BOOX 419,DOWNINGTOWN,,PA 19335-0 CHESTER,"R.D. #2, CREEK RD.",DOWNINGTOWN,,617542,ADAM L KAUFFMAN,PRESIDENT,"R.D. #2, CREEK RD. DOWNINGTOWN PA 19335-0 CHESTER",C/O ADAM KAUFFMAN PO BOOX 419 DOWNINGTOWN PA 19335-15
"MAX CONSTRUCTION, INC.",CORPORATION,NAN,,,,PA,28 N 7TH ST,STROUDSBURG,,617543,,,28 N 7TH ST STROUDSBURG PA 0 -0 MONROE,
"MON-YOUGH COMMUNITY MENTAL HEALTH AND MENTAL RETARDATION SERVICES, INC.",NONPROFIT,NAN,,,,PA 15132-0 ALLEGHENY,515 SINCLAIR ST,MCKEESPORT,,617544,,,515 SINCLAIR ST MCKEESPORT PA 15132-0 ALLEGHENY,
SMALL MANUFACTURING COMPANY,CORPORATION,NAN,,,,,,,,617545,,,FRANKLIN AND CHEW STREETS ALLENTOWN PA 18102-0 LEHIGH,
CARMAN-BENSON EQUIPMENT CORPORATION,CORPORATION,NAN,56 SEXTON RD,MCKEES ROCKS,,PA 15136-0 ALLEGHENY,56 SEXTON RD,MCKEES ROCKS,,617546,CLAUDE BORRACCINI,PRESIDENT,56 SEXTON RD MCKEES ROCKS PA 15136-0 ALLEGHENY,56 SEXTON RD MCKEES ROCKS PA 15136-02
"MILL ROAD NURSERIES, INC.",CORPORATION,NAN,,,,,,,,617547,,,351 ROSS ROAD KING OF PRUSSIA PA 19406-0 MONTGOMERY,
"NEWTOWN PROPERTIES, INC.",CORPORATION,NAN,,,,PA,9602 BUSTLETON AVE.,PHILADELPHIA,,617549,,,9602 BUSTLETON AVE. PHILADELPHIA PA 0 -0 PHILADELPHIA,
THE ALL-AMERICAN FOUR WHEEL DRIVE CLUB,NONPROFIT,PA,,,,PA,1 E. MAIN ST.,BROOKVILLE,,617550,,,1 E. MAIN ST. BROOKVILLE PA 0 -0 JEFFERSON,
"A. A. COATES, INC.",CORPORATION,NAN,5837 N 2ND ST,PHILADELPHIA,,PA 19120-0 PHILADELPHIA,5837 NORTH 2ND STREET,PHILADELPHIA,,617551,MARY D COATES,SECRETARY,5837 NORTH 2ND STREET PHILADELPHIA PA 19120-0 PHILADELPHIA,5837 N 2ND ST PHILADELPHIA PA 19120-51
"PERSONAL EMPLOYMENT SERVICE, INC.",CORPORATION,NAN,,,,PA,7600 ROUTE 13,LEVITTOWN,,617552,,,7600 ROUTE 13 LEVITTOWN PA 19057-0 BUCKS,
"DEBLAR ENTERPRISES, INC.",CORPORATION,PA,385 LUTZ RUN ROAD,BELLE VERNON,,PA 15012-0 ALLEGHENY,385 LUTZ RUN RD,BELLE VERNON,,617553,LAURENCE A BUJDOS,PRESIDENT,385 LUTZ RUN RD BELLE VERNON PA 15012-0 ALLEGHENY,385 LUTZ RUN ROAD BELLE VERNON PA 15012-26
"KOHLER PLUMBING AND HEATING, INC.",CORPORATION,PA,,,,PA 17701-0 LYCOMING,215 E THIRD ST,WILLIAMSPORT,,617554,,,215 E THIRD ST WILLIAMSPORT PA 17701-0 LYCOMING,
"CENTURY PARKING, INC.",CORPORATION,NAN,2 ST JAMES CT,PHILADELPHIA,,PA 19106-0 PHILADELPHIA,2 ST JAMES COURT,PHILA,,617555,MARTIN G WEINBERG,PRESIDENT,2 ST JAMES COURT PHILA PA 19106-0 PHILADELPHIA,2 ST JAMES CT PHILADELPHIA PA 19106-51
LADIES AUXILIARY WESTFALL FIRE DEPARTMENT,NONPROFIT,NAN,,,,PA,PENNSYLVANIA AVE,MATAMORAS,18336-0,617557,,,PENNSYLVANIA AVE MATAMORAS PA 18336-0,
"EPOCH RESOURCES FUND, INC.",CORPORATION,MD,,,,PA 19001-0 MONTGOMERY,1309 HIGHLAND AVE,ABINGTON,,617558,,,1309 HIGHLAND AVE ABINGTON PA 19001-0 MONTGOMERY,
HALLS' GAS INC.,CORPORATION,NAN,619 DEAN ST,CONFLUENCE,,PA 15424-0 SOMERSET,841 ODEN ST,CONFLUENCE,,617559,VIVIAN HALL,VICEPRESIDENT,841 ODEN ST CONFLUENCE PA 15424-0 SOMERSET,619 DEAN ST CONFLUENCE PA 15424-56
"UNITED CARPET CLEANERS, INC.",CORPORATION,NAN,,,,,,,,617560,,,"C/O MCWILLIAMS & SWEENEY, 1 RADNOR STATI ON BLDG K OF PRUSSIA RD RADNOR PA 19087-0 DELAWARE",
"VALLEY FORGE INSULATORS, INC.",CORPORATION,PA,,,,PA 19407-0 MONTGOMERY,609 MORNING DOVE RD,AUDUBON,,617561,,,609 MORNING DOVE RD AUDUBON PA 19407-0 MONTGOMERY,
"GIRARD DISCOUNT AUTO PARTS, INC.",CORPORATION,PA,,,,PA 19123-0 PHILADELPHIA,941 SPRING GARDEN ST.,PHILADELPHIA,,617562,,,941 SPRING GARDEN ST. PHILADELPHIA PA 19123-0 PHILADELPHIA,
"LIN-RO, INC.",CORPORATION,NAN,311 N 4TH ST,WEST NEWTON,,,,,,617563,RONALD M ULANDER,PRESIDENT,"C/O CHARLES F. WADE, ESQ., 717 FIRST NAT 'L BANK BLDG GREENSBURG PA 15601-0 WESTMORELAND",311 N 4TH ST WEST NEWTON PA 15089-65
"CENTRAL PENN PET ENTERPRISES, INC.",CORPORATION,NAN,6210 CIDER PRESS RD,HARRISBURG,,PA 17111-0 DAUPHIN,6210 CIDAR PRESS RD,HARRISBURG,,617564,LEONA L SCHWAB,SECRETARY,6210 CIDAR PRESS RD HARRISBURG PA 17111-0 DAUPHIN,6210 CIDER PRESS RD HARRISBURG PA 17111-22
THE FEDERATION OF CLEFT PALATE CLINICS INC.,NONPROFIT,PA,,,,PA,657 MILLCROSS ROAD,LANCASTER,17601,617566,,,657 MILLCROSS ROAD LANCASTER PA 17601 LANCASTER,
SIMPSON-FLETCHER CONESTOGA COMMUNITY CORPORATION,NONPROFIT,PA,,,,PA 19131-0 PHILADELPHIA,CONESTOGA HOUSE 5353 W MASTER ST,PHILADELPHIA,,617567,,,CONESTOGA HOUSE 5353 W MASTER ST PHILADELPHIA PA 19131-0 PHILADELPHIA,
"STATES' RENTAL SERVICE, INC.",CORPORATION,NAN,1667 PHILADELPHIA ST,INDIANA,,PA 15701-0 INDIANA,1055 PHILADELPHIA ST,INDIANA,,617568,JEFFREY BISH,PRESIDENT,1055 PHILADELPHIA ST INDIANA PA 15701-0 INDIANA,1667 PHILADELPHIA ST INDIANA PA 15701-4032
"MARTIN'S 5 & 10, INC.",CORPORATION,NAN,,,,PA 19132-0 PHILADELPHIA,2230-32 N BROAD ST,PHILA,,617569,,,2230-32 N BROAD ST PHILA PA 19132-0 PHILADELPHIA,
ASTON CORPORATION,CORPORATION,NAN,201 WINDERMERE AVE,WAYNE,,PA 19014-0 DELAWARE,200 E DUTTON MILL ROAD,CHESTER,,617570,JEAN M WARRINGTON,VICEPRESIDENT,200 E DUTTON MILL ROAD CHESTER PA 19014-0 DELAWARE,201 WINDERMERE AVE WAYNE PA 19087-4111
L. F. CLARK INC.,CORPORATION,NAN,2367 SPRING VALLEY RD,LANCASTER,,PA 17603-0 LANCASTER,255 W KING ST,LANCASTER,,617571,STANLEY L SEACHRIST,TREASURER,255 W KING ST LANCASTER PA 17603-0 LANCASTER,2367 SPRING VALLEY RD LANCASTER PA 17601-2405
"PITTSBURGH INSURANCE CONSULTANTS, INC.",CORPORATION,NAN,,,,PA 15214-0 ALLEGHENY,357 CHAPIN ST.,PITTSBURGH,,617572,,,357 CHAPIN ST. PITTSBURGH PA 15214-0 ALLEGHENY,
"REAL-IS-STICKS, LTD.",CORPORATION,NAN,,,,,,,,617573,,,605 CITIZENS BANK BLDG HAZLETON PA 18201-0 LUZERNE,
"BLAIR MEDICORP, INC.",CORPORATION,NAN,,,,PA,E. FIRST AVE. & LLOYD ST.,ALTOONA,,617574,,,E. FIRST AVE. & LLOYD ST. ALTOONA PA 16603-0 BLAIR,
"CURTIS, INC.",CORPORATION,NAN,PO BOX 324,ELRAMA,,,,,,617575,GORDON L SMALL,PRESIDENT,CURRY INDUSTRIAL PARK CANONSBURG PA 15317-0 WASHINGTON,PO BOX 324 ELRAMA PA 15038-63
COVENANT BAPTIST CHURCH OF SCHUYLKILL COUNTY,NONPROFIT,NAN,,,,PA 17901-0 SCHUYLKILL,200 MAHANTONGO STREET,POTTSVILLE,,617577,,,200 MAHANTONGO STREET POTTSVILLE PA 17901-0 SCHUYLKILL,
"HIGHWAY MOTOR CLUB, INC.",CORPORATION,NJ,,,,PA 19141-0 PHILADELPHIA,5725 N. BROAD ST.,PHILA,,617578,,,5725 N. BROAD ST. PHILA PA 19141-0 PHILADELPHIA,
"MOBILE MEDICAL LABORATORY, INC.",CORPORATION,PA,,,,PA 19124-0 PHILADELPHIA,"3939 ""M"" ST.",PHILADELPHIA,,617579,,,"3939 ""M"" ST. PHILADELPHIA PA 19124-0 PHILADELPHIA",
MUMMA FUEL OIL & SERVICE CORPORATION,CORPORATION,NAN,,,,PA 17057-0 DAUPHIN,815 E MAIN ST,MIDDLETOWN,,617582,,,815 E MAIN ST MIDDLETOWN PA 17057-0 DAUPHIN,
MUMMA TRUCKING CORPORATION,CORPORATION,NAN,,,,PA 17057-0 DAUPHIN,815 E MAIN ST,MIDDLETOWN,,617583,,,815 E MAIN ST MIDDLETOWN PA 17057-0 DAUPHIN,
HELMUR APPAREL LTD.,CORPORATION,NAN,,,,PA,MOSS & DOUGLASS STS,READING,,617584,,,MOSS & DOUGLASS STS READING PA 0 -0 BERKS,
"PARK AVENUE MARKET, INC.",CORPORATION,PA,2468 PARK AVE,EASTON,18045,PA,2468 PARK AVE,EASTON,18045,617585,VICTOR W RICCI,PRESIDENT,2468 PARK AVE EASTON PA 18045 NORTHAMPTON,2468 PARK AVE EASTON PA 18045-2751
"STATION PLAZA DEVELOPMENT COMPANY, INC.",CORPORATION,NAN,,,,PA 18503-0 LACKAWANNA,"200 BANK TOWERS, WYOMING AVE & SPRUCE ST",SCRANTON,,617586,,,"200 BANK TOWERS, WYOMING AVE & SPRUCE ST SCRANTON PA 18503-0 LACKAWANNA",
"GRAPHICS CHEMICAL & EQUIPMENT, INC.",CORPORATION,NAN,,,,PA 18201-0 LUZERNE,22ND N VINE ST,HAZLETON,,617587,,,22ND N VINE ST HAZLETON PA 18201-0 LUZERNE,
"CREATIVE MEDIA OF BALA CYNWYD, INC.",CORPORATION,DE,260 LONG RIDGE RD,STAMFORD,,PA 19103-0 PHILADELPHIA,C/O C T CORPORATION SYSTEM 1635 MARKET STREET,PHILADELPHIA,,617588,MICHAEL J MORRIS,SECRETARY,C/O C T CORPORATION SYSTEM 1635 MARKET STREET PHILADELPHIA PA 19103-0 PHILADELPHIA,260 LONG RIDGE RD STAMFORD CT 06927
"SCAN DATA GRAPHICS, INC.",CORPORATION,NAN,32 GARRETT RD,UPPER DARBY,,PA 19082-0 DELAWARE,34 GARRETT RD,UPPER DARBY,,617590,JOSEPH C HALT,TREASURER,34 GARRETT RD UPPER DARBY PA 19082-0 DELAWARE,32 GARRETT RD UPPER DARBY PA 19082-23
"A B C MOVING AND STORAGE, INC.",CORPORATION,NAN,,,,PA 17033-0 DAUPHIN,513 W. CHOCOLATE AVE,HERSHEY,,617591,,,513 W. CHOCOLATE AVE HERSHEY PA 17033-0 DAUPHIN,
SQUARE CONSTRUCTION COMPANY,CORPORATION,NAN,,,,PA,"365 NEWTOWN RD., BOX C-19",WARMINSTER,,617592,,,"365 NEWTOWN RD., BOX C-19 WARMINSTER PA 18974-0 BUCKS",
"LINDLEY, INC.",CORPORATION,PA,,,,PA 19120-0 PHILADELPHIA,5314 N MASCHER ST,PHILADELPHIA,,617593,,,5314 N MASCHER ST PHILADELPHIA PA 19120-0 PHILADELPHIA,
"TERRI'S, INC.",CORPORATION,PA,,,,,,,,617594,,,"12TH FL PACKARD BLDG, 15TH & CHESTNUT ST S PHILADELPHIA PA 19102-0 PHILADELPHIA",
"E & S DISTRIBUTORS, INC.",CORPORATION,NAN,269 CASCADE RD,PITTSBURGH,,PA 15221-0 ALLEGHENY,269 CASCADE RD,PITTSBURGH,,617597,VICTOR ESPOSTO,PRESIDENT,269 CASCADE RD PITTSBURGH PA 15221-0 ALLEGHENY,269 CASCADE RD PITTSBURGH PA 15221-02
"B & F TOOL & GEAR, INC.",CORPORATION,PA,2551 PINE TREE RD,SPRING GROVE,,PA 17331-0 YORK,601 LOCUST ST.,HANOVER,,617599,WILLIAM N FUSS,PRESIDENT,601 LOCUST ST. HANOVER PA 17331-0 YORK,2551 PINE TREE RD SPRING GROVE PA 17362-8335
"SHADETREE ENTERPRISES, INC.",CORPORATION,PA,,,,PA 17110-0 DAUPHIN,2134 N 2ND ST,HARRISBURG,,617600,,,2134 N 2ND ST HARRISBURG PA 17110-0 DAUPHIN,
"TAIT-KIERNAN MARKETING ASSOCIATES, LTD.",CORPORATION,NAN,,,,,,,,617601,,,"NEWTOWN SQUARE SHOPPING CENTER, 3560 W C HESTER PIKE NEWTOWN SQUARE PA 19073-0 DELAWARE",
"PACIFIC CROSSROAD CO., INC.",CORPORATION,NAN,,,,PA 19145-0 PHILADELPHIA,1607 W PASSYUNK AVE,PHILADELPHIA,,617602,,,1607 W PASSYUNK AVE PHILADELPHIA PA 19145-0 PHILADELPHIA,
EAST MANUFACTURING CORPORATION,CORPORATION,OH,PO BOX1871 STATE ROUTE 44,RANDOLPH,,PA 16101-0 LAWRENCE,510 SHENANGO STOP RD,NEW CASTLE,,617603,ROBERT J BRUCE,VICEPRESIDENT,510 SHENANGO STOP RD NEW CASTLE PA 16101-0 LAWRENCE,PO BOX1871 STATE ROUTE 44 RANDOLPH OH 44265
"FURNITURE CIRCUS, INC.",CORPORATION,NAN,,,,PA 19106-0 PHILADELPHIA,935 LAFAYETTE BLDG 5TH & CHESTNUT STS,PHILA,,617604,,,935 LAFAYETTE BLDG 5TH & CHESTNUT STS PHILA PA 19106-0 PHILADELPHIA,
THE SOUTHERN LANCASTER COUNTY HISTORICAL SOCIETY,NONPROFIT,PA,,,,PA 17563-0 LANCASTER,1932 ROBERT FULTON HWY,PEACH BOTTOM,,617605,,,1932 ROBERT FULTON HWY PEACH BOTTOM PA 17563-0 LANCASTER,
"TEKRAM COMPUTER SYSTEMS, INC.",CORPORATION,DE,,,,PA 15101-0 ALLEGHENY,8397 POST RD,ALLISON PARK,,617606,,,8397 POST RD ALLISON PARK PA 15101-0 ALLEGHENY,
"BELLETTI & GEORGE, INC.",CORPORATION,NAN,,,,PA 19072-0 MONTGOMERY,431 SPRAGUE RD,NARBERTH,,617607,,,431 SPRAGUE RD NARBERTH PA 19072-0 MONTGOMERY,
"DANCING BEAR ENTERPRISES, INC.",CORPORATION,PA,,,,PA 19107-0 PHILADELPHIA,"1201 CHESTNUT STREET, SUITE 500",PHILADELPHIA,,617608,,,"1201 CHESTNUT STREET, SUITE 500 PHILADELPHIA PA 19107-0 PHILADELPHIA",
MERCY SEAT TABERNACLE BAPTIST CHURCH,NONPROFIT,PA,,,,PA 19146-0 PHILADELPHIA,1401 S. 21ST ST.,PHILA,,617609,,,1401 S. 21ST ST. PHILA PA 19146-0 PHILADELPHIA,
"SUN APPLIANCE, INC.",CORPORATION,PA,WALTER J SLEDZESKI 3816 JANICE ST,PHILADELPHIA,,PA 19149-0 PHILADELPHIA,2020 LEVICK STREET,PHILADELPHIA,,617610,WALTER SLEDZESKI,PRESIDENT,2020 LEVICK STREET PHILADELPHIA PA 19149-0 PHILADELPHIA,WALTER J SLEDZESKI 3816 JANICE ST PHILADELPHIA PA 19114-51
"MARIANNAS, INC.",CORPORATION,NAN,,,,PA 15317-0 WASHINGTON,508 NORTH WASHINGTON ROAD,MCMURRAY,,617611,,,508 NORTH WASHINGTON ROAD MCMURRAY PA 15317-0 WASHINGTON,
"MELLOTT MANUFACTURING COMPANY, INCORPORATED",CORPORATION,NAN,13156 LONG LN,MERCERSBURG,,PA 17236-0 FRANKLIN,"ROUTE 1, BOX 97",MERCERSBURG,,617612,SAMUEL MELLOTT,VICEPRESIDENT,"ROUTE 1, BOX 97 MERCERSBURG PA 17236-0 FRANKLIN",13156 LONG LN MERCERSBURG PA 17236-28
"VANGUARD ENTERPRISES, INC.",CORPORATION,DE,,,,PA 19103-0 PHILADELPHIA,1845 WALNUT STREET,PHILADELPHIA,,617613,,,1845 WALNUT STREET PHILADELPHIA PA 19103-0 PHILADELPHIA,
"BAKER'S 3, INC.",CORPORATION,NAN,,,,PA 16664-0 BEDFORD,"R.D.#1, BOX 304",NEW ENTERPRISE,,617614,,,"R.D.#1, BOX 304 NEW ENTERPRISE PA 16664-0 BEDFORD",
MILLERSBURG AREA MUSIC ASSOCIATION,NONPROFIT,PA,,,,PA 17061-0 DAUPHIN,%,MILLERSBURG,,617615,,,% MILLERSBURG AREA HIGH SCHOOL 799 CENTER ST MILLERSBURG PA 17061-0 DAUPHIN,
"SMITSKY, LAWRENCE INC.",CORPORATION,NAN,,,,PA 15054-0 WASHINGTON,323 W THIRD STREET,LANGELOTH,,617616,,,323 W THIRD STREET LANGELOTH PA 15054-0 WASHINGTON,
"SMITSKY, DAN INC.",CORPORATION,NAN,,,,,,,,617617,,,"BOX 63, R. D. #2 BURGETTSTOWN PA 15021-0 WASHINGTON",
"232 LACKAWANNA AVENUE, INC.",CORPORATION,NAN,,,,PA 18503-0 LACKAWANNA,232 LACKAWANNA AVE,SCRANTON,,617618,,,232 LACKAWANNA AVE SCRANTON PA 18503-0 LACKAWANNA,
THE TRENTON COAL COMPANY,CORPORATION,PA,144 TRENTON,MAHANOY CITY,,PA,144 TRENTON,MAHANOY CITY,,617619,JOHN LEASWITCH,PRESIDENT,144 TRENTON MAHANOY CITY PA 0 -0 SCHUYLKILL,144 TRENTON MAHANOY CITY PA 17948-54
"ACCOUNTS RECEIVABLE LIQUIDATION, INC.",CORPORATION,PA,888 E PROSPECT ST,YORK,,PA 17361-0 YORK,511 S MAIN ST,SHREWSBURY,,617620,CHARLES FLOYD,TREASURER,511 S MAIN ST SHREWSBURY PA 17361-0 YORK,888 E PROSPECT ST YORK PA 17403-67
"I. A. I. PRECAST, INC.",CORPORATION,NAN,7384 BEACON HILL RD,PITTSBURGH,,PA 15642-0 WESTMORELAND,297 MONTANA ST,IRWIN,,617621,JOHN E SCOTT,PRESIDENT,297 MONTANA ST IRWIN PA 15642-0 WESTMORELAND,7384 BEACON HILL RD PITTSBURGH PA 15221-02
"J. Y., INC.",CORPORATION,NAN,,,,PA 15019-0 WASHINGTON,"BOX 463,",BULGER BLOCK ROAD BULGER,,617622,,,"BOX 463, BULGER BLOCK ROAD BULGER PA 15019-0 WASHINGTON",
"ADVANCE REALTY PENNSYLVANIA, INC.",CORPORATION,PA,,,,MD,8640 RIDGELY'S CHOICE DR.,BALTIMORE,21236,617623,ADVANCE REALTY INC,OWNER,8640 RIDGELY'S CHOICE DR. BALTIMORE MD 21236,
YORK-ADAMS COUNTY POLICY ADVISORY COMMITTEE FOR ALCOHOLISM,NONPROFIT,NAN,,,,PA,300 W MARKET ST,YORK,,617625,,,300 W MARKET ST YORK PA 0 -0 YORK,
"RENSMA TIMBERLANDS, L.P.",PARTNERSHIP,PA,46164 HARGER ROAD,TITUSVILLE,16354,PA,46164 HARGER RD,TITUSVILLE,16354,617626,STEVEN E RENSMA,GENPARTNER,46164 HARGER RD TITUSVILLE PA 16354 CRAWFORD,46164 HARGER ROAD TITUSVILLE PA 16354
