name,business_type,state_registered,street_registered,city_registered,zip5_registered,state_physical,street_physical,city_physical,zip5_physical,filing_number,agent_name,agent_title,raw_physical_address,raw_registered_address
HOUSTER CHOICE LLC,LLC,PA,,,,PA,143 AIRPORT RD. UNIT 45,EAST STROUDSBURG,18301,6782381,,,143 AIRPORT RD. UNIT 45 EAST STROUDSBURG PA 18301 MONROE,
TM SEAL COATING LLC,LLC,PA,,,,PA,67 BRADFORD DR,LEOLA,17540,6782383,,,67 BRADFORD DR LEOLA PA 17540 LANCASTER,
"KEY MECHANICAL, LLC",LLC,PA,,,,PA,17 WILLIS LANE,LANCASTER,17602,6782387,,,17 WILLIS LANE LANCASTER PA 17602 LANCASTER,
LITTLE NICKY'S TOWING LLC,LLC,PA,,,,PA,112 WEST BERKLEY AVENUE,CLIFTON HEIGHTS,19018,6782389,,,112 WEST BERKLEY AVENUE CLIFTON HEIGHTS PA 19018 DELAWARE,
"FOAM BROTHERS INSULATION, LLC",LLC,PA,,,,PA,425 SR 1002,TUNKHANNOCK,18657,6782390,,,425 SR 1002 TUNKHANNOCK PA 18657 WYOMING,
LUEERS ENTERPRISES LLC,LLC,PA,,,,PA,3941 N. MONET CT.,ALLISON PARK,15101,6782392,,,3941 N. MONET CT. ALLISON PARK PA 15101 ALLEGHENY,
DANNICK PARTNERS LLC,LLC,PA,,,,PA,14 BECKETT,CLOSE MOOSIC,18507,6782393,,,14 BECKETT CLOSE MOOSIC PA 18507 LACKAWANNA,
"HARVEST OF HOPE, INC.",NONPROFIT,PA,,,,PA,1343 SONGER ROAD,SIGEL,15860,6782394,,,1343 SONGER ROAD SIGEL PA 15860 JEFFERSON,
DSR PROPERTIES LLC,LLC,PA,,,,PA,205 E,MCMURRAY,15317,6782395,,,205 E MCMURRAY ROAD MCMURRAY PA 15317 WASHINGTON,
NEW ERA RESTAURANT BAR & MOTEL,CORPORATION,PA,7415 LINCOLN HIGHWAY,ABBOTTSTOWN,17301,PA,7415 LINCOLN HIGHWAY,ABBOTTSTOWN,17301,6782396,STARON CORPORATION,OWNER,7415 LINCOLN HIGHWAY ABBOTTSTOWN PA 17301 YORK,7415 LINCOLN HIGHWAY ABBOTTSTOWN PA 17301
ARTEMIS MARKETING LIMITED LIABILITY COMPANY,LLC,PA,,,,PA,191 CAMBRIA HILL DRIVE,TARENTUM,15084,6782398,,,191 CAMBRIA HILL DRIVE TARENTUM PA 15084 ALLEGHENY,
5801 SPRUCE LLC,LLC,PA,,,,PA,1111 STREET RD SUITE 304,SOUTHAMPTON,18966,6782400,,,1111 STREET RD SUITE 304 SOUTHAMPTON PA 18966 BUCKS,
RYAN'S HOUSE LLC,LLC,PA,,,,PA,1004 FIFTH AVE SUITE 8,CORAOPOLIS,15108,6782401,,,1004 FIFTH AVE SUITE 8 CORAOPOLIS PA 15108 ALLEGHENY,
NATURE'S BODY THERAPY,CORPORATION,PA,112 SHORT LANE,HOWARD,16841,PA,112 SHORT LN,HOWARD,16841,6782402,MICHELLE WETZEL,OWNER,112 SHORT LN HOWARD PA 16841 CENTRE,112 SHORT LANE HOWARD PA 16841
TAYLORS COURIER,CORPORATION,PA,305 WILLOW ST,MEADVILLE,16335,PA,305 WILLOW ST,MEADVILLE,16335,6782403,DOUGLAS TAYLOR,OWNER,305 WILLOW ST MEADVILLE PA 16335 CRAWFORD,305 WILLOW ST MEADVILLE PA 16335
NERIH INC,NONPROFIT,PA,,,,PA,2844 BRODHEAD RD,ALIQUIPPA,15001,6782405,,,2844 BRODHEAD RD ALIQUIPPA PA 15001 BEAVER,
GLOBAL IMAGE WRAPS,CORPORATION,PA,7313 MILLER AVE,UPPER DARBY,19143,PA,5706 THOMAS AVE,PHILADELPHIA,19143,6782406,JAMIL H RULEY,OWNER,5706 THOMAS AVE PHILADELPHIA PA 19143 PHILADELPHIA,7313 MILLER AVE UPPER DARBY PA 19082
"ZACHARY T. FOX CONSULTING, LLC.",LLC,PA,,,,PA,17665 MCDOWELL ROAD,CONNEAUTVILLE,16406,6782409,,,17665 MCDOWELL ROAD CONNEAUTVILLE PA 16406 CRAWFORD,
"WICKED WRENCHES, LLC",LLC,PA,,,,PA,1337 SUMMIT ROAD,REW,16744,6782412,,,1337 SUMMIT ROAD REW PA 16744 MCKEAN,
"AHC 18, LLC",LLC,PA,,,,PA,120 WEST 10TH STREET,ERIE,16501,6782416,,,120 WEST 10TH STREET ERIE PA 16501 ERIE,
"ANJ INVESTEMENTS, LLC",LLC,PA,,,,PA,50 GRACE AVENUE,SCHUYLKILL HAVEN,17972,6782419,,,50 GRACE AVENUE SCHUYLKILL HAVEN PA 17972 SCHUYLKILL,
"ERDMAN HOME INSPECTION, LLC",LLC,PA,,,,PA,738 ALLENTOWN ROAD,SELLERSVILLE,18960,6782420,,,738 ALLENTOWN ROAD SELLERSVILLE PA 18960 BUCKS,
"3TWO GROUP, LLC",LLC,PA,,,,PA,2121 EGGERS STREET,PITTSBURGH,15212,6782423,,,2121 EGGERS STREET PITTSBURGH PA 15212 ALLEGHENY,
"EAST COAST WARE HOUSE, LLC",LLC,PA,,,,PA,320 S. HENDERSON ROAD,KING OF PRUSSIA,19406,6782425,,,320 S. HENDERSON ROAD KING OF PRUSSIA PA 19406 MONTGOMERY,
"INFINITY ESTATE GROUP, LLC",LLC,NV,,,,,,,,6782426,,,%REGISTERED AGENTS INC MONTGOMERY,
"ARROW CHIROPRACTIC AND WELLNESS, LLC",LLC,PA,,,,PA,7861 STUEBENVILLE PIKE,OAKDALE,15701,6782427,,,7861 STUEBENVILLE PIKE OAKDALE PA 15701 ALLEGHENY,
"RISK POINT INSURANCE SERVICES, LLC",LLC,TX,,,,,,,,6782431,,,%CORPORATION SERVICE COMPANY DAUPHIN,
CATH DEVINE JORDAN,LLC,PA,,,,PA,42 LANGOMA ROAD,ELVERSON,19520,6782435,,,42 LANGOMA ROAD ELVERSON PA 19520 CHESTER,
STAG & OAK,CORPORATION,PA,10 RAILROAD AVENUE APT. 3B,HAVERFORD,19041,PA,10 RAILROAD AVENUE APT. 3B,HAVERFORD,19041,6782436,KEITH MOGGACH,OWNER,10 RAILROAD AVENUE APT. 3B HAVERFORD PA 19041 MONTGOMERY,10 RAILROAD AVENUE APT. 3B HAVERFORD PA 19041
BERKS STREET CRABS LLC,LLC,PA,,,,PA,2718 CECIL B MOORE AVENUE,PHILADELPHIA,19121,6782437,,,2718 CECIL B MOORE AVENUE PHILADELPHIA PA 19121 PHILADELPHIA,
CENTRAL DAUPHIN WRESTLING ASSOCIATION,NONPROFIT,PA,,,,PA,1100 RIVERVIEW ROAD,DAUPHIN,17018,6782438,,,1100 RIVERVIEW ROAD DAUPHIN PA 17018 DAUPHIN,
ROSE INVITE LLC,LLC,PA,,,,PA,2519 SOUTH COLORADO STREET,PHILADELPHIA,19145,6782441,,,2519 SOUTH COLORADO STREET PHILADELPHIA PA 19145 PHILADELPHIA,
WILLIAMS CREATIVE WORKS LLC,LLC,PA,,,,PA,2234 FAUNCE ST,PHILADELPHIA,19152,6782442,,,2234 FAUNCE ST PHILADELPHIA PA 19152 PHILADELPHIA,
YOUR BIRTH HAVEN LLC,LLC,PA,,,,PA,66 ROCK HAVEN COURT,READING,19606,6782443,,,66 ROCK HAVEN COURT READING PA 19606 BERKS,
AR LOGISTICS LLC,LLC,PA,,,,PA,152 FOX RIDGE DRIVE,NAZARETH,18064,6782444,,,152 FOX RIDGE DRIVE NAZARETH PA 18064 NORTHAMPTON,
MCGILLIN INSURANCE AGENCY LLC,LLC,PA,,,,PA,2362 CHIP POINT,WARRINGTON,18976,6782445,,,2362 CHIP POINT WARRINGTON PA 18976 BUCKS,
"OCCIPITAL, INC.",CORPORATION,DE,,,,,,,,6782446,,,%BUSINESS FILINGS INCORPORATED DAUPHIN,
"Z & M CONSULTING, LLC",LLC,PA,,,,PA,14 ASPEN CIRCLE,ELIZABETHTOWN,17022,6782449,,,14 ASPEN CIRCLE ELIZABETHTOWN PA 17022 LANCASTER,
"THE B'S CREEK HOUSE, LLC",LLC,PA,,,,PA,320 EAST WALNUT STREET,SELINSGROVE,17870,6782451,,,320 EAST WALNUT STREET SELINSGROVE PA 17870 SNYDER,
EOS INVESTIGATIONS LLC,LLC,PA,,,,PA,11 HAWTHORN DRIVE,THORNHURST,18424,6782454,,,11 HAWTHORN DRIVE THORNHURST PA 18424 LACKAWANNA,
1729 SOUTH PHILLY LP,PARTNERSHIP,PA,1800 BRIDGETOWN PIKE,FEASTERVILLE,19053,PA,1800 BRIDGETOWN PIKE,FEASTERVILLE,19053,6782457,BUILDINGS A-Z LLC,GENPARTNER,1800 BRIDGETOWN PIKE FEASTERVILLE PA 19053 BUCKS,1800 BRIDGETOWN PIKE FEASTERVILLE PA 19053
"AQUA ENERGY SERVICES, LLC",LLC,WY,,,,,,,,6782458,,,%CORPORATION SERVICE COMPANY DAUPHIN,
LENNA AND COMPANY,LLC,PA,,,,PA,2918 WESTLINE STREET,ERIE,16506,6782460,,,2918 WESTLINE STREET ERIE PA 16506 ERIE,
"MMT LAPAGAVA, LLC",LLC,WI,,,,,,,,6782463,,,%CORPORATION SERVICE COMPANY DAUPHIN,
BEATRIZ FAMILY DAY CARE,CORPORATION,PA,823 W LIBERTY ST,ALLENTOWN,18102,PA,823 W LIBERTY STREET,ALLENTOWN,18102,6782464,BEATRIZ DE MARTINEZ,OWNER,823 W LIBERTY STREET ALLENTOWN PA 18102 LEHIGH,823 W LIBERTY ST ALLENTOWN PA 18102
FAMILY EXTENSIONS HOME CARE,CORPORATION,PA,1915 71ST AVENUE,PHILADELPHIA,19144,PA,134 W MANHEIM STREET,PHILADELPHIA,19144,6782465,JANICE POMPEY,OWNER,134 W MANHEIM STREET PHILADELPHIA PA 19144 PHILADELPHIA,1915 71ST AVENUE PHILADELPHIA PA 19138
S FOODMART INC,CORPORATION,PA,,,,PA,224 N 10TH ST.,PHILADELPHIA,19107,6782466,,,224 N 10TH ST. PHILADELPHIA PA 19107 PHILADELPHIA,
MNL2 LLC,LLC,PA,,,,PA,59 W. HARTFORD ST.,ASHLEY,18706,6782467,,,59 W. HARTFORD ST. ASHLEY PA 18706 LUZERNE,
NITTANY TERRACE APARTMENTS,CORPORATION,PA,126 EAST FOSTER AVENUE,STATE COLLEGE,16801,PA,126 EAST FOSTER AVENUE,STATE COLLEGE,16801,6782468,"WEST NITTANY GROUP, LLC",OWNER,126 EAST FOSTER AVENUE STATE COLLEGE PA 16801 CENTRE,126 EAST FOSTER AVENUE STATE COLLEGE PA 16801
YOURPATH FOR ADULT LEARNERS,NONPROFIT,PA,8122 BUIST AVE,PHILADELPHIA,19153,PA,8122 BUIST AVE,PHILADELPHIA,19153,6782469,DORA BEST,SECRETARY,8122 BUIST AVE PHILADELPHIA PA 19153 PHILADELPHIA,8122 BUIST AVE PHILADELPHIA PA 19153
BK&T TOWING AND CAR SERVICE,CORPORATION,PA,631 HIGHLAND AVE,CONNELLSVILLE,15425,PA,1119 CONNELLSVILLE ROAD,UNIONTOWN,15425,6782470,LAVAUGHN HINTON,OWNER,1119 CONNELLSVILLE ROAD UNIONTOWN PA 15425 FAYETTE,631 HIGHLAND AVE CONNELLSVILLE PA 15425
"CSSB PROPERTIES, LLC",LLC,PA,,,,PA,372 NORTH STREET,MC SHERRYSTOWN,17344,6782472,,,372 NORTH STREET MC SHERRYSTOWN PA 17344 ADAMS,
WHITAKER EYE WORKS AT NEMOURS LLC,LLC,PA,,,,PA,529 HICKORY LANE,BERWYN,19312,6782474,,,529 HICKORY LANE BERWYN PA 19312 CHESTER,
"TRIO DESIGN, INC.",CORPORATION,CO,,,,,,,,6782477,,,"%REGISTERED AGENT SOLUTIONS, INC. DAUPHIN",
ALBERTO PLUMBING SOLUTIONS LLC,LLC,PA,,,,PA,556 CARSON ST.,HAZLETON,18201,6782482,,,556 CARSON ST. HAZLETON PA 18201 LUZERNE,
ERILUK RENOVATION LLC,LLC,PA,,,,PA,25 SOUTH MAIN ST. #22,YARDLEY,19067,6782484,,,25 SOUTH MAIN ST. #22 YARDLEY PA 19067 BUCKS,
STAFFING REQUEST & CONSULTING LLC,LLC,PA,,,,PA,208 N 9TH ST,DARBY,19023,6782486,,,208 N 9TH ST DARBY PA 19023 DELAWARE,
CONTROLLED CHAOS LIMITED,NONPROFIT,PA,603 GREBLE RD,LEBANON,17046,PA,603 GREBLE ROAD,LEBANON,17046,6782487,LEIGH NESTER,PRESIDENT,603 GREBLE ROAD LEBANON PA 17046 LEBANON,603 GREBLE RD LEBANON PA 17046
CNS PRECISION PROJECTILES,CORPORATION,PA,2609 DEWITT DRIVE,LANCASTER,17601,PA,2609 DEWITT DRIVE,LANCASTER,17601,6782488,CORY BALANI,OWNER,2609 DEWITT DRIVE LANCASTER PA 17601 LANCASTER,2609 DEWITT DRIVE LANCASTER PA 17601
SCHOKS FIBER INSTALLATION LLC,LLC,PA,,,,PA,1830 FULMER STREET,PHILADELPHIA,19115,6782489,,,1830 FULMER STREET PHILADELPHIA PA 19115 PHILADELPHIA,
LAUGHING MOON SIDHE,CORPORATION,PA,334 CONGRESS DRIVE,OIL CITY,16301,PA,45 SENECA STREET,OIL CITY,16301,6782491,LAURIE NOVOTNY,OWNER,45 SENECA STREET OIL CITY PA 16301 VENANGO,334 CONGRESS DRIVE OIL CITY PA 16301
TAILGATE SPORTS CARDS LLC,LLC,PA,,,,PA,406 N MONONGAHELA AVE,GLASSPORT,15045,6782492,,,406 N MONONGAHELA AVE GLASSPORT PA 15045 ALLEGHENY,
CHAMPIONS THEOLOGICAL INSTITUTE,NONPROFIT,FL,,,,PA,2013 RAVENWOOD ROAD,FOLCROFT,19032,6782494,,,2013 RAVENWOOD ROAD FOLCROFT PA 19032 DELAWARE,
DESI XPRESS LLC,LLC,PA,,,,PA,518 KERRY CT,CHESTER SPRINGS,19425,6782495,,,518 KERRY CT CHESTER SPRINGS PA 19425 CHESTER,
3G HOLDINGS LLC,LLC,PA,,,,PA,2641 TOWNSHIP LINE ROAD PO BOX 116,HATFIELD,19440,6782496,,,2641 TOWNSHIP LINE ROAD PO BOX 116 HATFIELD PA 19440 MONTGOMERY,
BYRON ORELLANA LLC,LLC,PA,,,,PA,216 FRANKLIN AVE,PHOENIXVILLE,19460,6782498,,,216 FRANKLIN AVE PHOENIXVILLE PA 19460 CHESTER,
AMERICAN EAGLE TRANSPORT LLC,LLC,PA,,,,PA,442 ROARKS TRAIL,WARMINSTER,18974,6782499,,,442 ROARKS TRAIL WARMINSTER PA 18974 BUCKS,
"RLK STUD WELDING, LLC.",LLC,PA,,,,PA,120 SANS DRIVE,HENRYVILLE,18332,6782500,,,120 SANS DRIVE HENRYVILLE PA 18332 MONROE,
SIMPLE FINANCE TECHNOLOGY CORP,CORPORATION,DE,,,,,,,,6782501,,,%CT CORPORATION SYSTEM DAUPHIN,
REIFF HOMES LLC,LLC,PA,,,,PA,361 RUNNING PUMP RD,SHIPPENSBURG,17257,6782506,,,361 RUNNING PUMP RD SHIPPENSBURG PA 17257 OUT OF STATE,
GLAM TAN LLC,LLC,PA,,,,PA,1008 E WASHINGTON STREET,NEW CASTLE,16101,6782510,,,1008 E WASHINGTON STREET NEW CASTLE PA 16101 LAWRENCE,
"B&A REAL ESTATE, LLC",LLC,PA,,,,PA,301 GOLDBACH ST.,PITTSBURGH,15210,6782512,,,301 GOLDBACH ST. PITTSBURGH PA 15210 ALLEGHENY,
"270, LLC",LLC,PA,,,,PA,270 LINDEN STREET,HUMMELSTOWN,17036,6782514,,,270 LINDEN STREET HUMMELSTOWN PA 17036 DAUPHIN,
JESSICA LG PHOTOGRAPHY LLC,LLC,PA,,,,PA,163 CHERRY ST,NAZARETH,18064-2602,6782515,,,163 CHERRY ST NAZARETH PA 18064-2602 NORTHAMPTON,
HOOVER'S SHAVINGS LIMITED LIABILITY COMPANY,LLC,PA,,,,PA,140 FAIRMOUNT ROAD,EPHRATA,17522,6782517,,,140 FAIRMOUNT ROAD EPHRATA PA 17522 LANCASTER,
S.CUNNINGHAM CONTRACTING LLC,LLC,PA,,,,PA,1171 GRANT STREET,BULGER,15019,6782518,,,1171 GRANT STREET BULGER PA 15019 WASHINGTON,
TIM'S PRETZEL ROUTE LLC,LLC,PA,,,,,,,,6782519,,,%LEGALINC CORPORATE SERVICES INC. ALLEGHENY,
2153 FAIRHILL ST LLC,LLC,PA,,,,PA,10620 LOCKART RD,PHILADELPHIA,19116,6782520,,,10620 LOCKART RD PHILADELPHIA PA 19116 PHILADELPHIA,
PURA VIDA CREATIONS,CORPORATION,PA,3402 W NEWPORT RD,RONKS,17572,PA,3402 W NEWPORT RD,RONKS,17572,6782521,LEA RIVERA,OWNER,3402 W NEWPORT RD RONKS PA 17572 LANCASTER,3402 W NEWPORT RD RONKS PA 17572
ASTA ENTERTAINMENT LIMITED LIABILITY COMPANY,LLC,PA,,,,PA,2214 BRANDYWINE STREET,PHILADELPHIA,19130,6782522,,,2214 BRANDYWINE STREET PHILADELPHIA PA 19130 PHILADELPHIA,
MJJ DISTRIBUTION LLC,LLC,PA,,,,PA,1701 UNION BLVD,ALLENTOWN,18109,6782524,,,1701 UNION BLVD ALLENTOWN PA 18109 LEHIGH,
R1 INVESTORS LLC,LLC,PA,,,,PA,513 BEATTY RD,MONROEVILLE,15146,6782525,,,513 BEATTY RD MONROEVILLE PA 15146 ALLEGHENY,
ABSOLUTE CLOSINGS LLC,LLC,PA,,,,PA,667 WILLOW BEND DRIVE,SWARTHMORE,19081,6782526,,,667 WILLOW BEND DRIVE SWARTHMORE PA 19081 DELAWARE,
MANDALA LTD LIABILITY COMPANY,LLC,PA,,,,PA,4625 LIBERTY AVE,PITTSBURGH,15224,6782527,,,4625 LIBERTY AVE PITTSBURGH PA 15224 ALLEGHENY,
COOKUMS 4 YOU ENTERPRISE LIMITED LIABILITY COMPANY,LLC,PA,,,,PA,5564 MARKET STREET,PHILADELPHIA,19139,6782528,,,5564 MARKET STREET PHILADELPHIA PA 19139 PHILADELPHIA,
THE TCP NETWORK LLC,LLC,PA,,,,PA,53 HERSHEY AVE,LANCASTER,17603,6782530,,,53 HERSHEY AVE LANCASTER PA 17603 LANCASTER,
AMMX MANUFACTURING LLC,LLC,PA,,,,PA,617 MILWAUKEE AVENUE OLD,FORGE,18518,6782537,,,617 MILWAUKEE AVENUE OLD FORGE PA 18518 LACKAWANNA,
570 ROOFING CONTRACTOR LLC,LLC,PA,,,,PA,4730 PINE RIDGE DRIVE ~ WEST,BUSHSKIL,18324,6782538,,,4730 PINE RIDGE DRIVE ~ WEST BUSHSKIL PA 18324 PIKE,
GET YOUR CAKE UP LLC,LLC,PA,,,,PA,1226 SOUTH MARKET STREET,NANTICOKE,18634,6782542,,,1226 SOUTH MARKET STREET NANTICOKE PA 18634 LUZERNE,
"PA GREEN WELLNESS, LLC",LLC,PA,,,,,,,,6782545,,,20 WINDSOR CIRCLE CHESTERBROOK PA 19087 OUT OF STATE,
SOUTHPOINTE MASSAGE THERAPY LIMITED LIABILITY COMPANY,LLC,PA,,,,PA,"1800 MAIN STREET, SUITE 114",CANONSBURG,15317,6782547,,,"1800 MAIN STREET, SUITE 114 CANONSBURG PA 15317 WASHINGTON",
PELICAN BIOTHERMAL LLC,LLC,DE,,,,,,,,6782548,,,%CORPORATION SERVICE COMPANY DAUPHIN,
CPMOPTOMETRY LIMITED LIABILITY COMPANY,LLC,PA,,,,PA,WALMART VISION CENTER 3271 PA 940 MT,POCONO,18344,6782550,,,WALMART VISION CENTER 3271 PA 940 MT POCONO PA 18344 MONROE,
BOYDS SERVICES LLC,LLC,PA,,,,PA,700 GRANT AVE,DUQUESNE,15110,6782552,,,700 GRANT AVE DUQUESNE PA 15110 ALLEGHENY,
WILLIAMS HOUSING LLC,LLC,PA,,,,PA,708 PARADE ST.,ERIE,16503,6782555,,,708 PARADE ST. ERIE PA 16503 ERIE,
ROZEL LLC,LLC,PA,,,,,,,,6782556,,,"%LEGALCORP SOLUTIONS, LLC LEHIGH",
RUSSELL ADVISORY GROUP LIMITED LIABILITY COMPANY,LLC,PA,,,,PA,301 HARMONY LN,CAMP HILL,17011,6782557,,,301 HARMONY LN CAMP HILL PA 17011 CUMBERLAND,
IPA REAL ESTATE HOLDINGS LLC,LLC,PA,,,,PA,128 HARDWOOD DRIVE,VENETIA,15367,6782558,,,128 HARDWOOD DRIVE VENETIA PA 15367 WASHINGTON,
WSPA LLC,LLC,PA,,,,PA,401 MAIN STREET,CLARION,16214,6782559,,,401 MAIN STREET CLARION PA 16214 CLARION,
KINDER PARK HOUSING PARTNERSHIP IV-A LLC,LLC,PA,,,,,,,,6782560,,,%CT CORPORATION SYSTEM LUZERNE,
PEACE AND SERENITY SUPPORT SERVICES LLC,LLC,PA,,,,PA,4700 E CITY AVE UNIT 10305,PHILADELPHIA,19131,6782561,,,4700 E CITY AVE UNIT 10305 PHILADELPHIA PA 19131 PHILADELPHIA,
"LAWRENCE PARK SATELLITES 4 AND 5, LLC",LLC,PA,,,,PA,1001 BALTIMORE PIKE,SPRINGFIELD,19064,6782562,,,1001 BALTIMORE PIKE SPRINGFIELD PA 19064 DELAWARE,
"ROYLE BEEF, LLC",LLC,PA,,,,,,,,6782563,,,%REGISTERED AGENTS INC MONTGOMERY,
MAALAXMIPA INC,CORPORATION,PA,,,,PA,1283 MOTEL 6 DRIVE,WASHINGTON,15301,6782564,,,1283 MOTEL 6 DRIVE WASHINGTON PA 15301 WASHINGTON,
PAUL'S BG CONTRACTING LLC,LLC,PA,,,,PA,621 ASH STREET UNIT R,JOHNSTOWN,15902,6782567,,,621 ASH STREET UNIT R JOHNSTOWN PA 15902 CAMBRIA,
DMB 3 INVEST LLC,LLC,PA,,,,PA,273 MONTGOMERY AVE STE 201 C,BALA CYNWYD,19004,6782568,,,273 MONTGOMERY AVE STE 201 C BALA CYNWYD PA 19004 MONTGOMERY,
DIAMOND LUMBER AND DRYWALL INC,CORPORATION,PA,,,,PA,40 LLOYD AVE,MALVERN,19355,6782569,,,40 LLOYD AVE MALVERN PA 19355 CHESTER,
"BAINBRIDGE FOUNDATION, INC.",NONPROFIT,DE,,,,PA,1115 JEFFERSON LANE,HUNTINGDON VALLEY,19006,6782571,,,1115 JEFFERSON LANE HUNTINGDON VALLEY PA 19006 MONTGOMERY,
JMG ENTERPRISE LLC,LLC,PA,,,,PA,1481 4 MILE RD,EMPORIUM,15834,6782573,,,1481 4 MILE RD EMPORIUM PA 15834 CAMERON,
DORY AMIGO INC.,CORPORATION,NH,,,,,,,,6782574,,,"%INCORP SERVICES, INC. DAUPHIN",
VISCERAL LLC,LLC,MD,,,,PA,4342 SARATOGA DRIVE,BETHLEHEM,18020,6782576,,,4342 SARATOGA DRIVE BETHLEHEM PA 18020 NORTHAMPTON,
"INTEGRATIVE HEALTH NUTRITIONAL & SPORTS SUPPLEMENTS, LLC",LLC,PA,,,,PA,18 W RACE STREET SUITE #3,CATASAUQUA,18032,6782577,,,18 W RACE STREET SUITE #3 CATASAUQUA PA 18032 LEHIGH,
"ESSEX REAL ESTATE, LLC",LLC,PA,,,,PA,418 W WALNUT ST.,LOCK HAVEN,17745,6782580,,,418 W WALNUT ST. LOCK HAVEN PA 17745 CLINTON,
CAMILE HANNOUSH INC,CORPORATION,MA,,,,,,,,6782581,CAMILE HANNOUSH,PRESIDENT,%CT CORPORATION SYSTEM DAUPHIN,
GREEN DOOR PROPERTY MANAGEMENT LIMITED LIABILITY COMPANY,LLC,PA,,,,PA,446 W TURNER ST,ALLENTOWN,18102,6782582,,,446 W TURNER ST ALLENTOWN PA 18102 LEHIGH,
KINDER COMMERCIAL LLC,LLC,PA,,,,PA,1855 CONSTITUTION AVENUE,WOODLYN,19094,6782585,,,1855 CONSTITUTION AVENUE WOODLYN PA 19094 DELAWARE,
KINDER PARK HOUSING PARTNERSHIP IV-B LLC,LLC,PA,,,,,,,,6782586,,,%CT CORPORATION SYSTEM DAUPHIN,
PAUL'S HVAC LLC,LLC,PA,,,,PA,1100 WEST PINE STREET,COAL TWP,17866,6782587,,,1100 WEST PINE STREET COAL TWP PA 17866 NORTHUMBERLAND,
DA UNLIMITED LLC,LLC,PA,,,,PA,267 MILLER ROAD,MAHAFFEY,15757,6782588,,,267 MILLER ROAD MAHAFFEY PA 15757 CLEARFIELD,
GREAT TIME LLC,LLC,PA,,,,PA,595 FELLOWSHIP ROAD,CHESTER SPRINGS,19425,6782589,,,595 FELLOWSHIP ROAD CHESTER SPRINGS PA 19425 CHESTER,
THE WOODWIFE'S HERB SHOP & SOAPWORKS LLC,LLC,PA,,,,PA,439 THUNDERBIRD RD,DU BOIS,15801-5163,6782590,,,439 THUNDERBIRD RD DU BOIS PA 15801-5163 CLEARFIELD,
ACG 1330 LINDENWOOD LLC,LLC,PA,,,,PA,2186 E NORRIS ST,PHILADELPHIA,19125,6782591,,,2186 E NORRIS ST PHILADELPHIA PA 19125 PHILADELPHIA,
ACG 4106 BALTIMORE LLC,LLC,PA,,,,PA,2186 E NORRIS ST,PHILADELPHIA,19125,6782592,,,2186 E NORRIS ST PHILADELPHIA PA 19125 PHILADELPHIA,
"TRONIX, LLC",LLC,PA,,,,PA,400 WELDON STREET SUITE 1009,LATROBE,15650,6782593,,,400 WELDON STREET SUITE 1009 LATROBE PA 15650 WESTMORELAND,
DOTZEL REALTY LLC,LLC,PA,,,,PA,1022 BLUE RIDGE TRAIL,WAPWALLOPEN,18660,6782594,,,1022 BLUE RIDGE TRAIL WAPWALLOPEN PA 18660 LUZERNE,
DON ANGEL LLC,LLC,PA,,,,PA,410 TIMBERLAKE DRIVE,VENETIA,15367,6782595,,,410 TIMBERLAKE DRIVE VENETIA PA 15367 WASHINGTON,
JK INVESTMENT LLC,LLC,PA,,,,PA,1409 EASTON ROAD,ROSLYN,19001,6782596,,,1409 EASTON ROAD ROSLYN PA 19001 MONTGOMERY,
GT RENOVATIONS LLC,LLC,PA,,,,PA,313 6TH ST,TYRONE,16686,6782597,,,313 6TH ST TYRONE PA 16686 BLAIR,
EG ENTERPRISE LLC,LLC,PA,,,,PA,515 WELSH RD D3,HUNTINGDON VALLEY,19006,6782598,,,515 WELSH RD D3 HUNTINGDON VALLEY PA 19006 MONTGOMERY,
A&M TIRE AND AUTO SERVICE LLC,LLC,PA,,,,PA,515 MANHASSETT ROAD,PITTSBURGH,15227,6782599,,,515 MANHASSETT ROAD PITTSBURGH PA 15227 ALLEGHENY,
ISP HOLDINGS PENNSYLVANIA LLC,LLC,PA,,,,PA,100 TOURNAMENT DR. SUITE 225,HORSHAM,19044,6782601,,,100 TOURNAMENT DR. SUITE 225 HORSHAM PA 19044 MONTGOMERY,
NUTRITION RITE,LLC,PA,,,,PA,140 JAMESON WAY,SEVEN FIELDS,16046,6782605,,,140 JAMESON WAY SEVEN FIELDS PA 16046 BUTLER,
"THE RED SHED DEER CAMP, LLC",LLC,PA,,,,PA,236 ZEHNER SCHOOL ROAD,ZELIENOPLE,16063,6782611,,,236 ZEHNER SCHOOL ROAD ZELIENOPLE PA 16063 BUTLER,
THE NORTHVIEW CONSTRUCTION AND COATINGS COMPANY,LLC,PA,,,,PA,2220 NORTHVIEW LANE,HARRISBURG,17110,6782613,,,2220 NORTHVIEW LANE HARRISBURG PA 17110 DAUPHIN,
OPAL SALON LLC,LLC,PA,,,,PA,61 W. POMFRET ST.,CARLISLE,17013,6782617,,,61 W. POMFRET ST. CARLISLE PA 17013 CUMBERLAND,
"STAPLES MOLD TESTING, LLC",LLC,PA,,,,PA,23 MINE STREET,STONEBORO,16153,6782618,,,23 MINE STREET STONEBORO PA 16153 MERCER,
COFFEE BEAN INTERNATIONAL LLC,LLC,DE,,,,,,,,6782619,,,"%UNITED CORPORATE SERVICES, INC. DAUPHIN",
"AUGUST COFFEE, LLC",LLC,PA,,,,PA,201 LACKAWANNA AVE,SCRANTON,18503,6782624,,,201 LACKAWANNA AVE SCRANTON PA 18503 LACKAWANNA,
"BEACON LIGHTS, LLC",LLC,PA,,,,PA,4303 DERRY ST.,HARRISBURG,17111,6782626,,,4303 DERRY ST. HARRISBURG PA 17111 DAUPHIN,
PHOENIX LIVING,NONPROFIT,PA,,,,PA,3108 WALNUT ST,HARRISBURG,17109,6782628,,,3108 WALNUT ST HARRISBURG PA 17109 DAUPHIN,
TEAM US REAL ESTATE LLC,LLC,PA,,,,PA,947 WAYNE AVE #353,CHAMBERSBURG,17201,6782630,,,947 WAYNE AVE #353 CHAMBERSBURG PA 17201 FRANKLIN,
"MORE TODAY, LLP",PARTNERSHIP,PA,,,,PA,1901 LOUISE DR.,GLENSHAW,15116,6782633,,,1901 LOUISE DR. GLENSHAW PA 15116 OUT OF STATE,
CARL'S CORNER LLC,LLC,PA,,,,PA,2076 FIELDSTONE DRIVE,BETHLEHEM,18015,6782634,,,2076 FIELDSTONE DRIVE BETHLEHEM PA 18015 NORTHAMPTON,
ACG 1426 PAXON LLC,LLC,PA,,,,PA,2186 E NORRIS ST,PHILADELPHIA,19125,6782635,,,2186 E NORRIS ST PHILADELPHIA PA 19125 PHILADELPHIA,
EVO CONSULTING LLC,LLC,PA,,,,PA,14 DOUGHERTY DRIVE,LEMOYNE,17043,6782636,,,14 DOUGHERTY DRIVE LEMOYNE PA 17043 CUMBERLAND,
FAMOUS RAYS DELI MIDLAND,CORPORATION,PA,2719 BRODHEAD ROAD SUITE 170,ALIQUIPPA,15059,PA,752,MIDLAND,15059,6782637,RAYMOND A KANAPESKY,OWNER,752 MIDLAND AVE MIDLAND PA 15059 BEAVER,2719 BRODHEAD ROAD SUITE 170 ALIQUIPPA PA 15001
WE MOVE DIFFERENT REAL ESTATE LIMITED LIABILITY COMPANY,LLC,PA,,,,PA,6321 GARDENIA ST,PHILA,19144,6782638,,,6321 GARDENIA ST PHILA PA 19144 PHILADELPHIA,
VINCES DELI #2 INC,CORPORATION,PA,,,,PA,4244 CHIPPENDALE ST,PHILADELPHIA,19136,6782639,,,4244 CHIPPENDALE ST PHILADELPHIA PA 19136 PHILADELPHIA,
"CANDY SHOP EQUESTRIAN, LLC",LLC,PA,,,,PA,"1650 MARKET STREET, SUITE 2800",PHILADELPHIA,19103,6782640,,,"1650 MARKET STREET, SUITE 2800 PHILADELPHIA PA 19103 PHILADELPHIA",
NOTHING ABOVE BROTHERHOOD MUSIC GROUP LLC,LLC,PA,,,,PA,4825 LARCHWOOD AVE,PHILADELPHIA,19143,6782641,,,4825 LARCHWOOD AVE PHILADELPHIA PA 19143 PHILADELPHIA,
50 TERRACE LLC,LLC,PA,,,,PA,121 TERRACE RD,LEVITTOWN,19056,6782642,,,121 TERRACE RD LEVITTOWN PA 19056 BUCKS,
ACG 2045 2ND LLC,LLC,PA,,,,PA,2186 E NORRIS ST,PHILADELPHIA,19125,6782643,,,2186 E NORRIS ST PHILADELPHIA PA 19125 PHILADELPHIA,
I&P INVESTMENTS LLC,LLC,PA,,,,PA,315 HARMONY ALLEY WEST,CHESTER,19380,6782644,,,315 HARMONY ALLEY WEST CHESTER PA 19380 CHESTER,
RIDGEMORE PROPERTY LLC,LLC,PA,,,,PA,709 BETHLEHEM PIKE,ERDENHEIM,19038,6782645,,,709 BETHLEHEM PIKE ERDENHEIM PA 19038 MONTGOMERY,
SKYLINE RENOVATIONS LLC,LLC,PA,,,,PA,722 HILL RD,PHILADELPHIA,19128,6782646,,,722 HILL RD PHILADELPHIA PA 19128 PHILADELPHIA,
BACONPRINTS APPAREL AND MORE LLC,LLC,PA,,,,PA,1739 MAIN STREET EXT,BROGUE,17309,6782647,,,1739 MAIN STREET EXT BROGUE PA 17309 YORK,
"SP AVIATION III, LLC",LLC,PA,,,,PA,"375 SOUTHPOINTE BOULEVARD, SUITE 410",CANONSBURG,15317,6782648,,,"375 SOUTHPOINTE BOULEVARD, SUITE 410 CANONSBURG PA 15317 ALLEGHENY",
SMARTER SOURCE MARKETING LLC,LLC,PA,,,,PA,3033 PELICAN DRIVE,VALENCIA,16059,6782649,,,3033 PELICAN DRIVE VALENCIA PA 16059 BUTLER,
DAWOOD CONSTRUCTION LLC,LLC,PA,,,,PA,"4250 CRUMS MILL ROAD, SUITE 301",HARRISBURG,17112,6782650,,,"4250 CRUMS MILL ROAD, SUITE 301 HARRISBURG PA 17112 DAUPHIN",
"AMO TECHNOLOGIES, INC.",CORPORATION,NV,,,,PA,1700 MARKET ST,PHILADELPHIA,19103,6782657,,,1700 MARKET ST PHILADELPHIA PA 19103 PHILADELPHIA,
"DUSTIN STANCATO, LLC",LLC,PA,,,,PA,942 S MATLACK ST.,WEST CHESTER,19380,6782664,,,942 S MATLACK ST. WEST CHESTER PA 19380 CHESTER,
CHOCOLATE COUTURE LLC,LLC,PA,,,,PA,6904 CLUBHOUSE CT.,HARRISBURG,17111,6782666,,,6904 CLUBHOUSE CT. HARRISBURG PA 17111 DAUPHIN,
MI BARRIO RESTAURANT INC,CORPORATION,PA,,,,PA,6908 TORRESDALE AVE,PHILADELPHIA,19135,6782667,DOMINICANO MARMOLEJOS,PRESIDENT,6908 TORRESDALE AVE PHILADELPHIA PA 19135 PHILADELPHIA,
JOHN WARREN MINISTRIES,CORPORATION,PA,234 ROTH ST APT 2,HOUSTON,15342,PA,234 ROTH ST APT 2,HOUSTON,15342,6782668,JOHN M WARREN,OWNER,234 ROTH ST APT 2 HOUSTON PA 15342 WASHINGTON,234 ROTH ST APT 2 HOUSTON PA 15342
BUTTERFLY HOUSE COACHING AND CONSULTING LLC,LLC,PA,,,,PA,2023 ALEXIS DRIVE,HARRISBURG,17110,6782669,,,2023 ALEXIS DRIVE HARRISBURG PA 17110 DAUPHIN,
HYE SEAS LLC,LLC,PA,,,,PA,3610 LEXINGTON DRIVE,DOYLESTOWN,18902,6782670,,,3610 LEXINGTON DRIVE DOYLESTOWN PA 18902 BUCKS,
"728 HEISNER, LLC",LLC,PA,,,,PA,5715 BRUMAR DRIVE,BETHLEHEM,18017,6782671,,,5715 BRUMAR DRIVE BETHLEHEM PA 18017 NORTHAMPTON,
"WAVY BUNCH SOUND, LLC",LLC,PA,,,,PA,2906 VILLAGE ROAD,PITTSBURGH,15205,6782672,,,2906 VILLAGE ROAD PITTSBURGH PA 15205 ALLEGHENY,
THE GUARANTORS AGENCY,CORPORATION,PA,407 2ND ST,BROOKLYN,15205,,,,,6782673,JULIEN BONNEVILLE,OWNER,407 2ND STREET BROOKLYN NY 11215 OUT OF STATE,407 2ND ST BROOKLYN NY 11215
"KRISOL, INC",CORPORATION,PA,,,,PA,1359 STONEGATE DRIVE,DOWNINGTOWN,19335,6782674,,,1359 STONEGATE DRIVE DOWNINGTOWN PA 19335 CHESTER,
NODES.WORLD CO,LLC,PA,,,,PA,1001 STATE ST. SUITE 907,ERIE,16501,6782675,,,1001 STATE ST. SUITE 907 ERIE PA 16501 ERIE,
220 LIBERTY LLC,LLC,PA,,,,PA,121 TERRACE RD,LEVITTOWN,19056,6782676,,,121 TERRACE RD LEVITTOWN PA 19056 BUCKS,
"BLB&B PLAN SERVICES, LLC",LLC,PA,,,,PA,103 MONTGOMERY AVE,MONTGOMERYVILLE,18936,6782677,,,103 MONTGOMERY AVE MONTGOMERYVILLE PA 18936 MONTGOMERY,
"THE LGM CO., INC.",CORPORATION,OH,,,,,,,,6782680,,,"%INCORP SERVICES, INC. DAUPHIN",
"ENHANCED RECOVERY COMPANY, LLC",LLC,DE,,,,,,,,6782681,,,%CORPORATION SERVICE COMPANY DAUPHIN,
PREEMINENT SOLUTIONS INC,CORPORATION,NJ,,,,PA,15 WABASH ST,PITTSBURGH,15220,6782682,,,15 WABASH ST PITTSBURGH PA 15220 ALLEGHENY,
STANDARD MANAGEMENT SYSTEMS,CORPORATION,PA,577 NORTH STREET,STEELTON,17113,PA,577 NORTH STREET,STEELTON,17113,6782683,MARK H. SMITH,OWNER,577 NORTH STREET STEELTON PA 17113 DAUPHIN,577 NORTH STREET STEELTON PA 17113
KEYSTONE RIDES LLC,LLC,PA,,,,PA,115 PINE STREET,FIRST FLOOR HARRISBURG,17101,6782684,,,115 PINE STREET FIRST FLOOR HARRISBURG PA 17101 DAUPHIN,
309 ELITE AUTOWORX LLC,LLC,PA,,,,PA,5778 MAIN,ST CENTER VALLEY,18034,6782685,,,5778 MAIN ST CENTER VALLEY PA 18034 LEHIGH,
MJ REALTY INVESTMENT LLC,LLC,PA,,,,PA,5737 DARLINGTON RD,PITTSBURGH,15217,6782686,,,5737 DARLINGTON RD PITTSBURGH PA 15217 ALLEGHENY,
E.N.V. XPRESS CORPORATION,CORPORATION,PA,,,,PA,236 EAST WALNUT PARK DR,PHILADELPHIA,19120,6782687,,,236 EAST WALNUT PARK DR PHILADELPHIA PA 19120 PHILADELPHIA,
FORT PRINCE LLC,LLC,PA,,,,,,,,6782688,,,"%REGISTERED AGENT SOLUTIONS, INC. DAUPHIN",
"2333 DARBY ROAD, LLC",LLC,PA,,,,PA,"C/O STUART R. LUNDY, ESQ., LBM 450 N.",NARBERTH,19072,6782689,,,"C/O STUART R. LUNDY, ESQ., LBM 450 N. NARBERTH AVENUE, SUITE 200 NARBERTH PA 19072 MONTGOMERY",
CHAMAS DE MINAS INC,CORPORATION,PA,,,,PA,8500 BUSTLETON AVE,PHILADELPHIA,19152,6782690,,,8500 BUSTLETON AVE PHILADELPHIA PA 19152 PHILADELPHIA,
CS2 CAPITAL PARTNERS LLC,LLC,PA,,,,PA,410 KINGS HIGHWAY,CARNEGIE,15106,6782691,,,410 KINGS HIGHWAY CARNEGIE PA 15106 ALLEGHENY,
FORCE PROTECTION LLC,LLC,PA,,,,PA,1073 EMERALD CT,HAZLE TOWNSHIP,18202,6782692,,,1073 EMERALD CT HAZLE TOWNSHIP PA 18202 LUZERNE,
MADEVIL LLC,LLC,PA,,,,PA,6617 BIRCHWOOD AVE,PITTBURGH,15217,6782693,,,6617 BIRCHWOOD AVE PITTBURGH PA 15217 ALLEGHENY,
"PA REPAIR & MAINTENANCE, LLC",CORPORATION,PA,709 BETHLEHEM PIKE,ERDENHEIM,19038,PA,709 BETHLEHEM PIKE,ERDENHEIM,19038,6782694,WELCH COMMUINITY DEVELOPMENT LLC,OWNER,709 BETHLEHEM PIKE ERDENHEIM PA 19038 MONTGOMERY,709 BETHLEHEM PIKE ERDENHEIM PA 19038
ONO HOME LIMITED LIABILITY COMPANY,LLC,PA,,,,PA,1526 WEBER DRIVE #2,LINWOOD,19061,6782695,,,1526 WEBER DRIVE #2 LINWOOD PA 19061 DELAWARE,
"CALGARO CONSTRUCTION, LLC",LLC,MN,,,,,,,,6782696,,,"%URS AGENTS, LLC DAUPHIN",
NTT GLOBAL NETWORKS INCORPORATED,CORPORATION,DE,,,,,,,,6782697,,,%CT CORPORATION SYSTEM DAUPHIN,
EQUITAS FUNDING GROUP LLC,LLC,PA,,,,,,,,6782699,,,%REGISTERED AGENTS INC MONTGOMERY,
LIMITLESS SOLUTIONS INC,CORPORATION,PA,,,,PA,1800 PINE HOLLOW RD STE 3C,MCKEES ROCKS,15136,6782700,,,1800 PINE HOLLOW RD STE 3C MCKEES ROCKS PA 15136 ALLEGHENY,
DOSTAL CONSULTING GROUP INC,CORPORATION,PA,,,,PA,2 BALA PLAZA STE PL-17,BALA CYNWYD,19004,6782701,,,2 BALA PLAZA STE PL-17 BALA CYNWYD PA 19004 MONTGOMERY,
PTS SERVICES LLC,LLC,PA,,,,PA,2515 N FRONT ST SUITE 102,HARRISBURG,17110,6782702,,,2515 N FRONT ST SUITE 102 HARRISBURG PA 17110 DAUPHIN,
MVRN MAIN STREET LLC,LLC,PA,,,,PA,131 BUCKWALTER RD,ROYERSFORD,19468,6782703,,,131 BUCKWALTER RD ROYERSFORD PA 19468 MONTGOMERY,
THE PROFESSOR PETE LLC,LLC,PA,,,,PA,1156 W 5TH STREET,ERIE,16507,6782704,,,1156 W 5TH STREET ERIE PA 16507 ERIE,
SHINGHAR THREADING & NAILS SPA,CORPORATION,PA,229 ROCKLYN RD,UPPER DARBY,19090,PA,29 EASTON RD,WILLOW GROVE,19090,6782705,SHINGHAR EYEBROW THREADING LLC,OWNER,29 EASTON RD WILLOW GROVE PA 19090 MONTGOMERY,229 ROCKLYN RD UPPER DARBY PA 19082
ENHANCED RESOURCE CENTERS,CORPORATION,PA,8014 BAYBERRY RD,JACKSONVILLE,19090,,,,,6782706,"ENHANCED RECOVERY COMPANY, LLC",OWNER,8014 BAYBERRY RD JACKSONVILLE FL 32256 OUT OF STATE,8014 BAYBERRY RD JACKSONVILLE FL 32256
FATHER QUINN FOUNDATION,NONPROFIT,PA,,,,PA,6161 N 5TH ST,PHILADELPHIA,19120,6782707,,,6161 N 5TH ST PHILADELPHIA PA 19120 PHILADELPHIA,
"LG SONIC US, LLC",LLC,PA,,,,PA,201 LACKAWANNA AVENUE SUITE 222,SCRANTON,18503,6782708,,,201 LACKAWANNA AVENUE SUITE 222 SCRANTON PA 18503 LACKAWANNA,
PAULA & TORRES ENTERPRISE LLC,LLC,PA,,,,PA,242 N 9TH ST,READING,19601,6782709,,,242 N 9TH ST READING PA 19601 BERKS,
MARIAS CAFE LLC,LLC,PA,,,,PA,565 E STATION AVE,COOPERSBURG,18036,6782710,,,565 E STATION AVE COOPERSBURG PA 18036 LEHIGH,
GURU PHOTOGRAPHY LLC,LLC,PA,,,,PA,1724 BLEIGH AV,PHILADELPHIA,19111,6782713,,,1724 BLEIGH AV PHILADELPHIA PA 19111 PHILADELPHIA,
VIRTELA TECHNOLOGY SERVICES INCORPORATED,CORPORATION,PA,5680 GREENWOOD PLAZA BLVD STE 200,GREENWOOD VILLAGE,,,,,,6782714,NTT GLOBAL NETWORKS INC,OWNER,5680 GREENWOOD PLAZA BLVD STE 200 GREENWOOD VILLAGE CO 80111-2404 OUT OF STATE,5680 GREENWOOD PLAZA BLVD STE 200 GREENWOOD VILLAGE CO 80111
LUNA GALLERY DESIGNS LLC,LLC,PA,,,,PA,1110 E KING STREET,LANCASTER,17602,6782715,,,1110 E KING STREET LANCASTER PA 17602 LANCASTER,
BLUE MAPLE GROUP LLC,LLC,PA,,,,,,,,6782716,,,%REGISTERED AGENTS INC MONTGOMERY,
KE&O LLC,LLC,PA,,,,,,,,6782717,,,%REGISTERED AGENTS INC MONTGOMERY,
HIGH ST. PIZZA,CORPORATION,PA,523 N BEDFORD ST,CARLISLE,17241,PA,25 S. HIGH ST.,NEWVILLE,17241,6782718,ELIZABETH M PENSA,OWNER,25 S. HIGH ST. NEWVILLE PA 17241 CUMBERLAND,523 N BEDFORD ST CARLISLE PA 17013
ELMOUSSAOUI SERVICE LLC,LLC,PA,,,,PA,2120 SOUTH BEECHWOOD ST,PHILADELPHIA,19145,6782719,,,2120 SOUTH BEECHWOOD ST PHILADELPHIA PA 19145 PHILADELPHIA,
3137 N FRONT STREET INC,CORPORATION,PA,,,,PA,3137 N FRONT STREET,PHILADELPHIA,19133,6782720,,,3137 N FRONT STREET PHILADELPHIA PA 19133 PHILADELPHIA,
"HUBER ELECTRICAL SERVICES, LLC",LLC,PA,,,,,,,,6782721,,,%ANDERSON REGISTERED AGENTS INC. LEHIGH,
A&A KITCHEN AND FOOD MART LIMITED LIABILITY COMPANY,LLC,PA,,,,PA,1701 FARRAGUT,BRISTOL,19007,6782722,,,1701 FARRAGUT BRISTOL PA 19007 BUCKS,
GATEWAY TRANSPORT INC,CORPORATION,PA,,,,PA,3297 WEYMOUTH PLACE,HOLLAND,18966,6782723,,,3297 WEYMOUTH PLACE HOLLAND PA 18966 BUCKS,
SPOTLIGHT OCCUPATIONAL THERAPY SERVICES LLC,LLC,PA,,,,PA,270 SHADY AVENUE APARTMENT 23,PITTSBURGH,15206,6782724,,,270 SHADY AVENUE APARTMENT 23 PITTSBURGH PA 15206 ALLEGHENY,
THEMEDIAPLUG LLC,LLC,PA,,,,PA,2760 FYNAMORE LANE,DOWNINGTOWN,19335,6782726,,,2760 FYNAMORE LANE DOWNINGTOWN PA 19335 CHESTER,
LOO LOO HOLDINGS LLC,LLC,PA,,,,PA,3707 MARIETTA AVE,COLUMBIA,17512,6782728,,,3707 MARIETTA AVE COLUMBIA PA 17512 LANCASTER,
WEE PAUL DRYWALL,CORPORATION,PA,345 WEST 15TH AVENUE,HOMESTEAD,15221,PA,2431 PARK HILL DRIVE,PITTSBURGH,15221,6782729,HARRY RANDALL,OWNER,2431 PARK HILL DRIVE PITTSBURGH PA 15221 ALLEGHENY,345 WEST 15TH AVENUE HOMESTEAD PA 15120
ACCESSORIES HOTSPOT LLC,LLC,PA,,,,PA,258 NICOLE WAY,READING,19608,6782730,,,258 NICOLE WAY READING PA 19608 BERKS,
BHNZ HOLDINGS LLC,LLC,PA,,,,PA,8809 W CHESTER PIKE,UPPER DARBY,19082,6782731,,,8809 W CHESTER PIKE UPPER DARBY PA 19082 DELAWARE,
LEHIGH VALLEY WEATHER AUTHORITY LLC,LLC,PA,,,,PA,395 HAHNS DAIRY ROAD,PALMERTON,18071,6782733,,,395 HAHNS DAIRY ROAD PALMERTON PA 18071 CARBON,
PITTSBURGH STAFFING SOLUTIONS,CORPORATION,PA,106 HENLEY DRIVE,BUTLER,16001,PA,106 HENELY DRIVE,BUTLER,16001,6782734,JERALD S ROFFIS,OWNER,106 HENELY DRIVE BUTLER PA 16001 BUTLER,106 HENLEY DRIVE BUTLER PA 16001
HOME ESSENTIALS DEPOT LLC,LLC,PA,,,,PA,2346 CHIPMUNK LANE,SECANE,19018,6782735,,,2346 CHIPMUNK LANE SECANE PA 19018 DELAWARE,
LOBODA'S PROFESSIONAL SERVICES,CORPORATION,PA,107 CLARK STREET,CLARKS GREEN,18411,PA,107 CLARK STREET,CLARKS GREEN,18411,6782736,GREGG LOBODA,OWNER,107 CLARK STREET CLARKS GREEN PA 18411 LACKAWANNA,107 CLARK STREET CLARKS GREEN PA 18411
HAPPIER LIVING,CORPORATION,PA,8235 SANTA MONICA BLVD SUITE 302,LOS ANGELES,90046,CA,8235 SANTA MONICA BLVD. SUITE 302,LOS ANGELES,90046,6782737,"LAWRENCE GENEN, M.D., INC., A PROFESSIONAL CORPORATION",OWNER,8235 SANTA MONICA BLVD. SUITE 302 LOS ANGELES CA 90046 OUT OF STATE,8235 SANTA MONICA BLVD SUITE 302 LOS ANGELES CA 90046
QUEEN PROPERTY LLC,LLC,PA,,,,PA,250 MAYPOLE RD,UPPER DARBY,19082,6782738,,,250 MAYPOLE RD UPPER DARBY PA 19082 DELAWARE,
MIDDLECREEK MENNONITE FELLOWSHIP CENTER,NONPROFIT,PA,478 BLACK HORSE ROAD,REINHOLDS,17073,PA,661 STRICKLERSTOWN ROAD,NEWMANSTOWN,17073,6782739,GERALD HORST,SECRETARY,661 STRICKLERSTOWN ROAD NEWMANSTOWN PA 17073 LEBANON,478 BLACK HORSE ROAD REINHOLDS PA 17569
1810 N.WILLINGTON ST LLC,LLC,PA,,,,PA,1487 SCARLET OAK RD,YARDLEY,19067,6782740,,,1487 SCARLET OAK RD YARDLEY PA 19067 BUCKS,
ANGELS FOR AGING HOME CARE SOLUTIONS LLC,LLC,PA,,,,PA,305 MAXWELL STREET APT 3,PITTSBURGH,15205,6782741,,,305 MAXWELL STREET APT 3 PITTSBURGH PA 15205 ALLEGHENY,
SIMMS RENOVATION LLC,LLC,PA,,,,PA,2315 ORLANDO PLACE,PITTSBURGH,15235,6782742,,,2315 ORLANDO PLACE PITTSBURGH PA 15235 ALLEGHENY,
KR SOFTWARE SOLUTIONS LLC,LLC,PA,,,,PA,104 CAWLEY CT,CHESTER SPRINGS,19425,6782743,,,104 CAWLEY CT CHESTER SPRINGS PA 19425 CHESTER,
NOVA LUXE BEAUTY LLC,LLC,PA,,,,PA,1931 S CECIL ST,PHILADELPHIA,19143,6782744,,,1931 S CECIL ST PHILADELPHIA PA 19143 PHILADELPHIA,
LEGACY FURNITURE INC,CORPORATION,PA,,,,PA,5200 GRAYS AVE,PHILADELPHIA,19143,6782745,,,5200 GRAYS AVE PHILADELPHIA PA 19143 PHILADELPHIA,
PFEIFFER HOME IMPROVEMENT,CORPORATION,PA,402 CAMBRIDGE DR,CINNAMINSON,19143,,,,,6782747,TIM PFEIFFER,OWNER,402 CAMBRIDGE DR CINNAMINSON NJ 08077 OUT OF STATE,402 CAMBRIDGE DR CINNAMINSON NJ 08077
USA AUTO GROUP 1 LLC,LLC,PA,,,,PA,1145 JUNIPER DRIVE,YORK,17408,6782748,,,1145 JUNIPER DRIVE YORK PA 17408 YORK,
THE SNOB BOXX LLC,LLC,PA,,,,PA,322 N BROAD ST,PHILADELPHIA,19102,6782749,,,322 N BROAD ST PHILADELPHIA PA 19102 PHILADELPHIA,
CLEARLIGHT MEDITATION INSTITUTE LLC,LLC,PA,,,,PA,486 MAYNARD DR,WAYNE,19087,6782750,,,486 MAYNARD DR WAYNE PA 19087 CHESTER,
REVISIONIST WEALTH ADVISORS. LLC,LLC,PA,,,,PA,345 DONOFRIO DR,DOWNINGTOWN,19335,6782751,,,345 DONOFRIO DR DOWNINGTOWN PA 19335 CHESTER,
K.A. GIEDER CONSTRUCTION LLC,LLC,PA,,,,PA,217 TAYLOR AVE,ESSINGTON,19029,6782752,,,217 TAYLOR AVE ESSINGTON PA 19029 DELAWARE,
A COUPLE OLD TOYS,CORPORATION,PA,1500 JEFFERSON AVENUE,PORTAGE,15946,PA,1500 JEFFERSON AVENUE,PORTAGE,15946,6782753,ERIC J DEMATTEIS,OWNER,1500 JEFFERSON AVENUE PORTAGE PA 15946 CAMBRIA,1500 JEFFERSON AVENUE PORTAGE PA 15946
MONTFORT EQUITIES LLC,LLC,PA,,,,PA,259 SANDY WAY,COATESVILLE,19320,6782754,,,259 SANDY WAY COATESVILLE PA 19320 CHESTER,
BREANNE'S $5 BLING,CORPORATION,PA,240 TODD RD,BEAVER,15009,PA,240 TODD ROAD,BEAVER,15009,6782755,BREANNE P THOMPSON,OWNER,240 TODD ROAD BEAVER PA 15009 BEAVER,240 TODD RD BEAVER PA 15009
WATERFALL HOLDINGS LLC,LLC,PA,,,,PA,6159 LAWNTON STREET,PHILADELPHIA,19128,6782756,,,6159 LAWNTON STREET PHILADELPHIA PA 19128 PHILADELPHIA,
"GRILL HOUSE AM 1, LLC",LLC,PA,,,,PA,229 SHEPARD AVE,DEL WATER GAP,18327,6782757,,,229 SHEPARD AVE DEL WATER GAP PA 18327 MONROE,
FRIENDSHIP GARDEN GAME DEVELOPERS,CORPORATION,PA,5516 BAYWOOD ST APT 3,PITTSBURGH,15206,PA,5516 BAYWOOD ST APT 3,PITTSBURGH,15206,6782758,JACOB ROSENBLOOM,OWNER,5516 BAYWOOD ST APT 3 PITTSBURGH PA 15206 ALLEGHENY,5516 BAYWOOD ST APT 3 PITTSBURGH PA 15206
OLIVER & FRIENDS INVESTMENTS LIMITED LIABILITY COMPANY,LLC,PA,,,,PA,2769 AXE FACTORY ROAD,PHILADELPHIA,19152,6782759,,,2769 AXE FACTORY ROAD PHILADELPHIA PA 19152 PHILADELPHIA,
"HUNTINGTON NHT XI TAX CREDIT FUND, LLC",LLC,DC,,,,,,,,6782760,,,%COGENCY GLOBAL INC. DAUPHIN,
CRAWL EZ SOCKS LLC,LLC,PA,,,,PA,4800 PINE STREET SUITE 302,PHILADELPHIA,19143,6782761,,,4800 PINE STREET SUITE 302 PHILADELPHIA PA 19143 PHILADELPHIA,
J&A CLEANING COMPANY LLC,LLC,PA,,,,PA,429 ALEXANDER ST.,PITTSBURGH,15136,6782764,,,429 ALEXANDER ST. PITTSBURGH PA 15136 ALLEGHENY,
"FAITHFUL STEWARDSHIP, LLC",LLC,PA,,,,PA,140 CLEARVIEW ROAD,EPHRATA,17522,6782766,,,140 CLEARVIEW ROAD EPHRATA PA 17522 LANCASTER,
PRAWL PRODUCTIONS LLC,LLC,PA,,,,PA,3700 STATE ROAD,DREXEL HILL,19026,6782771,,,3700 STATE ROAD DREXEL HILL PA 19026 DELAWARE,
"STEPHEN HAND RESIDENTIAL ELECTRICAL, LLC",LLC,PA,,,,PA,110 E. BENEDICT AVENUE,HAVERTOWN,19083,6782772,,,110 E. BENEDICT AVENUE HAVERTOWN PA 19083 DELAWARE,
"LAUNCH, LLC",LLC,PA,,,,PA,"100 STATE STREET, SUITE 510",ERIE,16507,6782774,,,"100 STATE STREET, SUITE 510 ERIE PA 16507 ERIE",
EB MANAGEMENT LLC,LLC,PA,,,,PA,949 WEST 12TH STREET,ERIE,16501,6782777,,,949 WEST 12TH STREET ERIE PA 16501 ERIE,
FITHACKER,CORPORATION,PA,305 HILL LANE,BIRDSBORO,19508,PA,305 HILL LANE,BIRDSBORO,19508,6782792,TOBY J. VOLLMER,OWNER,305 HILL LANE BIRDSBORO PA 19508 BERKS,305 HILL LANE BIRDSBORO PA 19508
SCHUYLER HOLDINGS LLC,LLC,PA,,,,PA,201 KREIDLER AVE,YORK,17402,6782793,,,201 KREIDLER AVE YORK PA 17402 YORK,
SAXONBURG POWER & PERFORMANCE LIMITED LIABILITY COMPANY,LLC,PA,,,,PA,932 SAXONBURG ROAD,BUTLER,16002,6782794,,,932 SAXONBURG ROAD BUTLER PA 16002 BUTLER,
LRCM VENTURES LIMITED LIABILITY COMPANY,LLC,PA,,,,PA,291 JEFFERSON PLACE,BETHLEHEM,18020,6782795,,,291 JEFFERSON PLACE BETHLEHEM PA 18020 NORTHAMPTON,
16-4919 TRANSPORT INC,CORPORATION,PA,,,,PA,720 14TH AVE,PROSPECT PARK,19076,6782796,,,720 14TH AVE PROSPECT PARK PA 19076 DELAWARE,
TC MACHINE PLUS LLC,LLC,PA,,,,PA,5330 BROWNSVILLE ROAD,PITTSBURGH,15236,6782797,,,5330 BROWNSVILLE ROAD PITTSBURGH PA 15236,
TRIQUETRA ENTERTAINMENT,CORPORATION,PA,324 HEATHER HILL DR,GIBSONIA,15044,PA,324 HEATHER HILL DRIVE,GIBSONIA,15044,6782800,STUDIO AGATE NORTH AMERICA LLC,OWNER,324 HEATHER HILL DRIVE GIBSONIA PA 15044 ALLEGHENY,324 HEATHER HILL DR GIBSONIA PA 15044
BACKYARD SWING WORLD,CORPORATION,PA,316 SOMERSET DR,CAMP HILL,17011,PA,316 SOMERSET DRIVE,CAMP HILL,17011,6782801,E & H ENTERPRISE LLC,OWNER,316 SOMERSET DRIVE CAMP HILL PA 17011 CUMBERLAND,316 SOMERSET DR CAMP HILL PA 17011
SQR -OT,CORPORATION,PA,153 W RUTH AVE,PHOENIXVILLE,19460,PA,153 W. RUTH AVE.,PHOENIXVILLE,19460,6782803,SHANNAN ROMANO,OWNER,153 W. RUTH AVE. PHOENIXVILLE PA 19460 CHESTER,153 W RUTH AVE PHOENIXVILLE PA 19460
INFINITE LANDSCAPES,CORPORATION,PA,6603 FERRY RD,NEW HOPE,18938,PA,6603 FERRY ROAD,NEW HOPE,18938,6782805,STRUTTURA WORKS LLC,OWNER,6603 FERRY ROAD NEW HOPE PA 18938 BUCKS,6603 FERRY RD NEW HOPE PA 18938
BNI CENTRAL PA,CORPORATION,PA,501 LEHIGH GORGE DR,JIM THORPE,18229,PA,501 LEHIGH GORGE DRIVE,JIM THORPE,18229,6782806,PA MARKETING SERVICES INC,OWNER,501 LEHIGH GORGE DRIVE JIM THORPE PA 18229 CARBON,501 LEHIGH GORGE DR JIM THORPE PA 18229
"SUSANLIZBETH, SCHOOLSOT",CORPORATION,PA,1244 W KING ROAD,MALVERN,19355,PA,1244 W KING ROAD,MALVERN,19355,6782807,SUSAN MUELLER,OWNER,1244 W KING ROAD MALVERN PA 19355 CHESTER,1244 W KING ROAD MALVERN PA 19355
SUNNY ACRES EQUINE,CORPORATION,PA,123 CHERRY LN UNIT 1,MYERSTOWN,17067,PA,"123 CHERRY LANE RD., UNIT 1",MYERSTOWN,17067,6782818,LEROY SMOKER,OWNER,"123 CHERRY LANE RD., UNIT 1 MYERSTOWN PA 17067 LEBANON",123 CHERRY LN UNIT 1 MYERSTOWN PA 17067
LITTLE BLESSINGS OF HOPE LEARNING CENTER,CORPORATION,PA,1319 S 58TH ST,PHILADELPHIA,19143,PA,1319 S. 58TH STREET,PHILADELPHIA,19143,6782819,LADONNA WRAGG,OWNER,1319 S. 58TH STREET PHILADELPHIA PA 19143,1319 S 58TH ST PHILADELPHIA PA 19143
SUMMER MOUNTAIN MACHINE SHOP,CORPORATION,PA,22 SUMMER MOUNTAIN RD,BERNVILLE,19506,PA,22 SUMMER MOUNTAIN RD,BERNVILLE,19506,6782822,ANTHONY HORST,OWNER,22 SUMMER MOUNTAIN RD BERNVILLE PA 19506 BERKS,22 SUMMER MOUNTAIN RD BERNVILLE PA 19506
"PMC INTEGRITY, LLC.",LLC,DE,,,,,,,,6782823,,,%CT CORPORATION SYSTEM DAUPHIN,
AGFI,CORPORATION,PA,2209 RIVER ROAD,LOUISVILLE,17110,PA,"2595 INTERSTATE DRIVE, SUITE 103",HARRISBURG,17110,6782826,"CGB AGRI FINANCIAL SERVICES, INC.",OWNER,"2595 INTERSTATE DRIVE, SUITE 103 HARRISBURG PA 17110 DAUPHIN",2209 RIVER ROAD LOUISVILLE KY 40206
HELP MANUELA ASYLUM FAMILY FUND,CORPORATION,PA,171 GOODYEAR ROAD,GARDNERS,17324,PA,171 GOODYEAR ROAD,GARDNERS,17324,6782830,KLAUS BERGMANN,OWNER,171 GOODYEAR ROAD GARDNERS PA 17324 ADAMS,171 GOODYEAR ROAD GARDNERS PA 17324
DAN KERR & ASSOCIATES,CORPORATION,PA,344 GOLDSMITH ROAD,PITTSBURGH,15237,PA,344 GOLDSMITH ROAD,PITTSBURGH,15237,6782833,DAN KERR,OWNER,344 GOLDSMITH ROAD PITTSBURGH PA 15237 ALLEGHENY,344 GOLDSMITH ROAD PITTSBURGH PA 15237
ALSBROOK & ASSOCIATES,CORPORATION,PA,5001 PENDLETON WAY #5104,CRANBERRY TOWNSHIP,16066,PA,5001 PEMDLETON WAY #5104,CRANBERRY TOWNSHIP,16066,6782835,BARM ALSBROOK,OWNER,5001 PEMDLETON WAY #5104 CRANBERRY TOWNSHIP PA 16066 BUTLER,5001 PENDLETON WAY #5104 CRANBERRY TOWNSHIP PA 16066
EL REY CONTRACTOR,CORPORATION,PA,407 MAIDENCREEK RD,FLEETWOOD,19522,PA,407 MAINDENCREEK ROAD,FLEETWOOD,19522,6782840,REYNALDO FRANCISCO,OWNER,407 MAINDENCREEK ROAD FLEETWOOD PA 19522 BERKS,407 MAIDENCREEK RD FLEETWOOD PA 19522
GOLD KEY LAKE SWIM TEAM,CORPORATION,PA,2000 GOLD KEY ESTATES 111 GOLD KEY ROAD,MILFORD,18337,PA,2000 GOLD KEY ESTATES 111 GOLD KEY ROAD,MILFORD,18337,6782842,AMY MANNING,OWNER,2000 GOLD KEY ESTATES 111 GOLD KEY ROAD MILFORD PA 18337 PIKE,2000 GOLD KEY ESTATES 111 GOLD KEY ROAD MILFORD PA 18337
PENNSYLVANIA STYLE LLC,LLC,PA,,,,PA,425 S 8TH STREET APT# 4,PHILADELPHIA,19147,6782843,,,425 S 8TH STREET APT# 4 PHILADELPHIA PA 19147 PHILADELPHIA,
KRZEWINSKI HOLDINGS LLC,LLC,PA,,,,PA,115 HOEVELER STREET,SPRINGDALE,15144,6782845,,,115 HOEVELER STREET SPRINGDALE PA 15144 ALLEGHENY,
SMITH & SONS EXPRESS LLC,LLC,PA,,,,PA,1234 SLATE HILL RD,PEACH BOTTOM,17563,6782846,,,1234 SLATE HILL RD PEACH BOTTOM PA 17563 LANCASTER,
VALLEY SNOW AND ICE,CORPORATION,PA,2925 JEFFERSON ST,BETHLEHEM,18017,PA,705 JENNINGS ST,BETHLEHEM,18017,6782853,FRANK KLOVACH,OWNER,705 JENNINGS ST BETHLEHEM PA 18017 NORTHAMPTON,2925 JEFFERSON ST BETHLEHEM PA 18020
"RAINBOW CONNECTION FARM, LLC",LLC,PA,,,,PA,297 ROUND HILL ROAD,BERLIN,15530,6782855,,,297 ROUND HILL ROAD BERLIN PA 15530 SOMERSET,
DESIGNS FROM THE GARDEN,CORPORATION,PA,429 LAUREN LANE,SADSBURYVILLE,19369-0414,PA,429 LAUREN LANE,SADSBURYVILLE,19369-0414,6782858,CANDACE RENAE HEARN,OWNER,429 LAUREN LANE SADSBURYVILLE PA 19369-0414 CHESTER,429 LAUREN LANE SADSBURYVILLE PA 19369
