name,business_type,state_registered,street_registered,city_registered,zip5_registered,state_physical,street_physical,city_physical,zip5_physical,filing_number,agent_name,agent_title,raw_physical_address,raw_registered_address
VITO'S FOOD PRODUCTS INC.,CORPORATION,NAN,,,,,,,,739896,,,1121 H WEST AARON DR STATE COLLEGE PA 16801-0 CENTRE,
VITO'S FOOD VILLA INC.,CORPORATION,NAN,,,,,,,,739897,,,1121 H WEST AARON DR STATE COLLEGE PA 16801-0 CENTRE,
"WINE COUNTRY, INC.",CORPORATION,PA,,,,,,,,739898,,,RD#3 MANHEIM PA 17583-0 LANCASTER,
"RON, INC.",CORPORATION,PA,17 N PRESIDENT AVE,LANCASTER,,PA 17602-0 LANCASTER,89 CEDAR ACRES DR,LANCASTER,,739899,CAMILLE DICKEL,PRESIDENT,89 CEDAR ACRES DR LANCASTER PA 17602-0 LANCASTER,17 N PRESIDENT AVE LANCASTER PA 17603-36
"GLASSMAN'S PHARMACY, INC.",CORPORATION,PA,,,,PA 19131-0 PHILADELPHIA,2615 W GIRARD AVE,PHILADELPHIA,,739900,,,2615 W GIRARD AVE PHILADELPHIA PA 19131-0 PHILADELPHIA,
ATHENA SYSTEMS CORPORATION,CORPORATION,NAN,,,,PA 19006-0 MONTGOMERY,"HUNTINGDON PIKE & COUNTY LINE RD, HUNTIN GDON PLAZA, STE. 108",HUNTINGDON VALLEY,,739901,,,"HUNTINGDON PIKE & COUNTY LINE RD, HUNTIN GDON PLAZA, STE. 108 HUNTINGDON VALLEY PA 19006-0 MONTGOMERY",
"JAPAT, INC.",CORPORATION,NAN,,,,PA,2206 SOUTH STREET,PHILA,,739902,,,2206 SOUTH STREET PHILA PA 0 -0 PHILADELPHIA,
WILLA'S TAXI CO.,CORPORATION,NAN,,,,PA 19126-0 PHILADELPHIA,6918 N 19TH ST,PHILA,,739903,,,6918 N 19TH ST PHILA PA 19126-0 PHILADELPHIA,
WHEEL BENDER CAB CO.,CORPORATION,NAN,,,,PA 19119-0 PHILADELPHIA,811 E VERNON RD,PHILADELPHIA,,739904,,,811 E VERNON RD PHILADELPHIA PA 19119-0 PHILADELPHIA,
TY'S CAB CO.,CORPORATION,PA,,,,PA 19120-0 PHILADELPHIA,744 W FISHER'S AVE,PHILADELPHIA,,739905,,,744 W FISHER'S AVE PHILADELPHIA PA 19120-0 PHILADELPHIA,
WYNNEWOOD PARK SERVICE CENTER INC.,CORPORATION,PA,,,,PA 19107-0 PHILADELPHIA,1321 ARCH ST,PHILA,,739906,,,1321 ARCH ST PHILA PA 19107-0 PHILADELPHIA,
DUBIS ASSOCIATES INCORPORATED,CORPORATION,NAN,,,,PA,2043 WEST ROCK ROAD,PERKASIE,,739907,,,2043 WEST ROCK ROAD PERKASIE PA 18944-0 BUCKS,
PHEASANT RUN ASSOCIATES,PARTNERSHIP,PA,,,,PA 19038-0 MONTGOMERY,115 NEW ST,GLENSIDE,,739908,BEREL P ALTMAN,GENPARTNER,115 NEW ST GLENSIDE PA 19038-0 MONTGOMERY,PA
DUPORTAIL DEVELOPMENT ASSOCIATES,PARTNERSHIP,NAN,,,,PA 19004-0 MONTGOMERY,STE 100 150 MONUMENT RD,BALA CYNWYD,,739909,PARCEL 10-4 CORP ET AL,GENPARTNER,STE 100 150 MONUMENT RD BALA CYNWYD PA 19004-0 MONTGOMERY,PA
GOREN & WEIN CORP.,CORPORATION,PA,C/O ELLIS M FLEISHER 3616 S GALLOWAY ST,PHILADELPHIA,,PA 19148-0 PHILADELPHIA,3300 S GALLOWAY ST UNIT 112,PHILADELPHIA,,739910,ROBERT WEIN,PRESIDENT,3300 S GALLOWAY ST UNIT 112 PHILADELPHIA PA 19148-0 PHILADELPHIA,C/O ELLIS M FLEISHER 3616 S GALLOWAY ST PHILADELPHIA PA 19148-51
SULLIVAN COUNTY INDUSTRIAL DEVELOPMENT AUTHORITY,CORPORATION,NAN,,,,,,,,739911,,,% OFFICE OF PLANNING & DEVELOPMENT SULLIVAN COUNTY COURTHOUSE LAPORTE PA 18626-0 SULLIVAN,
WARD FINANCIAL COMPANY,CORPORATION,NAN,1910 COCHRAN RD MANOR OAK 2 STE 304,PITTSBURGH,,PA 15220-0 ALLEGHENY,"MANOR OAK II, STE. 304, 1910 COCHRAN RD",PITTSBURGH,,739912,WILLIAM E WARD,PRESIDENT,"MANOR OAK II, STE. 304, 1910 COCHRAN RD PITTSBURGH PA 15220-0 ALLEGHENY",1910 COCHRAN RD MANOR OAK 2 STE 304 PITTSBURGH PA 15220
"DORIAN, GOLDSTEIN, WISNIEWSKI & ORCHINIK, P.C.",CORPORATION,PA,2410 BRISTOL RD,BENSALEM,,PA,2410 BRISTOL RD,BENSALEM,,739913,MARK S WISNIEWSKI,VICEPRESIDENT,2410 BRISTOL RD BENSALEM PA 19020-0 BUCKS,2410 BRISTOL RD BENSALEM PA 19020-6002
"J. V. RIGGING, INC.",CORPORATION,PA,PO BOX 4097,NEW KENSINGTN,,PA 15613-0 ARMSTRONG,418 WILLOWBROOK ROAD,APOLLO,,739914,MICHELLE S VAGLIA,TREASURER,418 WILLOWBROOK ROAD APOLLO PA 15613-0 ARMSTRONG,PO BOX 4097 NEW KENSINGTN PA 15068-1197
"MCRANDAL COMPANY, INC.",CORPORATION,NAN,701 FREEPORT RD,BLAWNOX,,PA 15215-0 ALLEGHENY,305 FREEPORT RD,PITTSBURGH,,739915,MICHAEL MCRANDAL,TREASURER,305 FREEPORT RD PITTSBURGH PA 15215-0 ALLEGHENY,701 FREEPORT RD BLAWNOX PA 15238-2757
CHOATE CORPORATION,CORPORATION,NAN,,,,PA 19031-0 MONTGOMERY,1448 BETHLEHEM PIKE,FLOURTOWN,,739916,,,1448 BETHLEHEM PIKE FLOURTOWN PA 19031-0 MONTGOMERY,
"C. R. SEQUETE MANAGEMENT, INC.",CORPORATION,NAN,,,,,,,,739917,,,BON AIRE SHOPPING CENTER BUTLER PA 16001-0 BUTLER,
"KATHANUK SERVICES COMPANY, INC.",CORPORATION,NAN,1 OLD HOOK RD,SHARON HILL,,PA 19148-0 PHILADELPHIA,531 FERNON STREET,PHILA,,739918,KEVIN D STEPANUK,SECRETARY,531 FERNON STREET PHILA PA 19148-0 PHILADELPHIA,1 OLD HOOK RD SHARON HILL PA 19079-23
"HENING, E. BRADFORD COMPANY, P.C.",CORPORATION,NAN,626 MOREDON RD,HUNTINGDON VLY,,PA 19006-0 MONTGOMERY,626 MOREDON ROAD,HUNTINGDON VALLEY,,739919,E BRADFORD HENING,PRESIDENT,626 MOREDON ROAD HUNTINGDON VALLEY PA 19006-0 MONTGOMERY,626 MOREDON RD HUNTINGDON VLY PA 19006-46
SNOWDON CONSTRUCTION COMPANY,CORPORATION,NAN,717 CONSTITUTION DR PO BOX G,EXTON,,,,,,739920,JULIAN MIRAGLIA,SECRETARY,"101 MARCHWOOD RD., PO BOX G EXTON PA 19341-0 CHESTER",717 CONSTITUTION DR PO BOX G EXTON PA 19341-15
"N.C. BATTAFARANO, M.D., P.C.",CORPORATION,NAN,1110 W VALLEY RD,WAYNE,,PA 19087-0 DELAWARE,1110 W VALLEY RD,WAYNE,,739921,NICHOLAS C BATTAFARANO,SECRETARY,1110 W VALLEY RD WAYNE PA 19087-0 DELAWARE,1110 W VALLEY RD WAYNE PA 19087-1440
"SATURN III VIDEO GAMES, INC.",CORPORATION,PA,415 5TH AVE,MCKEESPORT,,PA 15217-0 ALLEGHENY,6699 KINSMAN RD,PITTSBURGH,,739922,LAWRENCE J SMITH,PRESIDENT,6699 KINSMAN RD PITTSBURGH PA 15217-0 ALLEGHENY,415 5TH AVE MCKEESPORT PA 15132-02
"GLEN VALLEY, INC.",CORPORATION,PA,,,,PA,108 GLEN VALLEY RD,MORRISVILLE,,739923,,,108 GLEN VALLEY RD MORRISVILLE PA 19067-0 BUCKS,
GRAPE COAST VISITORS BUREAU,NONPROFIT,PA,,,,,,,,739924,,,20 S LAKE ST NORTH EAST PA 16428-0 ERIE,
SOUTH PARK SOCCER ASSOCIATION,NONPROFIT,NAN,,,,PA 15129-0 ALLEGHENY,1513 AMELIA ST,LIBRARY,,739925,,,1513 AMELIA ST LIBRARY PA 15129-0 ALLEGHENY,
SOUTHWESTERN PENNSYLVANIA WATERFOWLERS' ASSOCIATION,NONPROFIT,NAN,,,,,,,,739926,,,"STAR ROUTE, BOX 240A APOLLO PA 15613-0 ARMSTRONG",
CHRISTIAN RE-TREATERS MINISTRIES,NONPROFIT,NAN,,,,PA 19131-0 PHILADELPHIA,5226 EUCLID STREET,PHILA,,739927,,,5226 EUCLID STREET PHILA PA 19131-0 PHILADELPHIA,
"DOYLESTOWN AREA JAYCEES, INC.",NONPROFIT,NAN,,,,PA,12 BELMONT SQUARE,DOYLESTOWN,,739928,,,12 BELMONT SQUARE DOYLESTOWN PA 18901-0 BUCKS,
ENVIRONMENTALLY CONCERNED CITIZENS OF BUTLER AND LAWRENCE COUNTIES,NONPROFIT,NAN,,,,,,,,739930,,,RD#2 PORTERSVILLE PA 16051-0 BUTLER,
"COHOX SPORTS ASSOCIATION, INC.",NONPROFIT,NAN,,,,PA 19134-0 PHILADELPHIA,3226 CEDAR ST,PHILA,,739931,,,3226 CEDAR ST PHILA PA 19134-0 PHILADELPHIA,
"AGENT ORANGE HOTLINE, INC.",NONPROFIT,NAN,,,,,,,,739932,,,"MEETINGHOUSE LAW BLDG. & ART GALLERY, RO UTE 724 SPRING CITY PA 19475-0 CHESTER",
"S&S HI-STEPPERS, INC.",NONPROFIT,NAN,,,,PA 15206-0 ALLEGHENY,6633 APPLE AVE,PITTSBURGH,,739933,,,6633 APPLE AVE PITTSBURGH PA 15206-0 ALLEGHENY,
"LAMBING VALLEY FARM, INC.",NONPROFIT,NAN,,,,PA 16323-0 VENANGO,"BEATTY RUN RD, RD#3, BOX 203",FRANKLIN,,739934,,,"BEATTY RUN RD, RD#3, BOX 203 FRANKLIN PA 16323-0 VENANGO",
THE KERSHNER CORPORATION,CORPORATION,PA,,,,PA 19015-0 DELAWARE,4821 GREENWOOD ST,BROOKHAVEN,,739935,,,4821 GREENWOOD ST BROOKHAVEN PA 19015-0 DELAWARE,
"THAYCO MANUFACTURING CO., INC.",CORPORATION,NAN,,,,PA,ROUTE 309 & HILLTOP RD,COOPERSBURG,18036-0,739937,,,ROUTE 309 & HILLTOP RD COOPERSBURG PA 18036-0 LEHIGH,
"NATIONAL LICENSED PROMOTIONS, INC.",CORPORATION,NAN,C/O BARRY STEFEL 9144W ATLANTIC BLVD818 CORAL,SPRING,,PA,STORE #15 KING'S PLAZA SHOPPING CTR 16 61 EASTON RD,WARRINGTON,,739938,BARRY STEFEL,PRESIDENT,STORE #15 KING'S PLAZA SHOPPING CTR 16 61 EASTON RD WARRINGTON PA 18976-0 BUCKS,C/O BARRY STEFEL 9144W ATLANTIC BLVD818 CORAL SPRING FL 33071
"AKERS CLOTHIERS, LTD.",CORPORATION,NAN,1447 GREENDALE DR,PITTSBURGH,,PA 15147-0 ALLEGHENY,280 LANSDOWNE DR,VERONA,,739939,FRANCES ANN AKERS,PRESIDENT,280 LANSDOWNE DR VERONA PA 15147-0 ALLEGHENY,1447 GREENDALE DR PITTSBURGH PA 15239-02
SWISHER REAL ESTATE INC.,CORPORATION,NAN,18 N CHURCH ST,DU BOIS,,PA 15801-0 CLEARFIELD,212 WEST LONG AVE,DUBOIS,,739940,JAMES R SWISHER,PRESIDENT,212 WEST LONG AVE DUBOIS PA 15801-0 CLEARFIELD,18 N CHURCH ST DU BOIS PA 15801-17
WEST END APARTMENTS,PARTNERSHIP,PA,,,16901,PA,11499 ROUTE 6,WELLSBORO,16901,739941,DELMAR SERVICES INC.,GENPARTNER,11499 ROUTE 6 WELLSBORO PA 16901 TIOGA,PA
COMMU-TRONICS INC.,CORPORATION,NAN,566 DEVENTRY,SQUARE PALM HARBOR,,PA 19355-0 CHESTER,964 E SWEDESFORD ROAD,FRAZER,,739942,WILLIAM SARGENT,PRESIDENT,964 E SWEDESFORD ROAD FRAZER PA 19355-0 CHESTER,566 DEVENTRY SQUARE PALM HARBOR FL 34683
"CONCERN PEOPLE OF CRESTMONT, INC.",NONPROFIT,NAN,,,,PA 19090-0 MONTGOMERY,1650 FRANKLIN AVE,WILLOW GROVE,,739943,,,1650 FRANKLIN AVE WILLOW GROVE PA 19090-0 MONTGOMERY,
"JR.'S CONSERVATORY OF MUSIC, INC.",CORPORATION,NAN,,,,PA 19133-0 PHILADELPHIA,3056 N 5TH ST,PHILA,,739944,,,3056 N 5TH ST PHILA PA 19133-0 PHILADELPHIA,
PHILADELPHIA ELECTRICAL EQUIPMENT CO.,CORPORATION,PA,,,,PA 19380-0 DELAWARE,14 MT PLEASANT DR,ASTON,,739945,,,14 MT PLEASANT DR ASTON PA 19380-0 DELAWARE,
RIDGEWAY CORPORATION,CORPORATION,PA,114 86TH ST,TOWNSND INLT,,,,,,739946,RONALD EARL,PRESIDENT,1429 WALNUT ST 16TH FL PHILADELPHIA PA 19102-0 PHILADELPHIA,114 86TH ST TOWNSND INLT NJ 08243
"FAMILY MEDIATION SERVICE, LTD.",CORPORATION,NAN,C/O SAMUEL ROSEN 296 W GREENWOOD AVE,LANSDOWNE,,PA 19050-0 DELAWARE,296 W GREENWOOD AVE,LANSDOWNE,,739947,SAMUEL ROSEN,PRESIDENT,296 W GREENWOOD AVE LANSDOWNE PA 19050-0 DELAWARE,C/O SAMUEL ROSEN 296 W GREENWOOD AVE LANSDOWNE PA 19050-23
"TOWER VUE VILLAGE, LTD.",CORPORATION,PA,,,,PA 15227-0 ALLEGHENY,1110 TOWER VUE DRIVE,PITTSBURGH,,739948,,,1110 TOWER VUE DRIVE PITTSBURGH PA 15227-0 ALLEGHENY,
"LEVY/DUPLESSIS REAL ESTATE, LTD.",CORPORATION,NAN,,,,PA 19103-0 PHILADELPHIA,2130 DELANCEY PLACE,PHILA,,739949,,,2130 DELANCEY PLACE PHILA PA 19103-0 PHILADELPHIA,
"BRYAN G. SMITH CONCRETE CONSTRUCTION CO., INC.",CORPORATION,NAN,11 E MARKET ST,YORK,,PA 17331-0 YORK,1112 BALTIMORE ST PO BOX 185,HANOVER,,739950,STEPHEN L SMITH,VICEPRESIDENT,1112 BALTIMORE ST PO BOX 185 HANOVER PA 17331-0 YORK,11 E MARKET ST YORK PA 17401-67
L'ENCLOS DEVELOPMENT CORPORATION,CORPORATION,NAN,,,,PA,1284 STREET RD,BENSALEM,,739951,,,1284 STREET RD BENSALEM PA 19020-0 BUCKS,
"AMCEE, INC.",CORPORATION,NAN,1926 MAIN ST,NORTHAMPTON,,PA 18067-0 NORTHAMPTON,1926 MAIN ST,NORTHAMPTON,,739952,KAILASH C PATEL,PRESIDENT,1926 MAIN ST NORTHAMPTON PA 18067-0 NORTHAMPTON,1926 MAIN ST NORTHAMPTON PA 18067-48
NEW HORIZONS FOOD SERVICE AND MANAGEMENT CO.,CORPORATION,NAN,235 LANCASTER AVE,DEVON,,PA 19333-0 CHESTER,235 LANCASTER AVENUE,DEVON,,739953,EDWARD CAMPBELL,PRESIDENT,235 LANCASTER AVENUE DEVON PA 19333-0 CHESTER,235 LANCASTER AVE DEVON PA 19333-15
"FLAGG ENTERPRISES, INC.",CORPORATION,PA,C/O MARTHA FLAGG PO BOX 657,DEVON,,PA 19087-0 DELAWARE,388 LIBERTY LANE 2ND FLOOR,WAYNE,,739954,MARTHA N FLAGG,PRESIDENT,388 LIBERTY LANE 2ND FLOOR WAYNE PA 19087-0 DELAWARE,C/O MARTHA FLAGG PO BOX 657 DEVON PA 19333-15
TAL SYSTEM INC.,CORPORATION,NAN,,,,,,,,739955,,,GWYNEDD PLAZA BETHLEHEM PIKE & SHEBLE LANE SPRINGHOUSE PA 19477-0 MONTGOMERY,
"TIRE CHAMP, INC.",CORPORATION,PA,,,,PA 18518-0 LACKAWANNA,826 MONROE AVENUE,SCRANTON,,739956,,,826 MONROE AVENUE SCRANTON PA 18518-0 LACKAWANNA,
"SOCIETY HILL SCHOOL OF MUSIC AND ART, INC.",CORPORATION,PA,,,,PA 19106-0 PHILADELPHIA,506 SOUTH 5TH STREET,PHILADELPHIA,,739957,,,506 SOUTH 5TH STREET PHILADELPHIA PA 19106-0 PHILADELPHIA,
RING'S DRUG LTD.,CORPORATION,PA,5814 RISING SUN AVE,PHILADELPHIA,19120-1126,PA,5814 RISING SUN AVE,PHILADELPHIA,19120-1126,739958,RICHARD MASS,VICEPRESIDENT,5814 RISING SUN AVE PHILADELPHIA PA 19120-1126 PHILADELPHIA,5814 RISING SUN AVE PHILADELPHIA PA 19120-1126
"JOSONIER MANAGEMENT, INC.",CORPORATION,PA,,,,PA 15501-0 SOMERSET,104 NORTH CENTER AVE,SOMERSET,,739959,,,104 NORTH CENTER AVE SOMERSET PA 15501-0 SOMERSET,
"TMC PRODUCTIONS, INC.",CORPORATION,PA,,,,PA 19087-0 DELAWARE,219 SUGARTOWN ROAD K-303,WAYNE,,739960,,,219 SUGARTOWN ROAD K-303 WAYNE PA 19087-0 DELAWARE,
"GENNY'S PIES PLUS, INC.",CORPORATION,PA,,,,PA,7 SOUTH 6TH ST,STROUDSBURG,18360-0,739961,,,7 SOUTH 6TH ST STROUDSBURG PA 18360-0 MONROE,
"PAPPAS REPORTING SERVICE, INC.",CORPORATION,NAN,977 POMEROY ROAD,EUREKA,,,,,,739962,URSULA PAPPAS,PRESIDENT,1012 GRANT BUILDING PITTSBURGH PA 15219-0 ALLEGHENY,977 POMEROY ROAD EUREKA MT 59917
"HAWK SHADOW FEED AND SADDLERY, INC.",CORPORATION,NAN,1 NORWEGIAN PLZ PO DRAWER K,POTTSVILLE,,,,,,739963,SUSAN L S REIMBAN,PRESIDENT,4TH FL AMERICAN BANK BLDG POTTSVILLE PA 17901-0 SCHUYLKILL,1 NORWEGIAN PLZ PO DRAWER K POTTSVILLE PA 17901-54
"SPRING CITY FLORIST, INC.",CORPORATION,PA,,,,PA 19460-0 CHESTER,629 NEW ST,SPRING CITY,,739965,,,629 NEW ST SPRING CITY PA 19460-0 CHESTER,
PATEP DEVELOPMENT CORP.,CORPORATION,NAN,,,,PA 18411-0 LACKAWANNA,107 NORTH ABINGTON RD,CLARKS SUMMIT,,739966,,,107 NORTH ABINGTON RD CLARKS SUMMIT PA 18411-0 LACKAWANNA,
OEM INDUSTRIAL CORPORATION,CORPORATION,NAN,,,,PA 15216-0 ALLEGHENY,1408 POTOMAC AVE,PITTSBURGH,,739967,,,1408 POTOMAC AVE PITTSBURGH PA 15216-0 ALLEGHENY,
"ACORN SYSTEMS, LTD.",CORPORATION,PA,911 S 47TH ST,PHILADELPHIA,,PA 19401-0 MONTGOMERY,21 WEST AIRY STREET,NORRISTOWN,,739968,DAVID SHERR,PRESIDENT,21 WEST AIRY STREET NORRISTOWN PA 19401-0 MONTGOMERY,911 S 47TH ST PHILADELPHIA PA 19143-51
"INSTITUTE OF MEDICAL FITNESS, INC.",CORPORATION,NAN,205 BEACH GROVE DR,ERIE,,PA,6411 PEACH ST,ERIE,,739969,JANET K HENDRICKS,VICEPRESIDENT,6411 PEACH ST ERIE PA 16509-0 ERIE,205 BEACH GROVE DR ERIE PA 16505-25
"ED & SAL PASQUALE CONSTRUCTION CO., INC.",CORPORATION,NAN,802 WENZELL AVE,PITTSBURGH,,PA 15216-0 ALLEGHENY,802 WENZELL AVE,PITTSBURGH,,739970,SALVATORE PASQUALE,VICEPRESIDENT,802 WENZELL AVE PITTSBURGH PA 15216-0 ALLEGHENY,802 WENZELL AVE PITTSBURGH PA 15216-3100
HUMAN RESOURCES DEVELOPMENT CORPORATION,CORPORATION,NAN,,,,,,,,739971,,,218 EDGEWORTH LANE % W J VANDEMARK SEWICKLEY PA 15143-0 ALLEGHENY,
"DRAYER TIRE DISTRIBUTORS, INC.",CORPORATION,NAN,34 SPRING CREST BLVD,SINKING SPRING,,PA 17403-0 YORK,41 FOX RUN DRIVE,YORK,,739972,ROBERT A DRAYER III,PRESIDENT,41 FOX RUN DRIVE YORK PA 17403-0 YORK,34 SPRING CREST BLVD SINKING SPRING PA 19608-06
"NISTA, JOSEPH A. M.D., P.C.",CORPORATION,NAN,405 LYNN ANN DR,NEW KENSINGTN,,PA 15139-0 ALLEGHENY,825 EIGHTH ST,OAKMONT,,739973,JOSEPH A NISTA,PRESIDENT,825 EIGHTH ST OAKMONT PA 15139-0 ALLEGHENY,405 LYNN ANN DR NEW KENSINGTN PA 15068-65
"I. G. ENTERPRISES, INC.",CORPORATION,NAN,,,,PA 15217-0 ALLEGHENY,6699 KINSMAN RD,PITTSBURGH,,739974,,,6699 KINSMAN RD PITTSBURGH PA 15217-0 ALLEGHENY,
"CORAL ACQUISITIONS, INC.",CORPORATION,PA,213 2ND AVE,WARREN,16365,PA,15 BRADLEY STREET,WARREN,16365,739976,MYRON L TURFITT,PRESIDENT,15 BRADLEY STREET WARREN PA 16365 WARREN,213 2ND AVE WARREN PA 16365-2405
"CENTER FOR UROLOGIC CARE OF THE MAIN LINE, LTD.",CORPORATION,NAN,245,BRYN MAWR,,PA 19085-0 DELAWARE,265 HOTHORPE LANE,VILLANOVA,,739979,THOMAS F LANCHONEY,VICEPRESIDENT,265 HOTHORPE LANE VILLANOVA PA 19085-0 DELAWARE,245 BRYN MAWR AVE BRYN MAWR PA 19010-46
ARCHIMETRICS INCORPORATED,CORPORATION,NAN,,,,PA 19041-0 MONTGOMERY,354 W LANCASTER AVENUE,HAVERFORD,,739980,,,354 W LANCASTER AVENUE HAVERFORD PA 19041-0 MONTGOMERY,
"FUTURE OFFICE PRODUCTS SUPPLY, INC.",CORPORATION,NJ,,,,PA 19106-0 PHILADELPHIA,BRODERICK & KARASZKIEWICZ 1800 PENN MUTU AL TOWER 510 WALNUT ST,PHILADELPHIA,,739981,,,BRODERICK & KARASZKIEWICZ 1800 PENN MUTU AL TOWER 510 WALNUT ST PHILADELPHIA PA 19106-0 PHILADELPHIA,
ED TAYLOR INC.,CORPORATION,NAN,,,,,,,,739982,,,3901 W 26TH ST PO BOX 8347 ERIE PA 16505-0 ERIE,
"EXPRESS HOUSE, LTD.",CORPORATION,NAN,,,,PA 15089-0 WESTMORELAND,"CIRCLE DRIVE, RD 1",WEST NEWTON,,739983,,,"CIRCLE DRIVE, RD 1 WEST NEWTON PA 15089-0 WESTMORELAND",
"PESSOLANO, INC.",CORPORATION,NAN,ROBERT C. PESSOLANOPO BOX 505,SAN MIGUEL,,PA 15202-0 ALLEGHENY,7105 WOODLAND AVE,BENAVON,,739984,ROBERT C PESSOLANO,VICEPRESIDENT,7105 WOODLAND AVE BENAVON PA 15202-0 ALLEGHENY,ROBERT C. PESSOLANOPO BOX 505 SAN MIGUEL CA 93451-0505
AUTOMOTIVE MAINTENANCE CO.,CORPORATION,NAN,,,,PA,3482 LIMEKILN PIKE,CHALFONT,,739985,,,3482 LIMEKILN PIKE CHALFONT PA 18914-0 BUCKS,
TASCO CONSTRUCTION CO.,CORPORATION,NAN,732 BLUE SCHOOL RD,PERKASIE,,PA,555 STREET RD,BENSALEM,,739986,PAULETTE BARNES,PRESIDENT,555 STREET RD BENSALEM PA 19020-0 BUCKS,732 BLUE SCHOOL RD PERKASIE PA 18944-09
"P.S.I. HYDRAULICS, INC.",CORPORATION,MI,11900 MAYFIELD RD,LIVONIA,,,,,,739988,WILLIAM T PHILLIPS,TREASURER,"123 SOUTH BROAD STREET, C/O C T CORPORAT ION SYSTEM PHILADELPHIA PA 19109-0 PHILADELPHIA",11900 MAYFIELD RD LIVONIA MI 48150
"PRESIDENTIAL AIRCRAFT SALES, INC.",CORPORATION,NAN,,,,PA,"RR2, GLENWOOD DRIVE, BOX 121",WASHINGTON CROSSING,,739989,,,"RR2, GLENWOOD DRIVE, BOX 121 WASHINGTON CROSSING PA 18977-0 BUCKS",
NIAGARAN DEVELOPMENT CO.,CORPORATION,MI,,,,PA 15701-0 INDIANA,1012 PHILADELPHIA STREET,INDIANA,,739990,,,1012 PHILADELPHIA STREET INDIANA PA 15701-0 INDIANA,
AQUARIAN COMPUFINANCE INC.,CORPORATION,DE,,,,PA 19102-0 PHILADELPHIA,"1405 LOCUST STREET, SUITE 1107",PHILADELPHIA,,739991,,,"1405 LOCUST STREET, SUITE 1107 PHILADELPHIA PA 19102-0 PHILADELPHIA",
"REDCAY-FULLER ENTERPRISES, INC.",CORPORATION,NAN,,,,PA 17547-0 LANCASTER,ROUTE 441 & WATERFORD ST,MARIETTA,,739992,,,ROUTE 441 & WATERFORD ST MARIETTA PA 17547-0 LANCASTER,
"JOSEPH P. MC FARLAND, M.D., P.C.",CORPORATION,NAN,RIDDLE HEALTH CTR 1078 W BALTIMORE,PKE MEDIA,,PA 19067-0 DELAWARE,"RIDDLE HEALTH CARE CENTER, SUITE 103",MEDIA,,739993,JOSEPH P MCFARLAND,PRESIDENT,"RIDDLE HEALTH CARE CENTER, SUITE 103 MEDIA PA 19067-0 DELAWARE",RIDDLE HEALTH CTR 1078 W BALTIMORE PKE MEDIA PA 19063-23
CANYON LODGE,NONPROFIT,PA,,,,,,,,739995,,,FRONT STREET % MR OSCAR HOFFMAN FREEBURG PA 17827-0 SNYDER,
"ENERGY SAVERS UNLIMITED, INC.",CORPORATION,PA,,,,PA 17851-0 NORTHUMBERLAND,PO BOX 347,REGENCY BLVD MOUNT CARMEL,,739996,,,PO BOX 347 REGENCY BLVD MOUNT CARMEL PA 17851-0 NORTHUMBERLAND,
"EXECUTIVE EXCESS OF PA., LTD.",CORPORATION,NAN,,,,,,,,739997,,,550 WEST DEKALB PIKE KING OF PRUSSIA PA 19406-0 MONTGOMERY,
"MARC GOLD & ASSOCIATES, INC.",CORPORATION,DE,,,,PA 19075-0 MONTGOMERY,501 PAPER MILL ROAD,ORELAND,,739998,,,501 PAPER MILL ROAD ORELAND PA 19075-0 MONTGOMERY,
"SERVICE MASTER BY SPIC N SPAN, INC.",CORPORATION,PA,5TH AVENUE AND 11TH S,FORD CITY,,PA 16226-0 ARMSTRONG,% KEITH A BELL 510 11TH,ST FORD CITY,,740000,KEITH BELL,PRESIDENT,% KEITH A BELL 510 11TH ST FORD CITY PA 16226-0 ARMSTRONG,5TH AVENUE AND 11TH S FORD CITY PA 16226
PATTI ANN DRESS SHOPPE INC.,CORPORATION,NAN,,,,PA 15229-0 ALLEGHENY,434 PERRY HIGHWAY,PITTSBURGH,,740001,,,434 PERRY HIGHWAY PITTSBURGH PA 15229-0 ALLEGHENY,
"ALLENTOWN ENTERPRISES, INC.",CORPORATION,NAN,,,,PA,"PO BOX 346, 8TH & ST. PAUL STS",WHITEHALL,18052-0,740002,,,"PO BOX 346, 8TH & ST. PAUL STS WHITEHALL PA 18052-0 LEHIGH",
BRANSON INTERNATIONAL PLASMA CORPORATION,CORPORATION,CA,,,,PA 19103-0 PHILADELPHIA,C/O C T CORPORATION SYSTEM 1635 MARKET STREET,PHILADELPHIA,,740003,,,C/O C T CORPORATION SYSTEM 1635 MARKET STREET PHILADELPHIA PA 19103-0 PHILADELPHIA,
"ACTION RENTAL SYSTEMS, INC.",CORPORATION,MD,,,,PA 19109-0 PHILADELPHIA,123 SOUTH BROAD STREET,PHILADELPHIA,,740004,,,123 SOUTH BROAD STREET PHILADELPHIA PA 19109-0 PHILADELPHIA,
"CARROT CREATIONS, INC.",CORPORATION,NAN,,,,PA 19146-0 PHILADELPHIA,2405 CHRISTIAN ST,PHILA,,740005,,,2405 CHRISTIAN ST PHILA PA 19146-0 PHILADELPHIA,
"MR. BLOCKHEAD, INC.",CORPORATION,NAN,P O BOX 1212,NORTH WALES,,PA 19454-0 MONTGOMERY,1292 WELSH RD,NORTH WALES,,740006,SONDRA A LEVITT,VICEPRESIDENT,1292 WELSH RD NORTH WALES PA 19454-0 MONTGOMERY,P O BOX 1212 NORTH WALES PA 19454-46
"THE KIMBALL PRESS, INC.",CORPORATION,PA,,,,PA 19333-0 CHESTER,"114 SUGARTOWN RD, PO BOX 98",DEVON,,740007,,,"114 SUGARTOWN RD, PO BOX 98 DEVON PA 19333-0 CHESTER",
"LEONARD EVANTASH ARCHITECTS, P.C.",CORPORATION,NAN,STE 807 8460 LIMKILN PIKE,WYNCOTE,,,,,,740008,LEONARD EVANTASH,TREASURER,234 GODDARD BLVD KING OF PRUSSIA PA 19406-0 MONTGOMERY,STE 807 8460 LIMKILN PIKE WYNCOTE PA 19095-46
"RITZ EMERGENCY SYSTEMS, INC.",CORPORATION,NAN,,,,,,,,740009,,,R.D. 6 C/O EUGENE RITZ BUTLER PA 16001-0 BUTLER,
"STRATEGIC SEARCH, INC.",CORPORATION,PA,,,,PA 19444-0 MONTGOMERY,3015 EDMONDS RD,LAFAYETTE HILLS,,740010,,,3015 EDMONDS RD LAFAYETTE HILLS PA 19444-0 MONTGOMERY,
"PYRAMID GOLF CO., INC.",CORPORATION,PA,,,,PA 16238-0 ARMSTRONG,ROUTE 66,MANORVILLE,,740011,,,ROUTE 66 MANORVILLE PA 16238-0 ARMSTRONG,
"DERSON, INC.",CORPORATION,DE,2200 STONEY POINT RD,EAST BERLIN,,,,,,740012,JACK W ANDERSON,PRESIDENT,R. D. #1 EAST BERLIN PA 17316-0 ADAMS,2200 STONEY POINT RD EAST BERLIN PA 17316-01
"LOCK-DOC, INCORPORATED",CORPORATION,PA,,,,PA 18102-0 LEBANON,211 N 7TH ST,ALLENTOWN,,740013,,,211 N 7TH ST ALLENTOWN PA 18102-0 LEBANON,
"RALPHA B. SENDEROWITZ ASSOCIATES, INC.",CORPORATION,NAN,THE LAKES 995 N 32ND ST,ALLENTOWN,,PA 18103-0 LEBANON,"2901 MEADOWBROOK CIRCLE, SOUTH",ALLENTOWN,,740014,RALPHA B SENDEROWITZ,PRESIDENT,"2901 MEADOWBROOK CIRCLE, SOUTH ALLENTOWN PA 18103-0 LEBANON",THE LAKES 995 N 32ND ST ALLENTOWN PA 18104-39
JOHN P. ZERKLE & SON INC.,CORPORATION,NAN,2949 W GERMANTOWN PIKE,NORRISTOWN,,,,,,740015,JOHN P ZERKLE,PRESIDENT,109 N GULPH RD KING OF PRUSSIA PA 19406-0 MONTGOMERY,2949 W GERMANTOWN PIKE NORRISTOWN PA 19403-46
SCHUYLKILL VALLEY HEATING AND AIR CONDITIONING INCORPORATED,CORPORATION,NAN,,,,PA 19460-0 CHESTER,125 HAWTHORNE LANE,PHOENIXVILLE,,740016,,,125 HAWTHORNE LANE PHOENIXVILLE PA 19460-0 CHESTER,
H. O. P. ENTERPRISES INC.,CORPORATION,PA,217 FREDERICK ST,HANOVER,,PA 17331-0 YORK,217 FREDERICK ST,HANOVER,,740017,V P PISULA III,TREASURER,217 FREDERICK ST HANOVER PA 17331-0 YORK,217 FREDERICK ST HANOVER PA 17331-67
CHESTNUT-BRAVO INC.,CORPORATION,NAN,,,,PA 19104-0 PHILADELPHIA,"C/O RAVINDRA PATEL, 4002 CHESTNUT ST",PHILA,,740018,,,"C/O RAVINDRA PATEL, 4002 CHESTNUT ST PHILA PA 19104-0 PHILADELPHIA",
"I & G BOOKKEEPING SERVICES, INC.",CORPORATION,PA,,,,PA,83 WINGED FOOT DR,FLYING HILLS,,740019,,,83 WINGED FOOT DR FLYING HILLS PA 19607-0 BERKS,
"HESSEN RESTAURANTS, LTD.",CORPORATION,PA,,,,PA 17602-0 LANCASTER,923 SOUTH DUKE ST,LANCASTER,,740020,,,923 SOUTH DUKE ST LANCASTER PA 17602-0 LANCASTER,
"MULTI-SERV INDUSTRIES, INC.",CORPORATION,PA,PO BOX 379,BEAVER FALLS,15010-0,PA,2 WINDYCREST DR,BEAVER FALLS,15010-0,740021,RICHARD ROCERETO,TREASURER,2 WINDYCREST DR BEAVER FALLS PA 15010-0 BEAVER,PO BOX 379 BEAVER FALLS PA 15010-04
"INDIANHEAD POWER CO., INC.",CORPORATION,NAN,,,,PA 19426-0 MONTGOMERY,118 SYCAMORE COURT,COLLEGEVILLE,,740022,,,118 SYCAMORE COURT COLLEGEVILLE PA 19426-0 MONTGOMERY,
"CNTL INTERNATIONAL, INC.",CORPORATION,NAN,C/O T P LOMBOY 2949 ALLEN ST,ALLENTOWN,18104-0,PA,2949 ALLEN ST,ALLENTOWN,18104-0,740023,TITO LOMBOY,PRESIDENT,2949 ALLEN ST ALLENTOWN PA 18104-0 LEHIGH,C/O T P LOMBOY 2949 ALLEN ST ALLENTOWN PA 18104-39
"TMC-Q AVIATION, INC.",CORPORATION,NAN,291 FOX RD,APOLLO,,,,,,740024,THOMAS BESTERMAN,SECRETARY,"PO BOX 607, ROUTE 66, PARKS INDUSTRIAL D RIVE LEECHBURG PA 15656-0 ARMSTRONG",291 FOX RD APOLLO PA 15613-03
"W. L. CUNNINGHAM, M. D.",CORPORATION,NAN,4 ESTHER ST,RODGERS MNR CHARLEROI,,PA 15022-0 WASHINGTON,305 MCKEAN AVENUE,CHARLEROI,,740025,W L CUNNINGHAM,PRESIDENT,305 MCKEAN AVENUE CHARLEROI PA 15022-0 WASHINGTON,4 ESTHER ST RODGERS MNR CHARLEROI PA 15022-63
T. CAB CO.,CORPORATION,PA,,,,PA 19119-0 PHILADELPHIA,811 VERNON ROAD,PHILADELPHIA,,740026,,,811 VERNON ROAD PHILADELPHIA PA 19119-0 PHILADELPHIA,
ROCKET CAB CO.,CORPORATION,NAN,,,,,,,,740027,,,APARTMENT A-103 LOCKART PLAZA PHILADELPHIA PA 19116-0 PHILADELPHIA,
"RAYMOND EDWARDS TAXI, INC.",CORPORATION,NAN,,,,PA 19023-0 DELAWARE,300 N FRONT ST - APT A-11,DARBY,,740028,,,300 N FRONT ST - APT A-11 DARBY PA 19023-0 DELAWARE,
REGGIE CAB CO.,CORPORATION,NAN,,,,PA 19119-0 PHILADELPHIA,1302 E CARDEZA ST,PHILADELPHIA,,740029,,,1302 E CARDEZA ST PHILADELPHIA PA 19119-0 PHILADELPHIA,
OVERLAND EXPRESS TAXI CO.,CORPORATION,NAN,,,,PA 19003-0 DELAWARE,16 WEST LANCASTER AVE,ARDMORE,,740030,,,16 WEST LANCASTER AVE ARDMORE PA 19003-0 DELAWARE,
OPTIMIST CAB CO.,CORPORATION,NAN,,,,PA 19140-0 PHILADELPHIA,1425 WEST TIOGA ST,PHILADELPHIA,,740031,,,1425 WEST TIOGA ST PHILADELPHIA PA 19140-0 PHILADELPHIA,
"SENSUALLY YOURS, INC.",CORPORATION,PA,,,,,,,,740032,,,"650 SKIPPACK PIKE, SUITE 301 BLUE BELL PA 19422-0 MONTGOMERY",
"H.J.J.R., INC.",CORPORATION,NAN,P O BOX 2538,ALTOONA,,PA,401 ALLEGHENY ST,HOLLIDAYSBURG,,740033,JANET WINGARD,SECRETARY,401 ALLEGHENY ST HOLLIDAYSBURG PA 16648-0 BLAIR,P O BOX 2538 ALTOONA PA 16603-07
"THE DOMINO GROUP, INC.",CORPORATION,NAN,,,,PA,210 NORTH 50TH ST,PHILA,,740034,,,210 NORTH 50TH ST PHILA PA 0 -0 PHILADELPHIA,
HEMLOS INC.,CORPORATION,NAN,,,,PA 15601-0 WESTMORELAND,508 RIDGEWAY ST,GREENSBURG,,740035,,,508 RIDGEWAY ST GREENSBURG PA 15601-0 WESTMORELAND,
"GELSINGER, D. R. INC.",CORPORATION,PA,,,,PA,RD 3,WERNERSVILLE,,740036,,,RD 3 WERNERSVILLE PA 19565-0 BERKS,
"F.O.F. INDUSTRIES, INC.",CORPORATION,NAN,,,,PA 17925-0 SCHUYLKILL,"VALLEY STREET, PO BOX 235",BROCKTON,,740037,,,"VALLEY STREET, PO BOX 235 BROCKTON PA 17925-0 SCHUYLKILL",
"THE PARTS PLACE, INC.",CORPORATION,NAN,,,,PA 17042-0 LEBANON,"ROUTE 3, BOX 1585",LEBANON,,740039,,,"ROUTE 3, BOX 1585 LEBANON PA 17042-0 LEBANON",
WORLD TRADE ENTERPRISES INCORPORATED,CORPORATION,PA,,,,PA,802 LONG ACRE BOULEVARD,YEADON,,740040,,,802 LONG ACRE BOULEVARD YEADON PA 19050-0 BUCKS,
"VISION VIDEO, INC.",CORPORATION,PA,2030 WENTZ CHURCH ROAD,WORCESTER,,PA 19490-0 MONTGOMERY,"2030 WENTZ CHURCH ROAD, P.O. BOX 540",WORCESTER,,740041,WILLIAM K CURTIS,TREASURER,"2030 WENTZ CHURCH ROAD, P.O. BOX 540 WORCESTER PA 19490-0 MONTGOMERY",2030 WENTZ CHURCH ROAD WORCESTER PA 19490
"CARSTIN MARK COMMUNICATIONS, LTD.",CORPORATION,NAN,785 CRESSMAN RD,HARLEYSVILLE,,PA 19446-0 MONTGOMERY,2030 WENTZ CHURCH ROAD,LANSDALE,,740042,MARK H TUTTLE,PRESIDENT,2030 WENTZ CHURCH ROAD LANSDALE PA 19446-0 MONTGOMERY,785 CRESSMAN RD HARLEYSVILLE PA 19438-46
"INTERNATIONAL INNOVATIONS, INC.",CORPORATION,PA,,,,PA,1154 MACARTHUR ROAD,WHITEHALL,18052-0,740043,,,1154 MACARTHUR ROAD WHITEHALL PA 18052-0 LEHIGH,
T. S. RICHARD INC.,CORPORATION,NAN,,,,PA 15904-0 CAMBRIA,125 THEATRE DRIVE,JOHNSTOWN,,740044,,,125 THEATRE DRIVE JOHNSTOWN PA 15904-0 CAMBRIA,
"CREATIVE TAX PLANNERS, INC.",CORPORATION,NAN,,,,PA 19342-0 DELAWARE,24 WOODROSE LANE,GLEN MILLS,,740045,NIRANJAN L DHRUVA,VICEPRESIDENT,24 WOODROSE LANE GLEN MILLS PA 19342-0 DELAWARE,
"STEPHEN MCCANN ASSOCIATES, INC.",CORPORATION,NAN,305 W GEORGE ST PO BOX 404,CARMICHAELS,,,,,,740046,STEPHEN MCCANN,PRESIDENT,%CT CORPORATION SYSTEM ALLEGHENY,305 W GEORGE ST PO BOX 404 CARMICHAELS PA 15320-30
"FRANK WILCZYNSKI JR., INC.",CORPORATION,PA,,,,PA,"BOX 192, RD 2, GREEN ROAD",GEORGETOWN,15043-0,740047,,,"BOX 192, RD 2, GREEN ROAD GEORGETOWN PA 15043-0 BEAVER",
"THE PIZZA FACTORY, INC.",CORPORATION,PA,,,,PA 19145-0 PHILADELPHIA,2600 SOUTH CHADWICK ST,PHILADELPHIA,,740049,,,2600 SOUTH CHADWICK ST PHILADELPHIA PA 19145-0 PHILADELPHIA,
"GEORGE A. JANKE AND SONS, INC.",CORPORATION,NAN,,,,PA,360 COLD SPRING,SOUTHAMPTON,,740050,,,360 COLD SPRING SOUTHAMPTON PA 18966-0 BUCKS,
NYTOY CORP.,CORPORATION,PA,798 ELEVENTH AVENUE,NEW YORK,,PA 19103-0 PHILADELPHIA,1900 MARKET ST STE 700,PHILADELPHIA,,740051,ROBERT POTANKIN,PRESIDENT,1900 MARKET ST STE 700 PHILADELPHIA PA 19103-0 PHILADELPHIA,798 ELEVENTH AVENUE NEW YORK NY 10019
"B H LIQUIDATING, LTD.",CORPORATION,NAN,,,,PA,920 RAY AVENUE,CROYDON,,740052,,,920 RAY AVENUE CROYDON PA 19020-0 BUCKS,
"HOLLIS, JONES, BUTLER, INC.",CORPORATION,PA,,,,PA 19131-0 PHILADELPHIA,5458 ARLINGTON ST,PHILADELPHIA,,740053,,,5458 ARLINGTON ST PHILADELPHIA PA 19131-0 PHILADELPHIA,
"CENTER CITY PRETZEL CO., INC.",CORPORATION,PA,816 WASHINGTON,AVEANTHONY TONELLI PHILADELPHIA,,PA 19146-0 PHILADELPHIA,2901-2911 ELLSWORTH ST,PHILADELPHIA,,740054,ANTHONY TONELLI,PRESIDENT,2901-2911 ELLSWORTH ST PHILADELPHIA PA 19146-0 PHILADELPHIA,816 WASHINGTON AVEANTHONY TONELLI PHILADELPHIA PA 19147-4717
MARKETING RESOURCES INTERNATIONAL CORP.,CORPORATION,NAN,,,,PA,3580 PROGRESS DRIVE,CORNWELLS HEIGHTS,,740055,,,3580 PROGRESS DRIVE CORNWELLS HEIGHTS PA 19020-0 BUCKS,
"TOP-SPIN COMMUNICATIONS, INC.",CORPORATION,NAN,,,,PA 19006-0 MONTGOMERY,1255 WRIGHT DRIVE,HUNTINGDON VALLEY,,740056,,,1255 WRIGHT DRIVE HUNTINGDON VALLEY PA 19006-0 MONTGOMERY,
"JERRY H. GRICE AND ASSOCIATES, INC.",CORPORATION,NAN,,,,PA,711 WAYNE ST,CORRY,,740057,,,711 WAYNE ST CORRY PA 16407-0 ERIE,
"AMERICAN CERAMICS, INC.",CORPORATION,NAN,,,,PA 15146-0 ALLEGHENY,2451 SAUNDER STATION RD,MONROEVILLE,,740058,,,2451 SAUNDER STATION RD MONROEVILLE PA 15146-0 ALLEGHENY,
DYLER CORPORATION,CORPORATION,PA,,,,,,,,740059,,,2206 FIFTH AVENUE REAR PITTSBURGH PA 15219-0 ALLEGHENY,
"RIBCA, INC.",CORPORATION,NAN,,,,PA 19150-0 PHILADELPHIA,1011 ALLENS LANE,PHILA,,740062,,,1011 ALLENS LANE PHILA PA 19150-0 PHILADELPHIA,
E & M MFG. CO.,CORPORATION,NAN,,,,PA,735 PITTSTON ST,ALLENTOWN,18103-0,740063,,,735 PITTSTON ST ALLENTOWN PA 18103-0 LEHIGH,
"GREATER HAZLETON AREA POLONAISE SOCIETY, INC.",NONPROFIT,NAN,,,,PA 18201-0 LUZERNE,29 E 8TH ST,HAZLETON,,740064,,,29 E 8TH ST HAZLETON PA 18201-0 LUZERNE,
MANUFACTURERS HANOVER LEASING CORPORATION,CORPORATION,NY,,,,,,,,740065,PAULA S GREENMAN,SECRETARY,%CT CORPORATION SYSTEM UNKNOWN,8TH FLR 52 BROADWAY NEW YORK NY 10004
"HELP UNLIMITED, INC.",CORPORATION,OH,,,,,,,,740067,,,123 SOUTH BROAD STREET C/O C T CORPORATI ON SYSTEM PHILADELPHIA PA 19109-0 PHILADELPHIA,
PACCAR INC.,CORPORATION,DE,P0BOX 1518,BELLEVUE,,,,,,740068,ULRICH C KAMMHOLZ,TREASURER,"%THE PRENTICE-HALL CORPORATION SYSTEM, INC. DAUPHIN",P0BOX 1518 BELLEVUE WA 98009
INFODETICS CORPORATION,CORPORATION,CA,C/O ROBERT MOSIER 3151 AIRWAY AVE STE A1,COSTA MESA,,,,,,740070,JACK DONNELLY,TREASURER,123 SOUTH BROAD STREET C/O C T CORPORATI ON SYSTEM PHILADELPHIA PA 19109-0 PHILADELPHIA,C/O ROBERT MOSIER 3151 AIRWAY AVE STE A1 COSTA MESA CA 92626
TRUE FORM FOUNDATIONS CORP.,CORPORATION,DE,,,,,,,,740071,,,HAMILTON AND QUARRY STREETS DARBY PA 19023-0 DELAWARE,
HOME SHOPPERS CORPORATION,CORPORATION,IL,,,,,,,,740073,,,"123 SOUTH BROAD STREET, C/O C T CORPORAT ION SYSTEM PHILADELPHIA PA 19109-0 PHILADELPHIA",
ANGLECOTT ASSOCIATES,PARTNERSHIP,PA,,,,PA 19118-0 PHILADELPHIA,401 E EVERGREEN AVE,PHILADELPHIA,,740074,RICHARD SNOWDEN,GENPARTNER,401 E EVERGREEN AVE PHILADELPHIA PA 19118-0 PHILADELPHIA,PA
BLOSSOM HILL MENNONITE CHURCH,NONPROFIT,PA,,,,PA 17601-0 LANCASTER,333 DELP RD,LANCASTER,,740075,,,333 DELP RD LANCASTER PA 17601-0 LANCASTER,
"NATIONAL AUTO LISTINGS OF BRISTOL, INC.",CORPORATION,NAN,ATTN D M CURRAN 7400 ROUTE 13,LEVITTOWN,,PA,7400 ROUTE 13,LEVITTOWN,,740078,DANIEL M CURRAN,PRESIDENT,7400 ROUTE 13 LEVITTOWN PA 19054-0 BUCKS,ATTN D M CURRAN 7400 ROUTE 13 LEVITTOWN PA 19057-09
"MICHAEL ERVIN ASSOCIATES, INC.",CORPORATION,PA,1567 WETHERSFIELD DR,ALLENTOWN,18102-0,PA,1401 GREEN ST,ALLENTOWN,18102-0,740079,MICHAEL ERVIN,PRESIDENT,1401 GREEN ST ALLENTOWN PA 18102-0 LEHIGH,1567 WETHERSFIELD DR ALLENTOWN PA 18104-1947
"REISINGER, JOSEPH R. ESQ., P.C.",CORPORATION,NAN,444 S FRANKLIN ST,WILKES BARRE,,,,,,740080,JOSEPH R REISINGER,PRESIDENT,700 FIRST EASTERN BANK BLDG WILKES-BARRE PA 18701-0 LUZERNE,444 S FRANKLIN ST WILKES BARRE PA 18702-3888
"RITCHEY'S DAIRY, INC.",CORPORATION,PA,2130 CROSS COVE RD,MARTINSBURG,16662,PA,2130 CROSS COVE RD,MARTINSBURG,16662,740081,REID E RITCHEY,PRESIDENT,2130 CROSS COVE RD MARTINSBURG PA 16662 BLAIR,2130 CROSS COVE RD MARTINSBURG PA 16662-7619
"CORPAC, INCORPORATED",CORPORATION,PA,,,,PA 18018-0 NORTHAMPTON,1967 HILLTOP TERRACE,BETHLEHEM,,740082,,,1967 HILLTOP TERRACE BETHLEHEM PA 18018-0 NORTHAMPTON,
SOUTHERN ALLEGHENIES FARMERS ETHANOL COOPERATIVE,CORPORATION,NAN,,,,PA,R.D. 1 BOX 85,WARFORDSBURG,17267-0,740083,,,R.D. 1 BOX 85 WARFORDSBURG PA 17267-0 FULTON,
"THE GALLAGHER REPORT, INC.",CORPORATION,NAN,,,,PA 19103-0 PHILADELPHIA,1600 LOCUST ST,PHILA,,740085,,,1600 LOCUST ST PHILA PA 19103-0 PHILADELPHIA,
"MONDO TIER MINERALS, INC.",CORPORATION,NAN,,,,,,,,740089,,,20 RIVERS EDGE DRIVE NO. 3 JEFFERSONVILLE PA 19403-0 MONTGOMERY,
"VERDONI TRANSPORTATION, INC.",CORPORATION,NAN,,,,PA,1247 RIDGE RD,AMBRIDGE,15003-0,740090,,,1247 RIDGE RD AMBRIDGE PA 15003-0 BEAVER,
"NATRONA HEIGHTS OB/GYN, INC.",CORPORATION,PA,,,,PA 15065-0 ALLEGHENY,1301 ALABAMA AVE,NATRONA HEIGHTS,,740092,DATAR SINGH,PRESIDENT,1301 ALABAMA AVE NATRONA HEIGHTS PA 15065-0 ALLEGHENY,1709 UNION AVE 1709 UNION AVENUE NATRONA HTS PA 15065-02
"STANSBURY & CO., INC.",CORPORATION,NAN,813 MAIDEN CHOICE LN,BALTIMORE,,,,,,740093,HENRY H STANSBURY,SECRETARY,%CT CORPORATION SYSTEM PHILADELPHIA,813 MAIDEN CHOICE LN BALTIMORE MD 21228
J.T.A. KEY CO.,CORPORATION,NAN,,,,,,,,740094,,,"WHITEHALL MALL, MACARTHUR RD WHITEHALL PA 18052-0 LEHIGH",
"WENDIG AUTOMOTIVE, INC.",CORPORATION,NAN,5015 MOUNTAINTOP RD,NEW HOPE,,PA,671 N MAIN ST,DOYLESTOWN,,740095,DANIEL WENDIG,PRESIDENT,671 N MAIN ST DOYLESTOWN PA 18901-0 BUCKS,5015 MOUNTAINTOP RD NEW HOPE PA 18938-09
"L.H.L. SYSTEMS, INC.",CORPORATION,NAN,7920 RABBIT LN,HARRISBURG,,PA 17112-0 DAUPHIN,7920 RABBIT LANE,HARRISBURG,,740096,RONALD K LAWSON,PRESIDENT,7920 RABBIT LANE HARRISBURG PA 17112-0 DAUPHIN,7920 RABBIT LN HARRISBURG PA 17112-22
"BARNETT MANAGEMENT CO., INC.",CORPORATION,NAN,,,,PA 18411-0 LACKAWANNA,"RD#4, BOX 334",CLARKS SUMMIT,,740097,,,"RD#4, BOX 334 CLARKS SUMMIT PA 18411-0 LACKAWANNA",
"DWIGHT BEUCLER & COMPANY, LTD.",CORPORATION,PA,125 STRAFFORD AVE,WAYNE,,PA 19087-0 DELAWARE,"336 KING OF PRUSSIA RD., PO BOX 328",RADNOR,,740098,DWIGHT L BEUCLER,TREASURER,"336 KING OF PRUSSIA RD., PO BOX 328 RADNOR PA 19087-0 DELAWARE",125 STRAFFORD AVE WAYNE PA 19087-23
"175-179 FIRST STREET, INC.",CORPORATION,NAN,,,,PA 18218-0 SCHUYLKILL,179 FIRST ST,COALDALE,,740099,,,179 FIRST ST COALDALE PA 18218-0 SCHUYLKILL,
"DOUGLAS, HERBERT D. PAINTING CONTRACTORS, INC.",CORPORATION,NAN,,,,PA 19138-0 PHILADELPHIA,66TH & WYNCOTE AVE PO BOX 6553,PHILADELPHIA,,740101,,,66TH & WYNCOTE AVE PO BOX 6553 PHILADELPHIA PA 19138-0 PHILADELPHIA,
"THE SAFE DEPOSIT CENTER, INC.",CORPORATION,NAN,C/O JOSEPH HOPKINS 1814 SPRUCE ST,PHILADELPHIA,,,,,,740102,JOHN N IRWIN,TREASURER,101 BRYN MAWR AVE BRYN MAWR PA 19010-0 MONTGOMERY,C/O JOSEPH HOPKINS 1814 SPRUCE ST PHILADELPHIA PA 19103-51
"FELIX SEATS, INC.",CORPORATION,NAN,,,,PA 17013-0 CUMBERLAND,REAR 1917 SPRING ROAD,CARLISLE,,740103,,,REAR 1917 SPRING ROAD CARLISLE PA 17013-0 CUMBERLAND,
"METALIX, INC.",CORPORATION,NAN,252 SUMMIT AVE,SAN RAFAEL,,PA 19119-0 PHILADELPHIA,7366 RURAL LANE,PHILA,,740104,STEVEN ABLEMAN,PRESIDENT,7366 RURAL LANE PHILA PA 19119-0 PHILADELPHIA,252 SUMMIT AVE SAN RAFAEL CA 94901
"G. S. OPTOMETRICS, INC.",CORPORATION,NAN,,,,PA 19063-0 DELAWARE,119 PENNOCK PLACE,MEDIA,,740105,,,119 PENNOCK PLACE MEDIA PA 19063-0 DELAWARE,
"HUNTINGDON VALLEY MACHINE CO., INC.",CORPORATION,NAN,1985 BYBERRY RD,HUNTINGDON VLY,,PA 19006-0 MONTGOMERY,1985 BYBERRY ROAD,HUNTINGDON VALLEY,,740106,ROBERT CHAPMAN,PRESIDENT,1985 BYBERRY ROAD HUNTINGDON VALLEY PA 19006-0 MONTGOMERY,1985 BYBERRY RD HUNTINGDON VLY PA 19006-46
"BROAD-PIKE ENTERPRISES, INC.",CORPORATION,NAN,,,,PA 19140-0 PHILADELPHIA,3832-38 N BROAD ST,PHILA,,740107,,,3832-38 N BROAD ST PHILA PA 19140-0 PHILADELPHIA,
"DICKTER ASSOCIATES, P.C.",CORPORATION,NAN,,,,PA,1745 BRANDYWINE DR,SOUTHAMPTON,,740108,,,1745 BRANDYWINE DR SOUTHAMPTON PA 18966-0 BUCKS,
"HART TO HART, INC.",CORPORATION,NAN,,,,PA,437 FAITH DRIVE,CATASAUQUA,18032-0,740109,,,437 FAITH DRIVE CATASAUQUA PA 18032-0 LEHIGH,
"RAIMS, INC.",CORPORATION,PA,C/O JOHN B AUSTEN 4412 ROSEBAY CT,BETHLEHEM,,PA 18042-0 NORTHAMPTON,31 BLENHEIM DRIVE PO BOX 936,EASTON,,740110,JOHN R AUSTEN,PRESIDENT,31 BLENHEIM DRIVE PO BOX 936 EASTON PA 18042-0 NORTHAMPTON,C/O JOHN B AUSTEN 4412 ROSEBAY CT BETHLEHEM PA 18020-68
KEYSTONE PRODUCTION COMPANY,CORPORATION,NAN,STE 233 724 W LANCASTER AVE,WAYNE,,PA 19087-0 DELAWARE,24 LOUELLA COURT PO BOX 169,WAYNE,,740111,WALTER E KEMMERER,PRESIDENT,24 LOUELLA COURT PO BOX 169 WAYNE PA 19087-0 DELAWARE,STE 233 724 W LANCASTER AVE WAYNE PA 19087-23
NORTHERN OHIO OIL AND GAS CO.,CORPORATION,OH,,,,PA 19102-0 PHILADELPHIA,C/O UNITED STATES CORPORATION COMPANY 22 5 SOUTH 15TH STREET,PHILADELPHIA,,740112,,,C/O UNITED STATES CORPORATION COMPANY 22 5 SOUTH 15TH STREET PHILADELPHIA PA 19102-0 PHILADELPHIA,
ELAN INVESTMENT CORPORATION,CORPORATION,FL,,,,PA 19120-0 PHILADELPHIA,5564 RISING SUN AVENUE,PHILADELPHIA,,740113,,,5564 RISING SUN AVENUE PHILADELPHIA PA 19120-0 PHILADELPHIA,
"HY-RAIL CRANE, INC.",CORPORATION,WV,,,,,,,,740114,,,123 SOUTH BROAD STREET C/O C T CORPORATI ON SYSTEM PHILADELPHIA PA 19109-0 PHILADELPHIA,
KARAS BROADCASTING COMPANY,CORPORATION,VA,,,,,,,,740115,,,FIRST FEDERAL BUILDING WAYNESBURG PA 15370-0 GREENE,
"ORLANDO ASSOCIATES, LTD.",PARTNERSHIP,PA,200 SOUTH BROAD ST SUITE 415,PHILADELPHIA,,,,,,740116,EBL&S DEVELOPMENT LLC,GENPARTNER,%CORPORATION SERVICE COMPANY DAUPHIN,200 SOUTH BROAD ST SUITE 415 PHILADELPHIA PA 19102
"PHILADELPHIA NEW YEAR SHOOTERS & MUMMERS ASSOCIATION, INC.",NONPROFIT,NAN,,,,PA 19148-0 PHILADELPHIA,2528 S REESE ST,PHILADELPHIA,,740117,,,2528 S REESE ST PHILADELPHIA PA 19148-0 PHILADELPHIA,
WHITE DOVE INC.,CORPORATION,PA,RTE 739,HAWLEY,18337-0,PA,111 1/2 W HARFORD STREET,MILFORD,18337-0,740120,RALPH COSTELLO,TREASURER,111 1/2 W HARFORD STREET MILFORD PA 18337-0,RTE 739 HAWLEY PA 18428-64
"SPORTS EDITIONS, INC.",CORPORATION,PA,,,,PA 19046-0 MONTGOMERY,1921 WHARTON RD,JENKINTOWN,,740122,,,1921 WHARTON RD JENKINTOWN PA 19046-0 MONTGOMERY,
CARAMELLA FAMILY ASSOCIATES,PARTNERSHIP,PA,106 KILOWEN COURT,GREENSBURG,15601,PA,106 KILOWEN COURT,GREENSBURG,15601,740123,CARAMELLA FAMILY ENTERPRISES INC,GENPARTNER,106 KILOWEN COURT GREENSBURG PA 15601 WESTMORELAND,106 KILOWEN COURT GREENSBURG PA 15601
"PHIL-HOP PARTNERSHIP, A PENNSYLVANIA LIMITED PARTNERSHIP",PARTNERSHIP,NAN,,,60611-0,PA,875 N MICHIGAN AVENUE,CHICAGO,60611-0,740124,GEORGE NOVOGRODER ET AL,GENPARTNER,875 N MICHIGAN AVENUE CHICAGO PA 60611-0,PA
"MW AUTO SALES, INC.",CORPORATION,PA,STE 10001,OLYMPIC PL TOWSON,,,,,,740125,SCOTT W FADER,VICEPRESIDENT,%CORPORATION SERVICE COMPANY DAUPHIN,STE 10001 OLYMPIC PL TOWSON MD 21204-4109
FOURWAY COMPANY,PARTNERSHIP,NAN,,,,PA 19087-0 DELAWARE,388 MORRIS ROAD,WAYNE,,740126,FRANCIS A PIETRINI ET AL,GENPARTNER,388 MORRIS ROAD WAYNE PA 19087-0 DELAWARE,PA
CLUB TIFFANY,NONPROFIT,NAN,,,,PA 19136-0 PHILADELPHIA,8311 TORRESDALE AVE,PHILADELPHIA,,740127,,,8311 TORRESDALE AVE PHILADELPHIA PA 19136-0 PHILADELPHIA,
HIGHLAND UNITED PRESBYTERIAN CHURCH OF SLIPPERY ROCK,NONPROFIT,NAN,,,,,,,,740128,,,310 FRANKLIN ST SLIPPERY ROCK PA 16057-0 BUTLER,
FREELAND LODGE NO. 1145 OF BENEVOLENT AND PROTECTIVE ORDER OF ELKS OF THE UNITED STATES OF AMERICA,NONPROFIT,NAN,,,,PA 18224-0 LUZERNE,716 CENTRE ST,FREELAND,,740129,,,716 CENTRE ST FREELAND PA 18224-0 LUZERNE,
IDEAL UPHOLSTERY CO.,CORPORATION,PA,7338 ELGIN ST,PHILADELPHIA,,PA 19111-0 PHILADELPHIA,7338 ELGIN AVENUE,PHILADELPHIA,,740130,ILLTIALL V PONTONIO,PRESIDENT,7338 ELGIN AVENUE PHILADELPHIA PA 19111-0 PHILADELPHIA,7338 ELGIN ST PHILADELPHIA PA 19111-3818
VMB INC.,CORPORATION,NAN,902 MANOR ST,LANCASTER,,PA 17603-0 LANCASTER,902 MANOR STREET,LANCASTER,,740131,VONDA KIRCHNER,TREASURER,902 MANOR STREET LANCASTER PA 17603-0 LANCASTER,902 MANOR ST LANCASTER PA 17603-5052
"SPECTRA-DYE & FINISHING, INC.",CORPORATION,NAN,,,,,,,,740132,,,VALMONT INDUSTRIAL PARK WEST HAZLETON PA 18201-0 LUZERNE,
FAIRMAN WALLPAPER AND PAINT COMPANY,CORPORATION,NAN,5553 WOODMONT ST,PITTSBURGH,,PA 15219-0 ALLEGHENY,1411 FIFTH AVENUE,PITTSBURGH,,740133,MICHAEL LANDO,PRESIDENT,1411 FIFTH AVENUE PITTSBURGH PA 15219-0 ALLEGHENY,5553 WOODMONT ST PITTSBURGH PA 15217-02
"STAR STUFF, LTD.",CORPORATION,PA,,,,PA 19380-0 CHESTER,527 E GAY ST,WEST CHESTER,,740134,,,527 E GAY ST WEST CHESTER PA 19380-0 CHESTER,
"BYRON M. GASTON D.D.S., P.C.",CORPORATION,PA,STE 302320 MIDDLETOWN BLVD,LANGHORNE,19047,PA,320 MIDDLETOWN BLVD STE 302,LANGHORNE,19047,740135,BYRON M GASTON,PRESIDENT,320 MIDDLETOWN BLVD STE 302 LANGHORNE PA 19047 BUCKS,STE 302320 MIDDLETOWN BLVD LANGHORNE PA 19047-3205
THE ALF-TIME CORPORATION,CORPORATION,PA,,,,PA 15211-0 ALLEGHENY,307 MAPLE TERRACE,PITTSBURGH,,740136,,,307 MAPLE TERRACE PITTSBURGH PA 15211-0 ALLEGHENY,
"MUSIC & MORE, INC.",CORPORATION,NY,38 CORPORATE CIR,ALBANY,,,,,,740137,ROBERT HIGGINS,TREASURER,%CT CORPORATION SYSTEM PHILADELPHIA,38 CORPORATE CIR ALBANY NY 12203-5121
"MIBRU, INC.",CORPORATION,NAN,10,GILBERTON,16601,PA,181 BOWLING LANE,ALTOONA,16601,740138,JOHN W RICH,VICEPRESIDENT,181 BOWLING LANE ALTOONA PA 16601 BLAIR,10 GILBERTON RD GILBERTON PA 17934-1009
"DANNY'S IRISH PUB, INC.",CORPORATION,NAN,,,,,,,,740139,,,543-545 E ALCOTT PHILADELPHIA PA 19120-0 PHILADELPHIA,
"CARMEN L. CIOCCO D.D.S., P.C.",CORPORATION,NAN,,,,PA 15650-0 WESTMORELAND,1110 RIDGE AVENUE,LATROBE,,740140,,,1110 RIDGE AVENUE LATROBE PA 15650-0 WESTMORELAND,
"COMMONWEALTH OIL AND GAS COMPANY, INC.",CORPORATION,NY,,,,PA,16 KENNEDY STREET,BRADFORD,16701-0,740141,,,16 KENNEDY STREET BRADFORD PA 16701-0 MCKEAN,
J-K INTERNATIONAL INC.,CORPORATION,NAN,,,,PA 19145-0 PHILADELPHIA,1531 PACKER AVE,PHILADELPHIA,,740142,,,1531 PACKER AVE PHILADELPHIA PA 19145-0 PHILADELPHIA,
"KEYSTONE ARCHITECTS & ENGINEERS, INC.",CORPORATION,PA,,,,PA 17105-0 DAUPHIN,PO BOX 2724-RD#4,HARRISBURG,,740143,,,PO BOX 2724-RD#4 HARRISBURG PA 17105-0 DAUPHIN,
"ROGER A. WIGLE, M.D., LTD.",CORPORATION,PA,911 LIGONIER ST,LATROBE,,PA 15650-0 WESTMORELAND,911 LIGONIER ST,LATROBE,,740144,A ROGER WIGLE,PRESIDENT,911 LIGONIER ST LATROBE PA 15650-0 WESTMORELAND,911 LIGONIER ST LATROBE PA 15650-1805
"ANDERSON-MULLIN ASSOCIATES, INC.",CORPORATION,PA,,,,PA 19106-0 PHILADELPHIA,907 LAFAYETTE BLDG. 5TH & CHESTNUT ST,PHILADELPHIA,,740145,,,907 LAFAYETTE BLDG. 5TH & CHESTNUT ST PHILADELPHIA PA 19106-0 PHILADELPHIA,
WOODLOCH PINES LAKEHOUSES ASSOCIATION,NONPROFIT,PA,,,,PA,"RD#1, BOX 80",HAWLEY,,740146,,,"RD#1, BOX 80 HAWLEY PA 18428-0 WAYNE",
"BY SUSAN, INC.",CORPORATION,NAN,PO BOX 63572,PHILADELPHIA,,PA 19106-0 PHILADELPHIA,147 NORTH 3RD ST,PHILADELPHIA,,740147,SUSAN LUNENFELD,PRESIDENT,147 NORTH 3RD ST PHILADELPHIA PA 19106-0 PHILADELPHIA,PO BOX 63572 PHILADELPHIA PA 19147-51
"BALLOONATICS, INC.",CORPORATION,NAN,,,,PA,910 SCOTT ST,STROUDSBURG,18360-0,740148,,,910 SCOTT ST STROUDSBURG PA 18360-0 MONROE,
"J. RICHARD BOOTH D.D.S., P.C.",CORPORATION,PA,PO BOX 2771 421,NORTH SPRING HOUSE,,PA 19477-0 MONTGOMERY,"P.O. BOX 277, 421 N BETHLEHEM PIKE SPRING",HOUSE,,740149,RICHARD D BOOTH,PRESIDENT,"P.O. BOX 277, 421 N BETHLEHEM PIKE SPRING HOUSE PA 19477-0 MONTGOMERY",PO BOX 2771 421 NORTH SPRING HOUSE PA 19477-46
"WIMSATT, MICHAEL HUGHES M.D., INC.",CORPORATION,NAN,27 SANDY LN,LEWISTOWN,,PA 17044-0 MIFFLIN,27 SANDY LANE,LEWISTOWN,,740150,MICHAEL H WIMSATT,PRESIDENT,27 SANDY LANE LEWISTOWN PA 17044-0 MIFFLIN,27 SANDY LN LEWISTOWN PA 17044-1310
"DELMAR SERVICES, INC.",CORPORATION,NAN,11499 ROUTE 6,WELLSBORO,,PA,5 EAST AVENUE,WELLSBORO,,740152,THOMAS M OWLETT,VICEPRESIDENT,5 EAST AVENUE WELLSBORO PA 16901-0 TIOGA,11499 ROUTE 6 WELLSBORO PA 16901-6747
"CONCORD MESSENGER SERVICE, INC.",CORPORATION,NAN,,,,PA 19115-0 DELAWARE,1951 MORRELL ST,PHILA,,740153,,,1951 MORRELL ST PHILA PA 19115-0 DELAWARE,
"HAYS ENTERPRISES, INC.",CORPORATION,NAN,C/O THOMAS HAYS III 401 WYNMERE RD,WYNNEWOOD,,PA 19096-0 MONTGOMERY,401 WYNMERE ROAD,WYNNEWOOD,,740154,THOMAS D HAYS III,PRESIDENT,401 WYNMERE ROAD WYNNEWOOD PA 19096-0 MONTGOMERY,C/O THOMAS HAYS III 401 WYNMERE RD WYNNEWOOD PA 19096-46
C.F. WALTON INC.,CORPORATION,NAN,,,,PA 19380-0 CHESTER,"PO BOX 1505, 1100 CAROLINA AVE",WEST CHESTER,,740155,,,"PO BOX 1505, 1100 CAROLINA AVE WEST CHESTER PA 19380-0 CHESTER",
PENN JERSEY UNIFORM RENTAL INC.,CORPORATION,NJ,470 MUNDET PL,HILLSIDE,,,,,,740156,PHILIP A LANE,VICEPRESIDENT,C/O PETER N HARRISON 107 EAST COURT STRE ET DOYLESTOWN PA 18901-0 BUCKS,470 MUNDET PL HILLSIDE NJ 07205
"COMAC, INC.",CORPORATION,NJ,APT 42226 NORTHWOOD AVE,EASTON,,,,,,740157,J RICHARD EXLEY JR,TREASURER,SUITE 411-ALPHA BUILDING EASTON PA 18042-0 NORTHAMPTON,APT 42226 NORTHWOOD AVE EASTON PA 18045-2203
CHURCH OF THE LIVING CHRIST OF LOYSVILLE,NONPROFIT,NAN,,,,,,,,740158,,,RD 1 PA ROUTE 850 LOYSVILLE PA 17047-0 PERRY,
"JUDICE ENTERPRISES, INC.",CORPORATION,NJ,,,,PA 19109-0 PHILADELPHIA,123 SOUTH BROAD STREET,PHILADELPHIA,,740159,,,123 SOUTH BROAD STREET PHILADELPHIA PA 19109-0 PHILADELPHIA,
PENN PROTECTIVE COATINGS CORP.,CORPORATION,NAN,# C474 PIKE RD,HUNTINGDON VALLEY,,,,,,740160,JOSEPH KRZACZEK,VICEPRESIDENT,"474-C PIKE ROAD, PIKE INDUSTRIAL PARK SOUTHAMPTON PA 18966-0 BUCKS",# C474 PIKE RD HUNTINGDON VALLEY PA 19006-1610
HOLISTIC ORGANIZATIONAL APPROACH-A LEARNING EXPERIENCE CORPORATION,CORPORATION,PA,,,,PA 19440-0 MONTGOMERY,2235 HEDGEWOOD RD,HATFIELD,,740161,,,2235 HEDGEWOOD RD HATFIELD PA 19440-0 MONTGOMERY,
THE FAITH GROUP,NONPROFIT,PA,,,,,,,,740163,,,RT. 66 MARIANNE 1-234 SHIPPENVILLE PA 16254-0 CLARION,
"RAE REALTY SECURITIES, INC.",CORPORATION,MD,,,,PA 19103-0 PHILADELPHIA,ARCHITECTS BLDG 117 S 17TH ST,PHILADELPHIA,,740164,,,ARCHITECTS BLDG 117 S 17TH ST PHILADELPHIA PA 19103-0 PHILADELPHIA,
J.C. MARTIN INC.,CORPORATION,PA,,,,PA 15216-0 ALLEGHENY,1423 MERVIN AVE,PITTSBURGH,,740165,,,1423 MERVIN AVE PITTSBURGH PA 15216-0 ALLEGHENY,
C-RICH CO.,CORPORATION,NAN,901 E MAIN ST,NORRISTOWN,,PA 19401-0 MONTGOMERY,901 EAST MAIN ST,NORRISTOWN,,740166,RICHARD CIANCIULLI,PRESIDENT,901 EAST MAIN ST NORRISTOWN PA 19401-0 MONTGOMERY,901 E MAIN ST NORRISTOWN PA 19401-46
MATZ VETH CORPORATION,CORPORATION,PA,,,,PA 19140-0 PHILADELPHIA,1405 W ERIE AVE,PHILA,,740167,,,1405 W ERIE AVE PHILA PA 19140-0 PHILADELPHIA,
"FCARCHITECTS, INC.",CORPORATION,PA,STE 6002000,MARKET ST PHILADELPHIA,19103,PA,2000 MARKET STREET SUITE 600,PHILADELPHIA,19103,740168,KENNETH S KRAMER,VICEPRESIDENT,2000 MARKET STREET SUITE 600 PHILADELPHIA PA 19103 PHILADELPHIA,STE 6002000 MARKET ST PHILADELPHIA PA 19103-3209
AMERICAN PEST MANAGEMENT CORPORATION,CORPORATION,NAN,,,,PA 19111-0 PHILADELPHIA,8034 TABOR AVE,PHILA,,740169,,,8034 TABOR AVE PHILA PA 19111-0 PHILADELPHIA,
"WOMEN BUILDING, INC.",CORPORATION,NAN,3026 OLD FREEPORT RD,NATRONA HTS,,PA 15065-0 ALLEGHENY,3026 OLD FREEPORT ROAD,NATRONA HEIGHTS,,740171,VIVIAN MURRAY,PRESIDENT,3026 OLD FREEPORT ROAD NATRONA HEIGHTS PA 15065-0 ALLEGHENY,3026 OLD FREEPORT RD NATRONA HTS PA 15065-02
UNIVERSAL TRI-STATE ROOFING COMPANY,CORPORATION,NAN,,,,PA,555 STREET ROAD,BENSALEM,,740172,,,555 STREET ROAD BENSALEM PA 19020-0 BUCKS,
"A AND L DELIVERY SERVICE, INC.",CORPORATION,NAN,525 CENTRAL AVE,SEASIDE PARK,,PA 18848-0 BRADFORD,RD 3 BOX 243,TOWANDA,,740173,ROBERT L BECK,PRESIDENT,RD 3 BOX 243 TOWANDA PA 18848-0 BRADFORD,525 CENTRAL AVE SEASIDE PARK NJ 08752
BRAMCO LEASING COMPANY,CORPORATION,NAN,120 ASPEN LN,MARS,,PA 15143-0 ALLEGHENY,MERRIMAN ROAD,SEWICKLEY,,740174,KATE T BARTLING,PRESIDENT,MERRIMAN ROAD SEWICKLEY PA 15143-0 ALLEGHENY,120 ASPEN LN MARS PA 16046-10
"SUPER SPORTS NETWORK, INC.",CORPORATION,NAN,,,,PA 15220-0 ALLEGHENY,986-C GREENTREE RD,PITTSBURGH,,740175,,,986-C GREENTREE RD PITTSBURGH PA 15220-0 ALLEGHENY,
"EDWIN M. GILBERG ASSOCIATES, INC.",CORPORATION,NAN,1122 GAINSBORO RD,BALA-CYNWYD,,PA 19004-0 MONTGOMERY,1122 GAINSBORO RD,BALA CYNWYD,,740176,EDWIN M GILBERG,PRESIDENT,1122 GAINSBORO RD BALA CYNWYD PA 19004-0 MONTGOMERY,1122 GAINSBORO RD BALA-CYNWYD PA 19004-46
"TAX COMMUNICATIONS, INC.",CORPORATION,NAN,,,,PA 19422-0 MONTGOMERY,122 CHESHIRE DR,PENLLYN,,740177,,,122 CHESHIRE DR PENLLYN PA 19422-0 MONTGOMERY,
"CSC CONSULTING, INC.",CORPORATION,MA,3170 FAIRVIEW PARK DR,FALLS CHURCH,,,,,,740178,THOMAS R IRVIN,TREASURER,%CORPORATE CREATIONS NETWORK INC. ERIE,3170 FAIRVIEW PARK DR FALLS CHURCH VA 22042-4516
"DRAPER'S SUPER BEE APIARIES, INC.",CORPORATION,NAN,32 AVONLEA LN,MILLERTON,,,,,,740181,WILLIAM DRAPER,TREASURER,"R. D. 1, BOX 97 MILLERTON PA 16936-0 TIOGA",32 AVONLEA LN MILLERTON PA 16936-9131
"THE GAD-ABOUT, INC.",CORPORATION,NAN,400 SPRUCE ST STE 500,SCRANTON,,PA 18519-0 LACKAWANNA,VIEWMONT MALL ROUTE 6,DICKSON CITY,,740182,JAY B WILLNER,TREASURER,VIEWMONT MALL ROUTE 6 DICKSON CITY PA 18519-0 LACKAWANNA,400 SPRUCE ST STE 500 SCRANTON PA 18503-35
"CHEROKEE PLUMBING SERVICES, INC.",CORPORATION,NAN,,,,PA 18954-0 PHILADELPHIA,48 CHEROKEE DRIVE,RICHBORO,,740183,,,48 CHEROKEE DRIVE RICHBORO PA 18954-0 PHILADELPHIA,
"DALTON CARROLL, INC.",CORPORATION,NAN,,,,PA 18411-0 LACKAWANNA,RD 4 BOX 334,CLARKS SUMMIT,,740184,,,RD 4 BOX 334 CLARKS SUMMIT PA 18411-0 LACKAWANNA,
MUSKELLUNGE ASSOCIATION OF NORTH AMERICA,NONPROFIT,PA,,,,PA 19341-0 CHESTER,347 NORTH POTTSTOWN PIKE,EXTON,,740185,,,347 NORTH POTTSTOWN PIKE EXTON PA 19341-0 CHESTER,
THE CATHOLIC CHORAL CLUB OF SCRANTON,NONPROFIT,PA,,,,PA 18503-0 LACKAWANNA,327 N WASHINGTON AVE STE 911,SCRANTON,,740186,,,327 N WASHINGTON AVE STE 911 SCRANTON PA 18503-0 LACKAWANNA,
"DIVINE FAITH FOUNDATION YOUTH AND CHILDREN'S MINISTRIES, INC.",NONPROFIT,NAN,,,,PA 15206-0 ALLEGHENY,539 FINLEY STREET,PITTSBURGH,,740187,,,539 FINLEY STREET PITTSBURGH PA 15206-0 ALLEGHENY,
TWIN BORO SOCCER CLUB,NONPROFIT,PA,,,,,,,,740188,,,1424 OAK STC/O DAVID W BROWNLEE OAKMONT PA 15139-0 ALLEGHENY,
FLORISSANT ASSOCIATES,PARTNERSHIP,PA,,,,PA 19102-0 PHILADELPHIA,230 S BROAD ST,MEZZANINE PHILADELPHIA,,740189,EDWARD B LIPKIN,GENPARTNER,230 S BROAD ST MEZZANINE PHILADELPHIA PA 19102-0 PHILADELPHIA,PA
"Y C ADVERTISING ASSOCIATES, INC.",CORPORATION,NAN,,,,PA 19117-0 MONTGOMERY,8121 OLD YORK RD-STE 204,ELKINS PARK,,740190,,,8121 OLD YORK RD-STE 204 ELKINS PARK PA 19117-0 MONTGOMERY,
"MATCOTE COMPANY, INC.",CORPORATION,DE,,,,,,,,740191,,,123 S BROAD ST C/O C T CORP SYSTEM PHILADELPHIA PA 19109-0 PHILADELPHIA,
3805 LANCASTER AVE. PARTNERSHIP,PARTNERSHIP,PA,,,,PA 19143-0 PHILADELPHIA,320 S 46TH ST,PHILADELPHIA,,740192,TIMOTHY R HILDEBRANDT ET AL,GENPARTNER,320 S 46TH ST PHILADELPHIA PA 19143-0 PHILADELPHIA,PA
"K. B. PIZZA, INC.",CORPORATION,PA,191 HOWARD ST,FRANKLIN,,,,,,740194,RAYMOND P BENVENUTI,VICEPRESIDENT,25 NEW YORK CIRCLE BRIDGEVILLE PA 15017-0 ALLEGHENY,191 HOWARD ST FRANKLIN PA 16323-2362
"ALL-STAR SPORTING GOODS, INC.",CORPORATION,NAN,35 SNYDER AVE,PHILADELPHIA,,PA 19145-0 PHILADELPHIA,1617 SNYDER AVENUE,PHILADELPHIA,,740196,PHYLLIS BUONO,SECRETARY,1617 SNYDER AVENUE PHILADELPHIA PA 19145-0 PHILADELPHIA,35 SNYDER AVE PHILADELPHIA PA 19148-51
DR. ALLAN R. SNYDER P.C.,CORPORATION,NAN,,,,PA,57-G STREET RD,SOUTHAMPTON,,740197,,,57-G STREET RD SOUTHAMPTON PA 18966-0 BUCKS,
"AARON T. ROAN, D.M.D. & ASSOCIATES, P.C.",CORPORATION,PA,STE 1002590 PARK CENTER BLVD,STATE COLLEGE,16801,PA,2590 PARK CENTRE BOULEVARD,STATE COLLEGE,16801,740198,MARY D WHITE,SECRETARY,2590 PARK CENTRE BOULEVARD STATE COLLEGE PA 16801 CENTRE,STE 1002590 PARK CENTER BLVD STATE COLLEGE PA 16801-2799
"RED ARROW INN, INC.",CORPORATION,NAN,,,,PA 19004-0 MONTGOMERY,490 EASTON RD,HORSHAM,,740199,,,490 EASTON RD HORSHAM PA 19004-0 MONTGOMERY,
"THOMAS J. MULLANEY, JR., P.C.",CORPORATION,PA,STE 100583,SKIPPACK PIKE BLUE BELL,,PA 19422-0 MONTGOMERY,11 E AIRY ST,NORRISTOWN,,740200,THOMAS J MULLANEY SR,SECRETARY,11 E AIRY ST NORRISTOWN PA 19422-0 MONTGOMERY,STE 100583 SKIPPACK PIKE BLUE BELL PA 19422-2146
D. R. SANNER COMPANY,CORPORATION,PA,,,,PA 15557-0 SOMERSET,R.D. 3,ROCKWOOD,,740201,,,R.D. 3 ROCKWOOD PA 15557-0 SOMERSET,
"BILL WAGNER & SONS, INC.",CORPORATION,NAN,C/O WILLIAM WAGNER 2011 SOUTHVIEW RD,LEXINGTON,,,,,,740203,WILLIAM WAGNER JR,PRESIDENT,R.D. 2 WATSONTOWN PA 0 -0 NORTHUMBERLAND,C/O WILLIAM WAGNER 2011 SOUTHVIEW RD LEXINGTON NC 27292
"STITCHIN' TIME, INC.",CORPORATION,PA,3053 GLOUCESTER ST,LANCASTER,,PA 17543-0 LANCASTER,2B EAST 28TH DIVISION HIGHWAY,LITITZ,,740204,CLAIRE L MILLER,TREASURER,2B EAST 28TH DIVISION HIGHWAY LITITZ PA 17543-0 LANCASTER,3053 GLOUCESTER ST LANCASTER PA 17601-36
"VAC-WAY APPLIANCE & SERVICE, INC.",CORPORATION,NAN,601 CEDAR AVE,SCRANTON,18444,PA,304 N MAIN ST,MOSCOW,18444,740205,PAUL PARTYKA,TREASURER,304 N MAIN ST MOSCOW PA 18444 LACKAWANNA,601 CEDAR AVE SCRANTON PA 18505-1211
"YOUR EQUIPMENT CO., INC.",CORPORATION,PA,,,,PA 17901-0 SCHUYLKILL,R.D. 2 BOX 2167,ORWIGSBURG,,740206,,,R.D. 2 BOX 2167 ORWIGSBURG PA 17901-0 SCHUYLKILL,
"AIGELDINGER'S AUTO/FRAME CRAFT, INC.",CORPORATION,PA,,,,,,,,740207,,,362 PRINCE FREDERICK ST KING OF PRUSSIA PA 19406-0 MONTGOMERY,
"HANNAWAY, LAWRENCE ASSOCIATES, INC.",CORPORATION,PA,1800 JF KENNEDY BLVD,PHILADELPHIA,,PA 19147-0 PHILADELPHIA,706 S SEVENTH ST,PHILA,,740208,LAWRENCE HANNAWAY,PRESIDENT,706 S SEVENTH ST PHILA PA 19147-0 PHILADELPHIA,1800 JF KENNEDY BLVD PHILADELPHIA PA 19103-51
"ALVIN'S FLOWER SHOP, INC.",CORPORATION,NAN,,,,,,,,740209,,,UNIT #6 LAWRENCE PARK SHOPPING CENTER BROOMALL PA 19008-0 DELAWARE,
"HOUSEMAID HOUSEMAN, INC.",CORPORATION,NAN,,,,PA 19103-0 PHILADELPHIA,1700 WALNUT ST ROOM 307,PHILA,,740210,,,1700 WALNUT ST ROOM 307 PHILA PA 19103-0 PHILADELPHIA,
"FOODCARE SYSTEMS, INC.",CORPORATION,NAN,,,,,,,,740211,,,"BOX 263, 2 RADNOR STATION BLDG. KING OF PRUSSIA ROAD RADNOR PA 19087-0 DELAWARE",
BONZER INC.,CORPORATION,NAN,,,,PA 15236-0 ALLEGHENY,4850 STREETS RUN ROAD,PITTSBURGH,,740212,,,4850 STREETS RUN ROAD PITTSBURGH PA 15236-0 ALLEGHENY,
"FROMER, JOEL R. D.D.S. P.C.",CORPORATION,PA,186 SLOAN RD,PHOENIXVILLE,,PA 19444-0 MONTGOMERY,2057 WISTERIA LANE,LAFAYETTE HILL,,740214,JOEL R FROMER,PRESIDENT,2057 WISTERIA LANE LAFAYETTE HILL PA 19444-0 MONTGOMERY,186 SLOAN RD PHOENIXVILLE PA 19460-6109
"PETE ZEPKA CARS, INC.",CORPORATION,NAN,125 FRANKSTOWN ROAD,JOHNSTOWN,,PA 15902-0 CAMBRIA,1275 FRANKSTOWN RD,JOHNSTOWN,,740215,PETER ZEPKA,PRESIDENT,1275 FRANKSTOWN RD JOHNSTOWN PA 15902-0 CAMBRIA,125 FRANKSTOWN ROAD JOHNSTOWN PA 15902
"ROPE', INC.",CORPORATION,NAN,518 S 4TH ST,PHILADELPHIA,,PA 19148-0 PHILADELPHIA,2743 S MARVINE ST,PHILA,,740216,MARK CARRASQUILLO,PRESIDENT,2743 S MARVINE ST PHILA PA 19148-0 PHILADELPHIA,518 S 4TH ST PHILADELPHIA PA 19147-51
DISTRICT 1199C TRAINING AND UPGRADING FUND,NONPROFIT,PA,,,,PA 19107-0 PHILADELPHIA,1319 LOCUST ST,PHILADELPHIA,,740217,,,1319 LOCUST ST PHILADELPHIA PA 19107-0 PHILADELPHIA,
"BARSAM, INC.",CORPORATION,NAN,8824 FAIRFIELD ST,PHILADELPHIA,,PA 19152-0 PHILADELPHIA,8824 FAIRFIELD STREET,PHILA,,740218,BARRY ABRAMS,PRESIDENT,8824 FAIRFIELD STREET PHILA PA 19152-0 PHILADELPHIA,8824 FAIRFIELD ST PHILADELPHIA PA 19152-51
"DELAWARE VALLEY PERIPHERAL VASCULAR LABORATORY, INC.",CORPORATION,PA,,,,PA 19106-0 PHILADELPHIA,304 SPRUCE ST,PHILADELPHIA,,740219,,,304 SPRUCE ST PHILADELPHIA PA 19106-0 PHILADELPHIA,
"SOUNDS UNLIMITED, INC.",CORPORATION,NAN,488 S BUHL FARM DR,HERMITAGE,16148-0,PA,488 SOUTH BUHL FARM DR,HERMITAGE,16148-0,740220,STEVEN LUKAC,PRESIDENT,488 SOUTH BUHL FARM DR HERMITAGE PA 16148-0 MERCER,488 S BUHL FARM DR HERMITAGE PA 16148-43
TARA HALL DEVELOPMENT CORPORATION,CORPORATION,NAN,2000 ROBB HILL RD,OAKDALE,15071-9420,PA,2000 ROBB HILL ROAD,OAKDALE,15071-9420,740221,JOHN T OROURKE,PRESIDENT,2000 ROBB HILL ROAD OAKDALE PA 15071-9420 ALLEGHENY,2000 ROBB HILL RD OAKDALE PA 15071-3622
"GRANT INDUSTRIAL CONTROLS, INC.",CORPORATION,NAN,1 ZESTA DR,PITTSBURGH,,PA 15205-0 ALLEGHENY,1 ZESTA DR,PITTSBURGH,,740222,WILLIAM G HARRINGTON JR,TREASURER,1 ZESTA DR PITTSBURGH PA 15205-0 ALLEGHENY,1 ZESTA DR PITTSBURGH PA 15205-9725
"AMICUS ASSOCIATES, INC.",CORPORATION,PA,,,,PA 17331-0 YORK,34 FREDERICK ST,HANOVER,,740223,,,34 FREDERICK ST HANOVER PA 17331-0 YORK,
"CHAN-TILLY ENTERTAINMENT AGENCY, INCORPORATED",CORPORATION,PA,,,,PA 18702-0 LUZERNE,7 CHEROKEE COURT,WILKES-BARRE,,740224,,,7 CHEROKEE COURT WILKES-BARRE PA 18702-0 LUZERNE,
"BAGEL, S. ENTERPRISES, INC.",CORPORATION,NAN,,,,PA 19006-0 MONTGOMERY,3828 LOOP ROAD,HUNTINGDON VALLEY,,740225,,,3828 LOOP ROAD HUNTINGDON VALLEY PA 19006-0 MONTGOMERY,
"CREDIT PROTECTION CARD, INC.",CORPORATION,NAN,,,,,,,,740226,,,"C/O KLEINBARD, BELL & BRECKER, ESQS 1550 UNITED ENGINEERS BLDG PHILA PA 19103-0 PHILADELPHIA",
"MILLEVOI'S, INC.",CORPORATION,PA,2700 KNIGHTS RD,BENSALEM,18966,PA,86 WEST NORTON DR,CHURCHVILLE,18966,740228,KENNETH MILLEVOI SR,VICEPRESIDENT,86 WEST NORTON DR CHURCHVILLE PA 18966 BUCKS,2700 KNIGHTS RD BENSALEM PA 19020-3526
"BEN FRANKLIN EXCHANGE, INC.",CORPORATION,NAN,,,,PA 19064-0 DELAWARE,300 N STATE RD,SPRINGFIELD,,740229,,,300 N STATE RD SPRINGFIELD PA 19064-0 DELAWARE,
"PAMPERED PET, INC.",CORPORATION,PA,4791 OAKRIDGE DR,PITTSBURGH,,PA 15227-0 ALLEGHENY,3400 SAW MILL RUN BLVD,PITTSBURGH,,740230,ROY H BUCKLEW,SECRETARY,3400 SAW MILL RUN BLVD PITTSBURGH PA 15227-0 ALLEGHENY,4791 OAKRIDGE DR PITTSBURGH PA 15227-02
"NORTH PENN FITNESS CENTER, INC.",CORPORATION,NAN,,,,PA,34 SOUTH 5TH ST,ALLENTOWN,18101-0,740231,,,34 SOUTH 5TH ST ALLENTOWN PA 18101-0 LEHIGH,
"PENNINGTON MOTEL SERVICES, INC.",CORPORATION,PA,,,,PA 17572-0 LANCASTER,RD 1,RONKS,,740232,,,RD 1 RONKS PA 17572-0 LANCASTER,
"OPTICAL OUTLET, INC.",CORPORATION,PA,,,,PA,4191 WILLIAM PENN HWY,MURRAYSVILLE,15632-0,740233,,,4191 WILLIAM PENN HWY MURRAYSVILLE PA 15632-0,
"GENERAL WAYNE ASSOCIATES, INC.",CORPORATION,PA,,,,,,,,740236,,,166 ALLENDALE RD KING OF PRUSSIA PA 19406-0 MONTGOMERY,
FOREST GROVE BUS CORP.,CORPORATION,NAN,,,,PA 19040-0 MONTGOMERY,560 NORTH YORK RD,HATBORO,,740237,,,560 NORTH YORK RD HATBORO PA 19040-0 MONTGOMERY,
FOREST GROVE COACH COMPANY,CORPORATION,NAN,,,,PA 19040-0 MONTGOMERY,560 NORTH YORK RD,HATBORO,,740238,,,560 NORTH YORK RD HATBORO PA 19040-0 MONTGOMERY,
"AMERICAN DREAM PRODUCTIONS, LTD",CORPORATION,NAN,,,,,,,,740239,,,"SUITE 328-THE ATRIUM, 1900 MARKET ST C/O SARNER STEIN AND LEWIS PHILA PA 19103-0 PHILADELPHIA",
WILSON PARK BODY SHOP INC.,CORPORATION,NAN,1734 S 25TH ST,PHILADELPHIA,,PA 19145-0 PHILADELPHIA,1734 SOUTH 25TH ST,PHILADELPHIA,,740240,PASQUALE CAMMAROTA,TREASURER,1734 SOUTH 25TH ST PHILADELPHIA PA 19145-0 PHILADELPHIA,1734 S 25TH ST PHILADELPHIA PA 19145-1703
"SMALL FRYS, INC.",CORPORATION,NAN,433 SEMINOLE DR,ERIE,,PA,2644 WEST EIGHTH ST,ERIE,,740241,M L KNIGHT MELLON,VICEPRESIDENT,2644 WEST EIGHTH ST ERIE PA 16505-0 ERIE,433 SEMINOLE DR ERIE PA 16505-25
TAYLOR PRODUCTS INC.,CORPORATION,PA,900 UNION ST,TYLR-OLD FORGE,,PA 18517-0 LACKAWANNA,900 UNION ST,TAYLOR,,740243,STEPHEN DIRIENZO,PRESIDENT,900 UNION ST TAYLOR PA 18517-0 LACKAWANNA,900 UNION ST TYLR-OLD FORGE PA 18517-35
"EDUCATIONAL ASSESSMENT & RESEARCH CONSULTANTS, INC.",CORPORATION,NAN,113 WHITEMARSH RD,ARDMORE,,PA 19066-0 MONTGOMERY,236 VALLEY RD,MERION,,740244,JOHN A MESKAUSKAS,PRESIDENT,236 VALLEY RD MERION PA 19066-0 MONTGOMERY,113 WHITEMARSH RD ARDMORE PA 19003-46
PHONEAMERICA CORPORATION,CORPORATION,PA,8 BACTON HILL ROAD,FRAZER,19355,PA,8 N BACTON HILL RD,FRAZER,19355,740245,THOMAS J DREVYANKO,VICEPRESIDENT,8 N BACTON HILL RD FRAZER PA 19355 CHESTER,8 BACTON HILL ROAD FRAZER PA 19355
"MANOR FAMILY HEALTH CENTER, LTD.",CORPORATION,NAN,16A MANOR AVE,MILLERSVILLE,,PA 17551-0 LANCASTER,16 A MANOR AVENUE,MILLERSVILLE,,740246,RICHARD J GAYESKI,VICEPRESIDENT,16 A MANOR AVENUE MILLERSVILLE PA 17551-0 LANCASTER,16A MANOR AVE MILLERSVILLE PA 17551-36
"NATURAL EATS, INC.",CORPORATION,FL,,,,,,,,740247,,,"100 PINE STREET C/O THE PRENTICE-HALL CO RPORATION SYSTEM, INC. HARRISBURG PA 17108-0 DAUPHIN",
"SCOTT CONSTRUCTION, INC.",CORPORATION,OH,623 BURBANK DR,TOLEDO,,,,,,740248,ROBERT A SCOTT,PRESIDENT,"OLIVER BUILDING, MELLON SQUARE C/O CT CO RPORATION SYSTEM PITTSBURGH PA 15222-0 ALLEGHENY",623 BURBANK DR TOLEDO OH 43607
"WALLPAPER SUPERMARKET THREE, INC.",CORPORATION,NJ,C/O MARC CAPLAN 72 SIGNAL HILL RD,HOLLAND,,PA 19151-0 PHILADELPHIA,"1501-09 NORTH 59TH STREET, P.O. BOX 1252 1",PHILADELPHIA,,740249,MARC CAPLAN,PRESIDENT,"1501-09 NORTH 59TH STREET, P.O. BOX 1252 1 PHILADELPHIA PA 19151-0 PHILADELPHIA",C/O MARC CAPLAN 72 SIGNAL HILL RD HOLLAND PA 18966-09
"WESLEY ENERGY SYSTEMS, INC.",CORPORATION,DE,,,,PA 19102-0 PHILADELPHIA,225 SOUTH 15TH STREET,PHILADELPHIA,,740250,,,225 SOUTH 15TH STREET PHILADELPHIA PA 19102-0 PHILADELPHIA,
"CENTRAL IOWA FOOD SYSTEMS, INC.",CORPORATION,IA,PO BOX 4349,ANAHEIM,,,,,,740252,WILLIAM E PROTHER JR,PRESIDENT,%CORPORATION SERVICE COMPANY UNKNOWN,PO BOX 4349 ANAHEIM CA 92803
"HARVEL-ROLYN, INC.",CORPORATION,NAN,555,DRESHER,,PA 19025-0 MONTGOMERY,555,DRESHER,,740254,JACK GLASS,PRESIDENT,555 DRESHERTOWN ROAD DRESHER PA 19025-0 MONTGOMERY,555 DRESHERTOWN RD DRESHER PA 19025-46
"STEDSAT I, INC.",CORPORATION,NAN,PO BOX 11757,HARRISBURG,,PA 17108-0 DAUPHIN,"PO BOX ""G"", 3525 NORTH 6TH ST",HARRISBURG,,740255,WARREN STUMPF,SECRETARY,"PO BOX ""G"", 3525 NORTH 6TH ST HARRISBURG PA 17108-0 DAUPHIN",PO BOX 11757 HARRISBURG PA 17108-22
"STONE AND EDWARDS INSURANCE AGENCY, INC.",CORPORATION,PA,1714 MARKET,ST CAMP HILL,,PA 17108-0 DAUPHIN,"P.O. BOX ""G"", 3525 NORTH 6TH ST",HARRISBURG,,740256,TERESA EDWARDS,PRESIDENT,"P.O. BOX ""G"", 3525 NORTH 6TH ST HARRISBURG PA 17108-0 DAUPHIN",1714 MARKET ST CAMP HILL PA 17011-4839
"CYCLONE PROCESSING EQUIPMENT, INC.",CORPORATION,NAN,20 BAILEY LANE,UNIONTOWN,,PA 15401-0 FAYETTE,20 BAILEY LANE,UNIONTOWN,,740257,W T MCCARTNEY,PRESIDENT,20 BAILEY LANE UNIONTOWN PA 15401-0 FAYETTE,20 BAILEY LANE UNIONTOWN PA 15401-26
"CAPT. CRUSTACEAN'S LOBSTER HARBOR, INC.",CORPORATION,NAN,,,,PA 19341-0 CHESTER,217 S HENDRICKS AVE,EXTON,,740258,,,217 S HENDRICKS AVE EXTON PA 19341-0 CHESTER,
"STANERT, W.A. ASSOCIATES, INC.",CORPORATION,NAN,PO BOX 157,WARRINGTON,,PA,115 UPPER YORK ROAD,SOLEBURY,,740259,WILLIAM F STANERT,PRESIDENT,115 UPPER YORK ROAD SOLEBURY PA 18963-0 BUCKS,PO BOX 157 WARRINGTON PA 18976-09
PROFESSIONAL UNDERWRITERS INC.,CORPORATION,DE,STE 100 151 S WARNER RD,WAYNE,,,,,,740260,MICHAEL MILES,PRESIDENT,"EXCEL PLAZA, 681 MOORE ROAD KING OF PRUSSIA PA 19406-0 MONTGOMERY",STE 100 151 S WARNER RD WAYNE PA 19087-23
UNIVERSAL UNDERWRITERS CORP.,CORPORATION,DE,,,,PA,306 SOUTH STATE STREET,DOVER,19901-0,740261,,,306 SOUTH STATE STREET DOVER PA 19901-0,
"THE AMERICAN WHITE CROSS LABS, INC.",CORPORATION,NY,,,,PA 19107-0 PHILADELPHIA,1235 VINE STREET,PHILADELPHIA,,740262,,,1235 VINE STREET PHILADELPHIA PA 19107-0 PHILADELPHIA,
"HABITEK, INC.",CORPORATION,NAN,8410 ST MARTINS LN,PHILADELPHIA,,,,,,740264,C GEORGE CURRIE,PRESIDENT,102 QUEENS DR KING OF PRUSSIA PA 19406-0 MONTGOMERY,8410 ST MARTINS LN PHILADELPHIA PA 19118-51
"CROSS KEYS ADVERTISING & MARKETING, INC.",CORPORATION,NAN,P0 BOX 1330,DOYLESTOWN,,PA,329 S MAIN ST,DOYLESTOWN,,740265,LAURA T BARNES,VICEPRESIDENT,329 S MAIN ST DOYLESTOWN PA 18901-0 BUCKS,P0 BOX 1330 DOYLESTOWN PA 18901-09
"JBN, INCORPORATED",CORPORATION,PA,C/O JOSEPH B NAGLE 927 N FOREST TRAIL,CROWNSVILLE,,PA 15089-0 WESTMORELAND,116 N WATER ST,WEST NEWTON,,740266,JOSEPH BRUCE NALLE,PRESIDENT,116 N WATER ST WEST NEWTON PA 15089-0 WESTMORELAND,C/O JOSEPH B NAGLE 927 N FOREST TRAIL CROWNSVILLE MD 21032
J T ELECTRIC COMPANY,CORPORATION,PA,2568 RED HILL RD,SLATINGTON,18080,PA,2568 RED HILL ROAD,SLATINGTON,18080,740268,FRANKLIN MINNICH,VICEPRESIDENT,2568 RED HILL ROAD SLATINGTON PA 18080 LEHIGH,2568 RED HILL RD SLATINGTON PA 18080-4001
"PHILADELPHIA AREA VIETNAM VETERANS LEADERSHIP PROGRAM, INC.",NONPROFIT,NAN,,,,PA 17108-0 DAUPHIN,10 SOUTH MARKET SQUARE,HARRISBURG,,740269,,,10 SOUTH MARKET SQUARE HARRISBURG PA 17108-0 DAUPHIN,
AMERICAN CONIFER SOCIETY,NONPROFIT,PA,,,,,,,,740270,,,"%NATIONAL REGISTERED AGENTS, INC. DAUPHIN",
"DIAMOND DRILLING COMPANY, INC.",CORPORATION,NAN,STE F500 ABBOTT DR,BROOMALL,,PA 19380-0 CHESTER,1354 MARK DRIVE WEST,CHESTER,,740271,GARY R HASS,PRESIDENT,1354 MARK DRIVE WEST CHESTER PA 19380-0 CHESTER,STE F500 ABBOTT DR BROOMALL PA 19008-4301
"GREENE COUNTY WRESTLING BOOSTERS, INC.",NONPROFIT,PA,,,,,,,,740272,,,C/O SCOTT BLAIR R.D. 1 BOX 235A WAYNESBURG PA 15370-0 GREENE,
"MARY HINKLEY CLARK & ASSOCIATES, INC.",CORPORATION,DE,251 N HIGHLAND AVE,LANSDOWNE,,PA 19103-0 PHILADELPHIA,2400 MARKET STREET,PHILADELPHIA,,740273,ROBERT MENEAR,VICEPRESIDENT,2400 MARKET STREET PHILADELPHIA PA 19103-0 PHILADELPHIA,251 N HIGHLAND AVE LANSDOWNE PA 19050-23
MIDDLE ATLANTIC COMPUTER CORP.,CORPORATION,PA,,,,PA 19426-0 MONTGOMERY,87 W CHERRY AVE,TRAPPE,,740274,,,87 W CHERRY AVE TRAPPE PA 19426-0 MONTGOMERY,
"BEST SPECIALTY FOODS, INC.",CORPORATION,NAN,95 ATHERTON DR,EXTON,,PA 19335-0 CHESTER,SUITE 306 81 LANCASTER AVENUE,MALVERN,,740275,ELAINE G KELLY,SECRETARY,SUITE 306 81 LANCASTER AVENUE MALVERN PA 19335-0 CHESTER,95 ATHERTON DR EXTON PA 19341-3105
"MANHEIM FAMILY HEALTH CENTER, INC.",CORPORATION,NAN,130 S PENN ST,MANHEIM,,PA 17545-0 LANCASTER,130 SOUTH PENN ST,MANHEIM,,740276,TERRENCE M JONES,PRESIDENT,130 SOUTH PENN ST MANHEIM PA 17545-0 LANCASTER,130 S PENN ST MANHEIM PA 17545-36
"ARDMORE FURS, INC.",CORPORATION,NAN,,,,PA 19003-0 MONTGOMERY,3 E LANCASTER AVE,ARDMORE,,740279,,,3 E LANCASTER AVE ARDMORE PA 19003-0 MONTGOMERY,
A. CARUSO INC.,CORPORATION,PA,,,,,,,,740281,,,408 DAUPHIN BLDG HARRISBURG PA 17101-0 DAUPHIN,
"SYMBOLISM & IMAGINATION, INC.",CORPORATION,NAN,,,,,,,,740282,,,408 DAUPHIN BLDG 203 MARKET ST HARRISBURG PA 17101-0 DAUPHIN,
"GLOBAL COMPUTER SERVICES, LTD.",CORPORATION,DE,SUITE 1790 1875 CENTURY PARK EAST,LOS ANGELES,,PA 19103-0 PHILADELPHIA,C/O C T CORPORATION SYSTEM 1635 MARKET STREET,PHILADELPHIA,,740283,SONNEY M TARAGIN,VICEPRESIDENT,C/O C T CORPORATION SYSTEM 1635 MARKET STREET PHILADELPHIA PA 19103-0 PHILADELPHIA,SUITE 1790 1875 CENTURY PARK EAST LOS ANGELES CA 90067
"TOWN & COUNTRY TAXI SERVICE, INC.",NONPROFIT,NAN,,,,PA 19079-0 DELAWARE,56 CLIFTON AVE,SHARON HILL,,740284,,,56 CLIFTON AVE SHARON HILL PA 19079-0 DELAWARE,
"LITTLE FRIENDS LEARNING CENTERS, INC.",CORPORATION,NAN,,,,PA 19026-0 DELAWARE,333 CHESWOLD RD,DREXEL HILL,,740285,,,333 CHESWOLD RD DREXEL HILL PA 19026-0 DELAWARE,
TARENTUM REDEVELOPMENT AND RENEWAL CORPORATION,NONPROFIT,NAN,,,,PA 15084-0 ALLEGHENY,304 LOCK ST,TARENTUM,,740286,,,304 LOCK ST TARENTUM PA 15084-0 ALLEGHENY,
MED-CON INTERNATIONAL LTD.,CORPORATION,NAN,,,,PA,"ONE NESHAMINY INTERPLEX, SUITE 308",TREVOSE,,740288,,,"ONE NESHAMINY INTERPLEX, SUITE 308 TREVOSE PA 19047-0 BUCKS",
MORANO ELECTRICAL AND CONSTRUCTION CO. INC.,CORPORATION,NAN,,,,PA 19120-0 PHILADELPHIA,5730 N LAWRENCE STREET,PHILADELPHIA,,740289,,,5730 N LAWRENCE STREET PHILADELPHIA PA 19120-0 PHILADELPHIA,
"ASPELIN ART GALLERIES, LTD.",CORPORATION,NAN,,,,,,,,740290,,,MERION TERRACE ALDAN PA 0 -0 DELAWARE,
NEW COVENANT FELLOWSHIP PENTECOSTAL CHURCH,NONPROFIT,PA,32 COLUMBUS AVE,HAWLEY,18428,PA,32 COLUMBUS AVE,HAWLEY,18428,740292,ROBERT NURNBERGER,PRESIDENT,32 COLUMBUS AVE HAWLEY PA 18428 PIKE,32 COLUMBUS AVE HAWLEY PA 18428
NOVOSAT CORPORATION,CORPORATION,PA,,,,PA 15650-0 WESTMORELAND,620 FAIRMONT ST,LATROBE,,740293,,,620 FAIRMONT ST LATROBE PA 15650-0 WESTMORELAND,
"JO-MAR ENTERPRISES, INC.",CORPORATION,PA,405 S BRADY ST,BLAIRSVILLE,,PA 15717-0 INDIANA,189 EAST MARKET ST,BLAIRSVILLE,,740294,MARTHA BOWSER MILAZZO,SECRETARY,189 EAST MARKET ST BLAIRSVILLE PA 15717-0 INDIANA,405 S BRADY ST BLAIRSVILLE PA 15717-32
"SPORTS TIME, INC.",CORPORATION,PA,,,,PA 19102-0 PHILADELPHIA,10TH FL 3 PENN CENTER PLAZA 15TH & MARKET STS,PHILA,,740297,,,10TH FL 3 PENN CENTER PLAZA 15TH & MARKET STS PHILA PA 19102-0 PHILADELPHIA,
SHENANGO VALLEY MIDGET FOOTBALL LEAGUE,NONPROFIT,NAN,,,,PA,514 MAIN STREET,SHARPSVILLE,16150-0,740299,,,514 MAIN STREET SHARPSVILLE PA 16150-0 MERCER,
"LO-CAL COUNTRY, INC.",CORPORATION,NAN,,,,PA 19151-0 PHILADELPHIA,7518 HAVERFORD AVE,PHILADELPHIA,,740301,,,7518 HAVERFORD AVE PHILADELPHIA PA 19151-0 PHILADELPHIA,
"PROCACCINO, VIRGIL DESIGN, INC.",CORPORATION,NAN,111 PRESIDENTIAL BLVD,BALA-CYNWYD,,,,,,740302,VIRGIL PROCACCINO,PRESIDENT,111 PRESIDENTIAL BLVD. BALA CYNWYD PA 19004-0 MONTGOMERY,111 PRESIDENTIAL BLVD BALA-CYNWYD PA 19004-46
OTERI'S GOLD LTD.,CORPORATION,PA,4917 N 5TH ST,PHILADELPHIA,,PA 19149-0 PHILADELPHIA,7100 SAUL STREET,PHILADELPHIA,,740304,CORINNE TARNAWSKI,PRESIDENT,7100 SAUL STREET PHILADELPHIA PA 19149-0 PHILADELPHIA,4917 N 5TH ST PHILADELPHIA PA 19120-3809
WESTWAY DEVELOPMENT INC.,CORPORATION,NAN,,,,PA 19102-0 PHILADELPHIA,1420 LOCUST ST STE 110,PHILA,,740305,,,1420 LOCUST ST STE 110 PHILA PA 19102-0 PHILADELPHIA,
GRA-BILL CORP.,CORPORATION,PA,3993 HUNTINGDON PKE STE 310,HUNTINGDON VLY,,,"667 WELSH RD.,",PENN,,740306,WILLIAM ALPERN,VICEPRESIDENT,"667 WELSH RD., PENN FEDERAL BANK BLDG., % PASTOR & GOCIAL HUNTINGDON VALLEY PA 19006-0 MONTGOMERY",3993 HUNTINGDON PKE STE 310 HUNTINGDON VLY PA 19006-46
"DINNER DATE, INC.",CORPORATION,NAN,,,,PA,"1901 YARDLEY RD., PO BOX 36",MORRISVILLE,,740307,,,"1901 YARDLEY RD., PO BOX 36 MORRISVILLE PA 19067-0 BUCKS",
NORTH PHILADELPHIA COMMUNITY HELP,NONPROFIT,NAN,,,,PA 19133-0 PHILADELPHIA,2732 N 11TH ST,PHILA,,740310,,,2732 N 11TH ST PHILA PA 19133-0 PHILADELPHIA,
"AMERICANS AGAINST DEFAMATION OF UKRAINIANS, INC.",NONPROFIT,NAN,,,,PA 19126-0 PHILADELPHIA,1208 68TH AVE,PHILADELPHIA,,740311,,,1208 68TH AVE PHILADELPHIA PA 19126-0 PHILADELPHIA,
THE JAVITCH FOUNDATION,NONPROFIT,PA,,,,PA 19107-0 PHILADELPHIA,12 S 12TH ST. 22ND FLOOR,PHILA,,740312,,,12 S 12TH ST. 22ND FLOOR PHILA PA 19107-0 PHILADELPHIA,
THE PHYLLIS AND NORMAN LIPSETT FOUNDATION,NONPROFIT,NAN,,,,,,,,740313,,,12 S 12TH ST 22ND FL PHILADELPHIA PA 19107-0 PHILADELPHIA,
"MAYFLOWER CAMP, INC.",NONPROFIT,PA,,,,PA,1350 RIDGE RD,KLINGERSTOWN,17941,740314,,,1350 RIDGE RD KLINGERSTOWN PA 17941 SCHUYLKILL,
PHILADELPHIA SQUASH RACQUETS ASSOCIATION,NONPROFIT,PA,,,,PA 19102-0 PHILADELPHIA,"BOX 15, 215 S 16TH ST %",THE RACQUET CLUB PHILA,,740315,,,"BOX 15, 215 S 16TH ST % THE RACQUET CLUB PHILA PA 19102-0 PHILADELPHIA",
"FURNITURE TODAY, LTD.",CORPORATION,NAN,,,,PA,11909 BUSTLETON AVE,PHILA,,740317,,,11909 BUSTLETON AVE PHILA PA 0 -0 PHILADELPHIA,
"PRIDE VALET CLEANERS, INC.",CORPORATION,NAN,,,,,,,,740318,,,"STORE NO 16, FLOURTOWN SHOPPING CENTER, BETHLEHEM PIKE FLOURTOWN PA 19031-0 MONTGOMERY",
"U.S. #1 - AUTOMOBILES, INC.",CORPORATION,NAN,,,,PA,3133 OLD LINCOLN HIGHWAY,TREVOSE,,740319,,,3133 OLD LINCOLN HIGHWAY TREVOSE PA 19047-0 BUCKS,
"HALCARE, INC.",CORPORATION,PA,,,,,,,,740320,,,717 LEWIS TOWER BLDG. PHILADELPHIA PA 19102-0 PHILADELPHIA,
"INJURY PREVENTION PROGRAMS, INC.",CORPORATION,NAN,,,,,,,,740321,,,"%THE PRENTICE-HALL CORPORATION SYSTEM, INC. DAUPHIN",
"BRESLOVE SEPARATOR COMPANY, INC.",CORPORATION,NAN,271 GREAT SMOKEY DR,PITTSBURGH,,PA 15215-0 ALLEGHENY,2323 MAIN ST,SHARPSBURG,,740323,RAYMOND D SCALISE,VICEPRESIDENT,2323 MAIN ST SHARPSBURG PA 15215-0 ALLEGHENY,271 GREAT SMOKEY DR PITTSBURGH PA 15239-02
"CRYOTECH SYSTEMS, INC.",CORPORATION,NAN,,,,PA,"RD#2, BOX 236",BREINIGSVILLE,18031-0,740325,,,"RD#2, BOX 236 BREINIGSVILLE PA 18031-0 LEHIGH",
"1401 DEN, INC.",CORPORATION,PA,,,,PA,1401 N 17TH ST,PHILADELPHIA,,740328,,,1401 N 17TH ST PHILADELPHIA PA 0 -0 PHILADELPHIA,
"TITAN, INC.",CORPORATION,PA,PO BOX 306,GWYNEDD VALLEY,,PA 19422-0 MONTGOMERY,726 BOEHMS CHURCH RD,BLUE BELL,,740329,DAVID FEINBERG,PRESIDENT,726 BOEHMS CHURCH RD BLUE BELL PA 19422-0 MONTGOMERY,PO BOX 306 GWYNEDD VALLEY PA 19437-0306
"CONTINUOUS MOTION, INC.",CORPORATION,NAN,C/O IRVING B HERMAN 1601 WALNUT ST,PHILADELPHIA,,PA,1338 W CAMBRIA ST,PHILADELPHIA,,740340,CHARLES ALLISON,PRESIDENT,1338 W CAMBRIA ST PHILADELPHIA PA 0 -0 PHILADELPHIA,C/O IRVING B HERMAN 1601 WALNUT ST PHILADELPHIA PA 19102-51
DR. LEONARD A. WINEGRAD LTD.,CORPORATION,NAN,C/O LEONARD WINEGRAD 1701 TUCKERSTOWN RD,DRESHER,,PA 19090-0 MONTGOMERY,62 EASTON RD,WILLOW GROVE,,740342,LEONARD A WINEGRAD,PRESIDENT,62 EASTON RD WILLOW GROVE PA 19090-0 MONTGOMERY,C/O LEONARD WINEGRAD 1701 TUCKERSTOWN RD DRESHER PA 19025-46
"ALBERTER, INC.",CORPORATION,NAN,124 ROSE LANE RD,WINDBER,,PA 15963-0 SOMERSET,"124 ROSE LAND, R.D.",WINDBER,,740343,BARRY M ALBERTER,PRESIDENT,"124 ROSE LAND, R.D. WINDBER PA 15963-0 SOMERSET",124 ROSE LANE RD WINDBER PA 15963-56
"YORKSHIRE INTERNATIONAL, INC.",CORPORATION,NAN,6370 CHURCH RD,PHILADELPHIA,,PA 19107-0 PHILADELPHIA,"527 WESTERN SAVINGS BANK BLDG., S.E. COR BROAD & CHESTNUT STS",PHILA,,740344,JAMES M DOYLE JR,VICEPRESIDENT,"527 WESTERN SAVINGS BANK BLDG., S.E. COR BROAD & CHESTNUT STS PHILA PA 19107-0 PHILADELPHIA",6370 CHURCH RD PHILADELPHIA PA 19151-51
"W.M.F., INC.",CORPORATION,NAN,,,,PA,"SAWCREEK ESTATES, BOX 48",EAST STROUDSBURG,19301-0,740345,,,"SAWCREEK ESTATES, BOX 48 EAST STROUDSBURG PA 19301-0",
AMERICAN TECHNOLOGY SERVICES CORPORATION,CORPORATION,NAN,1060 PARK AVE,BENSALEM,,PA 19404-0 MONTGOMERY,"18 W AIRY ST., PO BOX 469",NORRISTOWN,,740346,ELAINE TIBBETTS,SECRETARY,"18 W AIRY ST., PO BOX 469 NORRISTOWN PA 19404-0 MONTGOMERY",1060 PARK AVE BENSALEM PA 19020-09
"GIBBS PAVING, INC.",CORPORATION,NAN,2985 SPANGLER DR,WEST MIDDLESEX,16159-0,PA,2985 SPANGLER DR,WEST MIDDLESEX,16159-0,740347,BENJAMIN GIBBS,PRESIDENT,2985 SPANGLER DR WEST MIDDLESEX PA 16159-0 MERCER,2985 SPANGLER DR WEST MIDDLESEX PA 16159-43
"SECUREX, INC.",CORPORATION,NAN,6501 NESHAMINY VALLEY DR,BENSALEM,19020-1834,PA,6501 NESHAMINY VALLEY DR,BENSALEM,19020-1834,740348,NINA LITTERIO,VICEPRESIDENT,6501 NESHAMINY VALLEY DR BENSALEM PA 19020-1834 BUCKS,6501 NESHAMINY VALLEY DR BENSALEM PA 19020-1834
"BRINKLEY, INC.",CORPORATION,NAN,,,,PA 19104-0 PHILADELPHIA,136 S 45TH ST,PHILA,,740349,,,136 S 45TH ST PHILA PA 19104-0 PHILADELPHIA,
ACCESS TO EXCELLENCE,NONPROFIT,NAN,,,,PA 19143-0 PHILADELPHIA,5400 CHESTER AVE,PHILA,,740352,,,5400 CHESTER AVE PHILA PA 19143-0 PHILADELPHIA,
"V.P.S. HOLDINGS, INC.",CORPORATION,NAN,,,,PA 15658-0 WESTMORELAND,RD 5,LIGONIER,,740353,,,RD 5 LIGONIER PA 15658-0 WESTMORELAND,
INTERSTATE FUEL PRODUCTS CORPORATION,CORPORATION,DE,,,,PA 19107-0 PHILADELPHIA,"13TH FLOOR, 21 SOUTH 12TH STREET",PHILADELPHIA,,740354,,,"13TH FLOOR, 21 SOUTH 12TH STREET PHILADELPHIA PA 19107-0 PHILADELPHIA",
ADVANCE BUSINESS CORPORATION,CORPORATION,NAN,,,,,,,,740355,,,C/O HENRY ROSENFELT 225 N PRESIDENTIAL B LVD BALA CYNWYD PA 19004-0 MONTGOMERY,
"BOCAR SALES, INC.",CORPORATION,NAN,,,,PA 19040-0 MONTGOMERY,235 MIMOSA DR,HATBORO,,740357,,,235 MIMOSA DR HATBORO PA 19040-0 MONTGOMERY,
L & M CONSTRUCTION CORP.,CORPORATION,PA,1126 WASHINGTON AVE,ALLENTOWN,18103-0,PA,1126 WASHINGTON AVE,ALLENTOWN,18103-0,740358,LISA M DE-REMER,PRESIDENT,1126 WASHINGTON AVE ALLENTOWN PA 18103-0 LEHIGH,1126 WASHINGTON AVE ALLENTOWN PA 18103-39
"T.C. & M. ENTERPRISES, INC.",CORPORATION,NAN,C/O LINDA MARINO 2835 HEIDER RD,EXPORT,,PA 15632-0 WESTMORELAND,2835 HEIDER RD,EXPORT,,740359,LINDA MARINO,PRESIDENT,2835 HEIDER RD EXPORT PA 15632-0 WESTMORELAND,C/O LINDA MARINO 2835 HEIDER RD EXPORT PA 15632-65
"OPTIKOS, INC.",CORPORATION,NAN,4235 COPEECHAN RD,SCHNECKSVILLE,18104-0,PA,1802 ALLEN ST,ALLENTOWN,18104-0,740360,FRANK MITMAN,PRESIDENT,1802 ALLEN ST ALLENTOWN PA 18104-0 LEHIGH,4235 COPEECHAN RD SCHNECKSVILLE PA 18078-2252
SHALER CONTRACTING & DEVELOPMENT CORPORATION,CORPORATION,NAN,RENSHAW BLDG 9TH & LIBERTY AVE,PITTSBURGH,,,,,,740361,MICHAEL J REMEROWSKI,PRESIDENT,THE RENSHAW BLDG MEZZANINE LEVEL 9TH ST & LIBERTY AVE PITTSBURGH PA 15222-0 ALLEGHENY,RENSHAW BLDG 9TH & LIBERTY AVE PITTSBURGH PA 15222-02
"FRANK E. SMITH ASSOCIATES, INC.",CORPORATION,NAN,280 CRANBERRY DRIVE,HUNTINGDON VY,,PA 19006-0 MONTGOMERY,280 CRANBERRY DR,HUNTINGDON VALLEY,,740363,MILDRED SMITH,VICEPRESIDENT,280 CRANBERRY DR HUNTINGDON VALLEY PA 19006-0 MONTGOMERY,280 CRANBERRY DRIVE HUNTINGDON VY PA 19006-46
"LEHIGH GAP T.V. & APPLIANCES, INC.",CORPORATION,NAN,21 W 4TH STREET,JIM THORPE,,PA 18088-0 NORTHAMPTON,412 N BEST AVE,WALNUTPORT,,740365,JOHN P FIGURA,PRESIDENT,412 N BEST AVE WALNUTPORT PA 18088-0 NORTHAMPTON,21 W 4TH STREET JIM THORPE PA 18229-13
"AUDAR, INC.",CORPORATION,NAN,,,,PA 19006-0 MONTGOMERY,2727 PHILMONT AVE,HUNTINGDON VALLEY,,740366,,,2727 PHILMONT AVE HUNTINGDON VALLEY PA 19006-0 MONTGOMERY,
"WILKERSON NATIONAL SURVEYS, INC.",CORPORATION,NAN,,,,,,,,740367,,,W105 PARK TOWNE PLACE PHILA PA 19130-0 PHILADELPHIA,
"KATZ SEAFOOD PLUS, INC.",CORPORATION,PA,,,,,,,,740368,,,1163 WILMINGTON PIKE WEST CHESTER PA 19380-0 CHESTER,
"REMMEY THREE, INC.",CORPORATION,NAN,1040 INDUSTRIAL HGWY,SOUTHAMPTON,,PA,1040 INDUSTRIAL HWY,SOUTHAMPTON,,740369,DONALD B REMMEY JR,TREASURER,1040 INDUSTRIAL HWY SOUTHAMPTON PA 18966-0 BUCKS,1040 INDUSTRIAL HGWY SOUTHAMPTON PA 18966-09
VIP AIRPORT EXCURSION INC.,CORPORATION,NJ,PO BOX 1238,TRENTON,,PA,2 GLENWOOD DRIVE,LEVITTOWN,,740370,JOHN BALDASSARI SR,PRESIDENT,2 GLENWOOD DRIVE LEVITTOWN PA 19055-0 BUCKS,PO BOX 1238 TRENTON NJ 08607
"B.A.D. COAL, INC.",CORPORATION,NAN,,,,PA 15401-0 FAYETTE,138 MILL STREET,UNIONTOWN,,740371,,,138 MILL STREET UNIONTOWN PA 15401-0 FAYETTE,
"MEDI DISCOUNT CENTER, INC.",CORPORATION,NAN,C/O HENRY FRANK & CO 160 ROCK HILL RD 2FL,BALA-CYNWYD,,PA 19072-0 MONTGOMERY,213 HAVERFORD AVE,NARBERTH,,740372,ROY FOREMAN,PRESIDENT,213 HAVERFORD AVE NARBERTH PA 19072-0 MONTGOMERY,C/O HENRY FRANK & CO 160 ROCK HILL RD 2FL BALA-CYNWYD PA 19004-46
"MCDONOUGH & COLLINS, INC.",CORPORATION,NAN,410 WATERWAY RD,OXFORD,,PA 19363-0 CHESTER,201 WATERWAY ROAD,OXFORD,,740373,F RONALD MCDONOUGH,PRESIDENT,201 WATERWAY ROAD OXFORD PA 19363-0 CHESTER,410 WATERWAY RD OXFORD PA 19363-15
BIG OAK JEWELERS INC.,CORPORATION,NAN,4 DOUGLAS CT,TRENTON,,PA,364 W TRENTON AVE,MORRISVILLE,,740374,GARY RADICE,PRESIDENT,364 W TRENTON AVE MORRISVILLE PA 19067-0 BUCKS,4 DOUGLAS CT TRENTON NJ 08619
"RETAIL DISTRIBUTORS, INC.",CORPORATION,PA,PO BOX 22655,PHILADELPHIA,,PA 19153-0 PHILADELPHIA,3033 S 63RD ST,PHILADELPHIA,,740375,STEPHEN DRECHSLER,VICEPRESIDENT,3033 S 63RD ST PHILADELPHIA PA 19153-0 PHILADELPHIA,PO BOX 22655 PHILADELPHIA PA 19110-51
"BILL PAYING SERVICES, INC.",CORPORATION,PA,426 MARKLE RUN RD,EAST BERLIN,,PA,RD 2 BOX 95,YORK SPRINGS,,740376,THOMAS R HARBAUGH,TREASURER,RD 2 BOX 95 YORK SPRINGS PA 17372-0 ADAMS,426 MARKLE RUN RD EAST BERLIN PA 17316-01
BROTHERHOOD YOUTH ASSOCIATION,NONPROFIT,PA,,,,PA 19003-0 DELAWARE,334 W SPRING AVE,ARDMORE,,740377,,,334 W SPRING AVE ARDMORE PA 19003-0 DELAWARE,
"SCHARFF, NICHOLAS M.D., P.C.",CORPORATION,PA,,,,PA 19096-0 MONTGOMERY,252 HATHAWAY LANE,WYNNEWOOD,,740378,,,252 HATHAWAY LANE WYNNEWOOD PA 19096-0 MONTGOMERY,
J.L. HOGLUND CO. INC.,CORPORATION,NAN,1425 FREEPORT RD,NATRONA HTS,,PA 15065-0 ALLEGHENY,1425 FREEPORT ROAD,NATRONA HEIGHTS,,740379,J L HOGLUND,PRESIDENT,1425 FREEPORT ROAD NATRONA HEIGHTS PA 15065-0 ALLEGHENY,1425 FREEPORT RD NATRONA HTS PA 15065-02
"SICILIA, AUGIE ADVERTISING SPECIALTIES, INC.",CORPORATION,NAN,44 DEVON RD,SOUTHAMPTON,,PA,44 DEVON RD,CHURCHVILLE,,740380,AUGIE SICILIA,PRESIDENT,44 DEVON RD CHURCHVILLE PA 18966-0 BUCKS,44 DEVON RD SOUTHAMPTON PA 18966-09
"MAJON, INC.",CORPORATION,NAN,,,,PA,1618 E PLEASANT VALLEY BLVD.,ALTOONA,,740381,,,1618 E PLEASANT VALLEY BLVD. ALTOONA PA 16602-0 BLAIR,
GOLDEN SADDLE INC.,CORPORATION,NAN,,,,PA 19103-0 PHILADELPHIA,2024 W SANSOM ST,PHILA,,740382,,,2024 W SANSOM ST PHILA PA 19103-0 PHILADELPHIA,
"SCARITO OF KING OF PRUSSIA, INC.",CORPORATION,NAN,,,,,,,,740383,,,WILD TOPS THE COURT AT KING OF PRUSSIA KING OF PRUSSIA PA 19406-0 MONTGOMERY,
"MORRISON OIL, INC.",CORPORATION,NAN,15 N MAIN ST PO BOX 183,YOUNGSVILLE,16371-0,PA,15 N MAIN ST PO BOX 183,YOUNGSVILLE,16371-0,740384,THOMAS MORRISON,PRESIDENT,15 N MAIN ST PO BOX 183 YOUNGSVILLE PA 16371-0 WARREN,15 N MAIN ST PO BOX 183 YOUNGSVILLE PA 16371-62
"WEAVER OPTOMETRIC ASSOCIATES, P.C.",CORPORATION,NAN,36-38 N BEAVER ST,YORK,,PA 17401-0 YORK,36-38 N BEAVER ST,YORK,,740385,SCOTT S WEAVER,PRESIDENT,36-38 N BEAVER ST YORK PA 17401-0 YORK,36-38 N BEAVER ST YORK PA 17401-67
"C.D. COMPANY, INCORPORATED",CORPORATION,PA,2901 MOUNT ROYAL BLVD,GLENSHAW,,PA 15425-0 FAYETTE,152 VAN DRIVE,CONNELLSVILLE,,740386,DOSEPH DOORLEY,PRESIDENT,152 VAN DRIVE CONNELLSVILLE PA 15425-0 FAYETTE,2901 MOUNT ROYAL BLVD GLENSHAW PA 15116-1633
"PATRICK A. GOOD D.C., P.C.",CORPORATION,NAN,14010 ROUTE 8 89,WATTSBURG,,PA,139998 ROUTE 8,WATTSBURG,,740387,PATRICK A GOOD,PRESIDENT,139998 ROUTE 8 WATTSBURG PA 16442-0 ERIE,14010 ROUTE 8 89 WATTSBURG PA 16442-2922
"BALIN, HOWARD M.D., P.C.",CORPORATION,FL,,,,PA 19046-0 MONTGOMERY,918 FRAZIER ROAD,RYDAL,,740388,,,918 FRAZIER ROAD RYDAL PA 19046-0 MONTGOMERY,
"CLARKSON BROTHERS, INCORPORATED",CORPORATION,SC,PO BOX 788,COWPENS,,PA,225 SOUTH 15TH STREET,PHILADELPHIA,,740389,SHEELAH A CLARKSON,TREASURER,225 SOUTH 15TH STREET PHILADELPHIA PA 0 -0 PHILADELPHIA,PO BOX 788 COWPENS SC 29330
"DEMICHAEL-SCIAKY ASSOC., INC.",CORPORATION,MI,,,,PA 19342-0 DELAWARE,"BALTIMORE PIKE & DOUGHERTY BLVD., BOX 11 4",GLEN MILLS,,740390,,,"BALTIMORE PIKE & DOUGHERTY BLVD., BOX 11 4 GLEN MILLS PA 19342-0 DELAWARE",
"FLACK STONE, INC.",CORPORATION,NAN,,,,PA,47 CLINTON ST,GREENVILLE,16125-0,740391,,,47 CLINTON ST GREENVILLE PA 16125-0 MERCER,
"AUGUST PUBLICATIONS, INC.",CORPORATION,NAN,,,,PA,1666 W MAIN ST,STROUDSBURG,18360-0,740392,,,1666 W MAIN ST STROUDSBURG PA 18360-0 MONROE,
LAUREL BROADCASTING COMPANY INC.,CORPORATION,NAN,ROCK & SUNBURY STS,SHAMOKIN,,PA 17102-0 DAUPHIN,1612 N 2ND ST,HARRISBURG,,740393,JAMES P OLEARY,SECRETARY,1612 N 2ND ST HARRISBURG PA 17102-0 DAUPHIN,ROCK & SUNBURY STS SHAMOKIN PA 17872-49
"BANKO ENTERPRISES, INC.",CORPORATION,NAN,1917 MORAVIA ST,NEW CASTLE,,PA 16101-0 LAWRENCE,1917 MORAVIA,NEW CASTLE,,740394,REGINA BANKO,TREASURER,1917 MORAVIA NEW CASTLE PA 16101-0 LAWRENCE,1917 MORAVIA ST NEW CASTLE PA 16101-37
"REFLECTIONS OF BEAUTY, FURNITURE INC.",CORPORATION,NAN,,,,PA 19135-0 PHILADELPHIA,7043 FRANKFORD AVENUE,PHILADELPHIA,,740395,,,7043 FRANKFORD AVENUE PHILADELPHIA PA 19135-0 PHILADELPHIA,
"POLYGRAPH TESTING SERVICES, INC.",CORPORATION,NAN,,,,PA,1 OXFORD VALLEY,LANGHORNE,,740396,,,1 OXFORD VALLEY LANGHORNE PA 19047-0 BUCKS,
"CRYSTAL SPRINGS FAMILY RESTAURANT, INC.",CORPORATION,NAN,,,,,,,,740397,,,NW COR OF PENN AVE & GAUL RD (PA ROUTE 4 22) SINKING SPRING PA 19608-0 BERKS,
"HANFORD ASSOCIATES, INC.",CORPORATION,NAN,,,,,,,,740398,,,4612 EUGENE DRVIE BRISTOL PA 19007-0 BUCKS,
"TRENT, INC.",CORPORATION,PA,201 LEVERINGTON AVE,PHILADELPHIA,,PA 19127-0 PHILADELPHIA,201 LEVERINGTON AVE,PHILADELPHIA,,740400,JANET BARRETT,TREASURER,201 LEVERINGTON AVE PHILADELPHIA PA 19127-0 PHILADELPHIA,201 LEVERINGTON AVE PHILADELPHIA PA 19127-1215
APPAREL RETAIL CORPORATION,CORPORATION,DE,155 BAY STATE DR,BRAINTREE,,PA 17108-0 DAUPHIN,C/O THE PRENTICE-HALL CORPORATION SYSTEM INC 100 PINE STREET,HARRISBURG,,740401,STEVEN A KRAVETZ,SECRETARY,C/O THE PRENTICE-HALL CORPORATION SYSTEM INC 100 PINE STREET HARRISBURG PA 17108-0 DAUPHIN,155 BAY STATE DR BRAINTREE MA 02184
ENCORE PRODUCTION COMPANY,NONPROFIT,NAN,,,,PA,16 N 56TH ST,PHILA,,740402,,,16 N 56TH ST PHILA PA 0 -0 PHILADELPHIA,
"LAE ENERGY, INC.",CORPORATION,TX,,,,PA 19103-0 PHILADELPHIA,C/O C T CORPORATION SYSTEM 1635 MARKET STREET,PHILADELPHIA,,740404,WM C CLEMENT,TREASURER,C/O C T CORPORATION SYSTEM 1635 MARKET STREET PHILADELPHIA PA 19103-0 PHILADELPHIA,"TAX DEPT. 1221 LAMAR,STE1600 HOUSTON TX 77010"
"EMCO CONSULTING, INC.",CORPORATION,NAN,2134 KENNETH AVE,ARNOLD,,PA 15068-0 WESTMORELAND,2134 KENNETH AVE,ARNOLD,,740406,JULIA MOSES,TREASURER,2134 KENNETH AVE ARNOLD PA 15068-0 WESTMORELAND,2134 KENNETH AVE ARNOLD PA 15068-65
"NUCCI, E. LAWRENCE D.M.D., P.C.",CORPORATION,PA,4212 OLD WILLIAM PENN HWY,MURRYSVILLE,,PA 15668-0 WESTMORELAND,4212 OLD WILLIAM PENN HIGHWAY,MURRYSVILLE,,740407,JANET NUCCI,TREASURER,4212 OLD WILLIAM PENN HIGHWAY MURRYSVILLE PA 15668-0 WESTMORELAND,4212 OLD WILLIAM PENN HWY MURRYSVILLE PA 15668-1901
"NEWCOMER ASSOCIATES, INC.",CORPORATION,PA,1115 SHELLER AVE,CHAMBERSBURG,,PA 17201-0 FRANKLIN,82 W QUEEN ST,CHAMBERSBURG,,740408,T KIM JACKSON,VICEPRESIDENT,82 W QUEEN ST CHAMBERSBURG PA 17201-0 FRANKLIN,1115 SHELLER AVE CHAMBERSBURG PA 17201-2941
"FIRE-GUARD, INC.",CORPORATION,MI,6470 WILLIAMSON,DEARBORN,,,,,,740410,THERESA MELNICK,TREASURER,123 SOUTH BROAD STREET C/O C T CORPORATI ON SYSTEM PHILADELPHIA PA 19109-0 PHILADELPHIA,6470 WILLIAMSON DEARBORN MI 48126
"MEILLIER, HENRI STUDIO, INC.",CORPORATION,NAN,30 COOPER RUN DR,CHERRY HILL,,PA 19103-0 PHILADELPHIA,"2010 CHANCELLOR ST., 2ND FLOOR",PHILA,,740411,VIRGINIA MEILLIER,SECRETARY,"2010 CHANCELLOR ST., 2ND FLOOR PHILA PA 19103-0 PHILADELPHIA",30 COOPER RUN DR CHERRY HILL NJ 08003
DELAWARE VALLEY PUBLISHING CO INC.,CORPORATION,NAN,,,,PA 19104-0 PHILADELPHIA,28 S 40TH STREET,PHILADELPHIA,,740412,,,28 S 40TH STREET PHILADELPHIA PA 19104-0 PHILADELPHIA,
GIDEON CORPORATION,CORPORATION,NAN,C/O GARY RUBIN 7486 CAMP MEETING RD,NEW TRIPOLI,,,,,,740413,GARY RUBIN,PRESIDENT,RD 2 BOX 209-1 NEW TRIPOLI PA 18066-0 LEHIGH,C/O GARY RUBIN 7486 CAMP MEETING RD NEW TRIPOLI PA 18066-39
RENTRAK CORPORATION,CORPORATION,OR,PO BOX 18888,PORTLAND,,,,,,740414,KIM COX,TREASURER,%CT CORPORATION SYSTEM DAUPHIN,PO BOX 18888 PORTLAND OR 97218-0888
"LYN-JOY, INC.",CORPORATION,PA,,,,PA 19115-0 PHILADELPHIA,8802 RISING SUN AVENUE,PHILADELPHIA,,740415,,,8802 RISING SUN AVENUE PHILADELPHIA PA 19115-0 PHILADELPHIA,
"WHOLE HEALTH DISCOUNT CENTER, INC.",CORPORATION,PA,CO COHEN AND GRIGSBY 11 STANWIX ST15TH FLOO,PITTSBURGH,,,,,,740416,MARC R SPEAR,SECRETARY,112 HAVENWOOD DR CRANBERRY TWP PA 16066-0 BUTLER,CO COHEN AND GRIGSBY 11 STANWIX ST15TH FLOO PITTSBURGH PA 15222-02
"DOUGLAS GAS MARKETING, INC.",CORPORATION,PA,1965 WADDLE ROAD,STATE COLLEGE,15367,PA,205 HARDWOOD DRIVE,VENETIA,15367,740418,W DOUGLAS GOUGE,SECRETARY,205 HARDWOOD DRIVE VENETIA PA 15367 WASHINGTON,1965 WADDLE ROAD STATE COLLEGE PA 16803-14
"THE PLUMBING OUTLET, INC.",CORPORATION,NAN,2992 ROUTE 61,SHAMOKIN,,PA 17872-0 NORTHUMBERLAND,35 N MARKET ST,SHAMOKIN,,740419,ROBERT E BURT,TREASURER,35 N MARKET ST SHAMOKIN PA 17872-0 NORTHUMBERLAND,2992 ROUTE 61 SHAMOKIN PA 17872
"DEVLIN-ROSMOS-KEPP FUNERAL HOME, INC.",CORPORATION,PA,511 W HOFFECKER RD,POTTSTOWN,,PA 19460-0 CHESTER,517 MAIN ST,PHOENIXVILLE,,740421,ROSMOS RICHARD,TREASURER,517 MAIN ST PHOENIXVILLE PA 19460-0 CHESTER,511 W HOFFECKER RD POTTSTOWN PA 19465-9651
"STEER, JOHN A. INC.",CORPORATION,NAN,28 SOUTH 2ND STREET,PHILADELPHIA,,PA 19106-0 PHILADELPHIA,136 CHESTNUT ST,PHILADELPHIA,,740422,JOHN M POOLE,PRESIDENT,136 CHESTNUT ST PHILADELPHIA PA 19106-0 PHILADELPHIA,28 SOUTH 2ND STREET PHILADELPHIA PA 19106-51
"BARNES ENTERPRISES, INC.",CORPORATION,NAN,317 HILL AVE,LANGHORNE,,PA,317 HILL AVE,LANGHORNE,,740423,MICHAEL BARNES,PRESIDENT,317 HILL AVE LANGHORNE PA 19047-0 BUCKS,317 HILL AVE LANGHORNE PA 19047-09
"RICHARD A. STEVES D.M.D., P.C.",CORPORATION,NAN,983 N CENTER ST,CORRY,,PA,101 E SMITH ST,CORRY,,740424,RICHARD A STEVES,PRESIDENT,101 E SMITH ST CORRY PA 16407-0 ERIE,983 N CENTER ST CORRY PA 16407-1228
"HOLY NATIVITY CHAPEL OF BETHLEHEM, INC.",NONPROFIT,NAN,,,,,,,,740425,,,423 WEST MOORESTOWN RD (RTE 512) P O BO X 99 NAZARETH PA 18064-0 NORTHAMPTON,
"VISITATION CHAPEL, INC.",NONPROFIT,PA,,,,PA 17701-0 LYCOMING,1614 W SOUTHERN AVE,WILLIAMSPORT,,740426,,,1614 W SOUTHERN AVE WILLIAMSPORT PA 17701-0 LYCOMING,
"PRESENTATION CHAPEL, INC.",NONPROFIT,NAN,,,,,,,,740427,,,ROOSEVELT ST AT 8TH WEST HAZELTON PA 18201-0 LUZERNE,
"EMAC, INC.",CORPORATION,MD,201 MOUNTAIN RD,PLYMOUTH,,PA 18651-0 LUZERNE,201 MOUNTAIN ROAD,PLYMOUTH,,740428,EDWARD MCLAUGHLIN,TREASURER,201 MOUNTAIN ROAD PLYMOUTH PA 18651-0 LUZERNE,201 MOUNTAIN RD PLYMOUTH PA 18651-40
"PETERS PACKAGING MACHINES, INC.",CORPORATION,OR,,,,PA,1430 MANNING BOULEVARD,LEVITTOWN,,740429,,,1430 MANNING BOULEVARD LEVITTOWN PA 19058-0 BUCKS,
"HEALTH-MATE, INC.",CORPORATION,PA,,,,PA 19147-0 PHILADELPHIA,645 SOUTH ST,PHILADELPHIA,,740430,,,645 SOUTH ST PHILADELPHIA PA 19147-0 PHILADELPHIA,
DERBY OIL AND GAS CORP.,CORPORATION,OH,C/O THOMAS R MORIARTY 56335 BLUEBELL RD,CUMBERLAND,,PA,637 NORTH CENTER STREET,COREY,,740431,STEPHEN P BUCHHOLZ,TREASURER,637 NORTH CENTER STREET COREY PA 16407-0 ERIE,C/O THOMAS R MORIARTY 56335 BLUEBELL RD CUMBERLAND OH 43732
"MOUNTVILLE BAPTIST CHURCH, SOWING THE WORD MINISTRIES, INC.",NONPROFIT,NAN,,,,,,,,740432,,,NORTH LEMON ST MOUNTVILLE FIRE HALL MONTVILLE PA 17554-0 LANCASTER,
"QUALITY BUSINESS SYSTEMS, INC.",CORPORATION,NY,,,,PA 19104-0 PHILADELPHIA,"101 NORTH 33RD STREET, ROOM 310",PHILADELPHIA,,740433,,,"101 NORTH 33RD STREET, ROOM 310 PHILADELPHIA PA 19104-0 PHILADELPHIA",
BENMARK CORPORATION,CORPORATION,VA,547 WARRENTON RD,FALMOUTH,,PA 17093-0 CUMBERLAND,501 NORTH ENOLA,SUMMERDALE,,740434,PETER M WATTS,TREASURER,501 NORTH ENOLA SUMMERDALE PA 17093-0 CUMBERLAND,547 WARRENTON RD FALMOUTH VA 22405
"VALLEY MAINTENANCE & SUPPLY CO., INC.",CORPORATION,NAN,,,,,,,,740435,,,STATION ST (PO BOX 126 LATROBE PA 15650) LOYALHANNA PA 15661-0 WESTMORELAND,
"WOLF RUN MANOR ASSOCIATION, INC.",NONPROFIT,PA,,,,,,,,740436,LENA FOWLER,TREASURER,"%REGISTERED AGENT SOLUTIONS, INC. DAUPHIN",
"DELAWARE TEMPORARY SYSTEMS, INC.",CORPORATION,DE,,,,PA 19380-0 CHESTER,115 EAST CHESTNUT STREET,WEST CHESTNUT,,740437,,,115 EAST CHESTNUT STREET WEST CHESTNUT PA 19380-0 CHESTER,
"EXPLOSIVES DISTRIBUTORS, INC.",CORPORATION,PA,,,,,,,,740439,,,29 INDEPENDENCE ROAD MOUNTAIN TOP PA 18707-0 LUZERNE,
"KINGSWAY TRANSPORTS, INC.",CORPORATION,DE,,,,PA 19137-0 PHILADELPHIA,4219 RICHMOND STREET,PHILADELPHIA,,740440,,,4219 RICHMOND STREET PHILADELPHIA PA 19137-0 PHILADELPHIA,
UNIVERSAL SECURITY INC.,CORPORATION,NAN,2420 E CARSON ST STE 2,PITTSBURGH,,,,,,740441,TIMOTHY S COON,PRESIDENT,617 FRICK BLDG PITTSBURGH PA 15219-0 ALLEGHENY,2420 E CARSON ST STE 2 PITTSBURGH PA 15203-02
"MOLLER, M. P., INCORPORATED",CORPORATION,MD,403 N PROSPECT ST,HAGERSTOWN,,PA 17201-0 FRANKLIN,215 SHERWOOD DRIVE,CHAMBERSBURG,,740442,RONALD F ELLIS,PRESIDENT,215 SHERWOOD DRIVE CHAMBERSBURG PA 17201-0 FRANKLIN,403 N PROSPECT ST HAGERSTOWN MD 21740
"ARE YOU HUNGRY, INC.",CORPORATION,NAN,,,,PA 15213-0 ALLEGHENY,400 SOUTH CRAIG ST,PITTSBURGH,,740443,,,400 SOUTH CRAIG ST PITTSBURGH PA 15213-0 ALLEGHENY,
OVERSEAS AND US TRAVEL CORPORATION,CORPORATION,NAN,,,,PA 19149-0 PHILADELPHIA,7063 CASTOR AVE,PHILA,,740445,,,7063 CASTOR AVE PHILA PA 19149-0 PHILADELPHIA,
"JAMESTOWN MACADAM, INC.",CORPORATION,NY,PO BOX 518,CELORON,16345-0,PA,RD #2 (BOX 2784),RUSSELL,16345-0,740447,THOMAS T OLSON,VICEPRESIDENT,RD #2 (BOX 2784) RUSSELL PA 16345-0 WARREN,PO BOX 518 CELORON NY 14720-0518
"OGONTZ RADIOLOGY ASSOCIATES, INC.",CORPORATION,PA,,,,PA 19138-0 PHILADELPHIA,7175 OGONTZ AVE,PHILADELPHIA,,740448,,,7175 OGONTZ AVE PHILADELPHIA PA 19138-0 PHILADELPHIA,
"B AND D ASSOCIATES, INC.",CORPORATION,PA,,,,PA 15905-0 CAMBRIA,476 HERSHBERGER ST,JOHNSTOWN,,740449,,,476 HERSHBERGER ST JOHNSTOWN PA 15905-0 CAMBRIA,
"CESPOR, INC.",CORPORATION,NAN,C/O CESARE SPORTELLI 540 PHILADELPHIA RD,EASTON,,,,,,740450,CESARE SPORTELLI,PRESIDENT,ROUTE 512 & BROADWAY WIND GAP PA 18091-0 NORTHAMPTON,C/O CESARE SPORTELLI 540 PHILADELPHIA RD EASTON PA 18042-48
INTEGRATED SOFTWARE SYSTEMS CORPORATION,CORPORATION,CA,C/O CARL ZEIGER 1155 SANTA LUISA DR,SOLANA BEACH,,CT,123 SOUTH BROAD STREET,C/O,,740451,PETER PREUSS,PRESIDENT,123 SOUTH BROAD STREET C/O CT CORPORATIO N SYSTEM PHILADELPHIA PA 19109-0 PHILADELPHIA,C/O CARL ZEIGER 1155 SANTA LUISA DR SOLANA BEACH CA 92075
NORTHERN TIER ANTHRACITE CORPORATION,CORPORATION,PA,,,,PA 18518-0 LACKAWANNA,802 GLENWOOD ROAD,OLD FORGE,,740452,,,802 GLENWOOD ROAD OLD FORGE PA 18518-0 LACKAWANNA,
"RADCLIFFE'S TRUCKING, INC.",CORPORATION,NAN,,,,PA 18018-0 NORTHAMPTON,937 WOOD ST,BETHLEHEM,,740453,,,937 WOOD ST BETHLEHEM PA 18018-0 NORTHAMPTON,
"K-C TRUCKING, INC.",CORPORATION,PA,,,,PA 19018-0 DELAWARE,214 WESTBROOK DRIVE,CLIFTON HEIGHTS,,740454,,,214 WESTBROOK DRIVE CLIFTON HEIGHTS PA 19018-0 DELAWARE,
"FUELS DEVELOPMENT GROUP, INC.",CORPORATION,NAN,,,,PA 15034-0 ALLEGHENY,530 WASHINGTON AVE,DRAVOSBURG,,740456,,,530 WASHINGTON AVE DRAVOSBURG PA 15034-0 ALLEGHENY,
"K & H TRANSPORTATION SYSTEMS, INC.",CORPORATION,NAN,,,,PA 17053-0 CUMBERLAND,7029,CARLISLE,,740457,,,7029 CARLISLE PIKE CARLISLE PA 17053-0 CUMBERLAND,
"RIDLEY, EDGAR J. & ASSOCIATES, INC.",NONPROFIT,NAN,,,,PA 19107-0 PHILADELPHIA,1321 ARCH ST STE 300,PHILA,,740458,,,1321 ARCH ST STE 300 PHILA PA 19107-0 PHILADELPHIA,
TSD ENGINEERING & SERVICES CORPORATION,CORPORATION,NAN,,,,PA 15143-0 ALLEGHENY,BOX 2632 RD 4 BROWN RD,SEWICKLEY,,740460,,,BOX 2632 RD 4 BROWN RD SEWICKLEY PA 15143-0 ALLEGHENY,
"SUNNY RIDGE STABLE, INC.",CORPORATION,NAN,953 CORNWALLIS DR,WEST CHESTER,,PA 19380-0 CHESTER,953 CORNWALLIS DRIVE WEST,CHESTER,,740462,JUDITH A BOWER,PRESIDENT,953 CORNWALLIS DRIVE WEST CHESTER PA 19380-0 CHESTER,953 CORNWALLIS DR WEST CHESTER PA 19380-15
"STOCKWELL ENTERPRISES, INC.",CORPORATION,NAN,503 KENT PL,BERWYN,,,,,,740463,JEAN H NATER MCMANUS,SECRETARY,503 KENT PLACE BERWYN PA 19312-0 CHESTER,503 KENT PL BERWYN PA 19312-15
"M G M STABLE, INC.",CORPORATION,NAN,RD 5 WESTTOWN-THORNTON RD,WEST CHESTER,,PA 19380-0 CHESTER,"RD#5, ELYSIAN HILL WESTTOWN-THORNTON RD",WEST CHESTER,,740464,MARIA JONES,PRESIDENT,"RD#5, ELYSIAN HILL WESTTOWN-THORNTON RD WEST CHESTER PA 19380-0 CHESTER",RD 5 WESTTOWN-THORNTON RD WEST CHESTER PA 19380-15
"FIVE IS ENOUGH, INC.",CORPORATION,NAN,,,,PA,"STAR ROUTE, BOX 25",HAWLEY,,740465,,,"STAR ROUTE, BOX 25 HAWLEY PA 18428-0 WAYNE",
LANDIS TRUCKING COMPANY,CORPORATION,PA,,,,PA 19018-0 DELAWARE,744 CRICKET LANE,CLIFTON HEIGHTS,,740466,,,744 CRICKET LANE CLIFTON HEIGHTS PA 19018-0 DELAWARE,
"CINEMEDIA PUBLICATIONS, INC.",CORPORATION,NAN,,,,PA 15217-0 ALLEGHENY,5721 NORTHUMBERLAND AVENUE,PITTSBURGH,,740467,,,5721 NORTHUMBERLAND AVENUE PITTSBURGH PA 15217-0 ALLEGHENY,
BAT ELECTRONIC EQUIPMENT CORPORATION,CORPORATION,NAN,1857 BROOK LN,JAMISON,,PA 19090-0 MONTGOMERY,410 N. EASTON ROAD,WILLOW GROVE,,740468,WILLIAM BREHM,PRESIDENT,410 N. EASTON ROAD WILLOW GROVE PA 19090-0 MONTGOMERY,1857 BROOK LN JAMISON PA 18929-09
"JUST GOOD MEATS, INC.",CORPORATION,NAN,,,,PA 15108-0 ALLEGHENY,925 BRODHEAD ROAD,CORAOPOLIS,,740469,,,925 BRODHEAD ROAD CORAOPOLIS PA 15108-0 ALLEGHENY,
THE ATRIUM CONDOMINIUM ASSOCIATION,NONPROFIT,NAN,,,,PA 15213-0 ALLEGHENY,307 S DITHRIDGE ST,PITTSBURGH,,740470,,,307 S DITHRIDGE ST PITTSBURGH PA 15213-0 ALLEGHENY,
JBS HOLDING CORP.,CORPORATION,PA,,,,PA 19134-0 PHILADELPHIA,2060 E TIOGA STREET,PHILADELPHIA,,740471,,,2060 E TIOGA STREET PHILADELPHIA PA 19134-0 PHILADELPHIA,
"FOX PARKWOOD, INC.",CORPORATION,PA,,,,PA 19072-0 MONTGOMERY,307 IONA AVENUE,NARBERTH,,740472,,,307 IONA AVENUE NARBERTH PA 19072-0 MONTGOMERY,
"WEBER & WEBER, INC.",CORPORATION,NAN,,,,PA,R.D. 3 BOX 3209 RHINE RUN ROAD,RUSSELL,16345-0,740473,,,R.D. 3 BOX 3209 RHINE RUN ROAD RUSSELL PA 16345-0 WARREN,
"POCONO CUSTOM HOMES, INC.",CORPORATION,PA,PO BOX 21,NEWFOUNDLAND,,PA,P O BOX 21 CORNER OF PA. RTES 191 & 447,NEWFOUNDLAND,,740474,ROGER C ALTEMIER,PRESIDENT,P O BOX 21 CORNER OF PA. RTES 191 & 447 NEWFOUNDLAND PA 18445-0 WAYNE,PO BOX 21 NEWFOUNDLAND PA 18445-0021
FIDELITY DISTRIBUTORS CORPORATION,CORPORATION,MA,# 382 DEVONSHIRE ST,BOSTON,,,,,,740475,WILLIAM F LOEHNING,VICEPRESIDENT,%CT CORPORATION SYSTEM PHILADELPHIA,# 382 DEVONSHIRE ST BOSTON MA 02109-3605
"BOYERTOWN MECHANICAL CONTRACTORS, INC.",CORPORATION,NAN,,,,PA 18073-0 MONTGOMERY,WILD RUN ROAD,PENNSBURG,,740476,,,WILD RUN ROAD PENNSBURG PA 18073-0 MONTGOMERY,
F W B CORP.,CORPORATION,NAN,1725 PITTSBURGH AVE,ERIE,,PA,1725 PITTSBURGH AVENUE,ERIE,,740478,NANCY L BACON,SECRETARY,1725 PITTSBURGH AVENUE ERIE PA 16505-0 ERIE,1725 PITTSBURGH AVE ERIE PA 16505-25
PURSUIT LTD.,CORPORATION,PA,,,,PA 19152-0 PHILADELPHIA,2727 RHAWN STREET APT 26A,PHILADELPHIA,,740479,,,2727 RHAWN STREET APT 26A PHILADELPHIA PA 19152-0 PHILADELPHIA,
"A.V. COMPUTERS, INC.",CORPORATION,NAN,,,,PA 19106-0 PHILADELPHIA,246 ARCH ST,PHILADELPHIA,,740480,,,246 ARCH ST PHILADELPHIA PA 19106-0 PHILADELPHIA,
"IMH, INC.",CORPORATION,NAN,PO BOX 66,WYNCOTE,,PA 19095-0 MONTGOMERY,5 NORTH AVE PO BOX 66,WYNCOTE,,740481,ILAN HAFRI,PRESIDENT,5 NORTH AVE PO BOX 66 WYNCOTE PA 19095-0 MONTGOMERY,PO BOX 66 WYNCOTE PA 19095-0066
SOUTHWEST PENNSYLVANIA LIQUIDATION SERVICES,NONPROFIT,NAN,C/O WILLIAM BOLOSKY 7606 ROYAL TROON TER,IJAMSVILLE,,PA 15401-0 FAYETTE,PO BOX 967 50 EAST MAIN STREET,UNIONTOWN,,740482,WILLIAM J BOLOSKY,VICEPRESIDENT,PO BOX 967 50 EAST MAIN STREET UNIONTOWN PA 15401-0 FAYETTE,C/O WILLIAM BOLOSKY 7606 ROYAL TROON TER IJAMSVILLE MD 21754
DIAMOND ANTHRACITE INDUSTRIES CORPORATION,CORPORATION,PA,,,,PA 17981-0 SCHUYLKILL,4 E MAIN ST,TREMONT,,740483,,,4 E MAIN ST TREMONT PA 17981-0 SCHUYLKILL,
ALLENTOWN COMMUNITY REVITALIZATION CORPORATION,NONPROFIT,PA,,,,PA,435 HAMILTON STREET,ALLENTOWN,18101-0,740486,,,435 HAMILTON STREET ALLENTOWN PA 18101-0 LEHIGH,
CASIPHIA MASONIC HALL ASSOCIATION,NONPROFIT,NAN,,,,,,,,740487,,,RD 7 BOX 340 % R. C. STEINMETZ MANHEIM PA 17545-0 LANCASTER,
PENNSYLVANIA LEAGUE OF URBAN SCHOOLS,NONPROFIT,PA,,,,PA 17101-0 DAUPHIN,800 NORTH THIRD STREET,HARRISBURG,,740488,,,800 NORTH THIRD STREET HARRISBURG PA 17101-0 DAUPHIN,
"FORMALITY FRANCHISING, INC.",CORPORATION,PA,624-634 MCKEAN AVE,DONORA,,PA 15033-0 WASHINGTON,624-634 MCKEAN AVENUE,DONORA,,740489,JOANN MUIA,SECRETARY,624-634 MCKEAN AVENUE DONORA PA 15033-0 WASHINGTON,624-634 MCKEAN AVE DONORA PA 15033-63
"STONE, JOE REMODELERS, INC.",CORPORATION,PA,,,,PA 19006-0 MONTGOMERY,3412 PHILMONT AVENUE,HUNTINGDON VALLEY,,740490,,,3412 PHILMONT AVENUE HUNTINGDON VALLEY PA 19006-0 MONTGOMERY,
"RIVER OF LIFE MINISTRIES, INC.",NONPROFIT,PA,,,,PA,"C/O ROBERT E TURNER R.D. 1, BOX 11",ASPERS,,740491,,,"C/O ROBERT E TURNER R.D. 1, BOX 11 ASPERS PA 17304-0 ADAMS",
ST. JOHN'S UNITED METHODIST CHURCH OF THE CHAMBERSBURG DISTRICT,NONPROFIT,NAN,,,,PA 17201-0 FRANKLIN,3001 WARM SPRING RD,CHAMBERSBURG,,740493,,,3001 WARM SPRING RD CHAMBERSBURG PA 17201-0 FRANKLIN,
CHILDREN'S VILLAGE,NONPROFIT,PA,,,,PA 19106-0 PHILADELPHIA,125 N 8TH ST,PHILADELPHIA,,740494,,,125 N 8TH ST PHILADELPHIA PA 19106-0 PHILADELPHIA,
"ELDRED BORO VOLUNTEER FIRE DEPARTMENT, INC.",NONPROFIT,PA,,,,PA,6 PLATT ST,ELDRED,16731-0,740495,,,6 PLATT ST ELDRED PA 16731-0 MCKEAN,
"GEISTOWN-RICHLAND BOYS PEEWEE FOOTBALL LEAGUE, INC.",NONPROFIT,NAN,,,,PA 15904-0 CAMBRIA,R.D. #2 BOX 280,JOHNSTOWN,,740496,,,R.D. #2 BOX 280 JOHNSTOWN PA 15904-0 CAMBRIA,
MACQUEEN INCORPORATED,CORPORATION,NAN,,,,PA 19102-0 PHILADELPHIA,1420 LOCUST STREET SUITE 21P,PHILADELPHIA,,740497,,,1420 LOCUST STREET SUITE 21P PHILADELPHIA PA 19102-0 PHILADELPHIA,
"TOIYABE OIL, INC.",CORPORATION,NV,,,,,,,,740499,,,"100 PINE STREET, C/O THE PRENTICE-HALL C ORPORATION SYSTEM, INC. HARRISBURG PA 17108-0 DAUPHIN",
LJC CORP.,CORPORATION,PA,,,,,,,,740500,,,301 CITY LINE AVENUE BALA CYNWYD PA 19004-0 MONTGOMERY,
"PASCUAL NAVARRO, INC.",CORPORATION,PA,1340 DAYTON RD,STEELTON,17113-1003,PA,1340 DAYTON RD,STEELTON,17113-1003,740501,PASCUAL NAVARRO,SECRETARY,1340 DAYTON RD STEELTON PA 17113-1003 DAUPHIN,1340 DAYTON RD STEELTON PA 17113-1003
"VIETNAM VETERANS OF WESTMORELAND COUNTY, INC.",NONPROFIT,NAN,,,,,,,,740502,,,201 LAW AND FINANCE BUILDING 35 W PITTSB URGH STREET GREENSBURG PA 15601-0 WESTMORELAND,
KOREAN CONSERVATIVE CHURCH,NONPROFIT,NAN,,,,PA 19126-0 PHILADELPHIA,3RD ST & CHELTENHAM AVE,PHILADELPHIA,,740503,,,3RD ST & CHELTENHAM AVE PHILADELPHIA PA 19126-0 PHILADELPHIA,
"HEATHERSTONE PRESS, INC.",NONPROFIT,NAN,,,,PA 16335-0 LAWRENCE,372 SHERMAN ST,MEADVILLE,,740504,,,372 SHERMAN ST MEADVILLE PA 16335-0 LAWRENCE,
"EMPIRE CHINA EXPRESS, INC.",CORPORATION,PA,C/O NELLY SIEW 672 LEXINGTON DR,KNG OF PRUSSIA,18036-0,PA,R.D. 1,COOPERSBURG,18036-0,740506,NELLY SIEW,PRESIDENT,R.D. 1 COOPERSBURG PA 18036-0 LEHIGH,C/O NELLY SIEW 672 LEXINGTON DR KNG OF PRUSSIA PA 19406-46
"VIDEO GALLERY, INC.",CORPORATION,NAN,,,,PA,3419 MANSION DR,BENSALEM,,740507,,,3419 MANSION DR BENSALEM PA 19020-0 BUCKS,
WEST OAK LANE - CHELTEN NONPROFIT ASSOCIATION,NONPROFIT,NAN,,,,PA 19141-0 PHILADELPHIA,5967 OGONTZ AVENUE,PHILADELPHIA,,740508,,,5967 OGONTZ AVENUE PHILADELPHIA PA 19141-0 PHILADELPHIA,
"PENNSYLVANIA ASSOCIATION OF EDWARDS HEIRS, INC.",NONPROFIT,PA,,,,PA,1408 ALLEGHENY STREET,REAR HOLLIDAYSBURG,,740509,,,1408 ALLEGHENY STREET REAR HOLLIDAYSBURG PA 16648-0 BLAIR,
"AMERIC, INC.",CORPORATION,PA,C/O ERIC THALER 1891 BELLEMEADE DR,ALTOONA,,PA,INTERSECTION ROUTES 22 & 764,DUNCANSVILLE,,740510,ERIC THALER,TREASURER,INTERSECTION ROUTES 22 & 764 DUNCANSVILLE PA 16635-0 BLAIR,C/O ERIC THALER 1891 BELLEMEADE DR ALTOONA PA 16601-07
KLN ASSOCIATES,PARTNERSHIP,NAN,,,,PA 19428-0 MONTGOMERY,922 W RIDGE PIKE,CONSHOHOCKEN,,740511,I P CONSULTANTS INC,GENPARTNER,922 W RIDGE PIKE CONSHOHOCKEN PA 19428-0 MONTGOMERY,PA
"CAROLYN EVANS ASSOCIATES, INC.",CORPORATION,NAN,PO BOX 4,GWYNEDD,,PA 17110-0 DAUPHIN,2320 NORTH SECOND ST,HARRISBURG,,740513,CAROLYN EVANS,VICEPRESIDENT,2320 NORTH SECOND ST HARRISBURG PA 17110-0 DAUPHIN,PO BOX 4 GWYNEDD PA 19436-46
"FIDELITY READERS GUILD, INC.",CORPORATION,NAN,PO BOX 747,HARRISBURG,,PA 17108-0 DAUPHIN,"105 NORTH FRONT ST, P.O. BOX 747",HARRISBURG,,740514,FRED R GUTSHALL JR,PRESIDENT,"105 NORTH FRONT ST, P.O. BOX 747 HARRISBURG PA 17108-0 DAUPHIN",PO BOX 747 HARRISBURG PA 17108-22
MICHAEL SCHWARTZ,NONPROFIT,PA,,,,PA,344 BALTIMORE STREET,GETTYSBURG,17325,740515,,,344 BALTIMORE STREET GETTYSBURG PA 17325,
ATLANTIC ADJUSTMENT CO.,CORPORATION,NAN,2541 E CAMBRIA ST,PHILADELPHIA,,PA 19114-0 PHILADELPHIA,2704 GRANT AVENUE,PHILADELPHIA,,740516,PATRICK M LOGAN,PRESIDENT,2704 GRANT AVENUE PHILADELPHIA PA 19114-0 PHILADELPHIA,2541 E CAMBRIA ST PHILADELPHIA PA 19134-4822
"1514 MASTERS DEN, INC.",CORPORATION,NAN,,,,PA,1514 SOUTH 22ND ST,PHILADELPHIA,,740517,,,1514 SOUTH 22ND ST PHILADELPHIA PA 0 -0 PHILADELPHIA,
"PHEASANT MEADOW RUN II, INC.",CORPORATION,NAN,,,,,,,,740519,,,118 COLWYN LANE BALA CYNWYD PA 19004-0 MONTGOMERY,
"DAVID A. MILLER II, MARKETING, INC.",CORPORATION,NAN,C/O MILLER MKT INTRADE5484 PERKIOMEN AVE,READING,18102-0,PA,1129 WALNUT ST,ALLENTOWN,18102-0,740520,EMILY B MILLER,SECRETARY,1129 WALNUT ST ALLENTOWN PA 18102-0 LEHIGH,C/O MILLER MKT INTRADE5484 PERKIOMEN AVE READING PA 19606-06
"BLAIN HYDRAULICS, INC.",CORPORATION,NAN,,,,,,,,740521,,,2000 TWO PENN CENTER PLAZA PHILA PA 19102-0 PHILADELPHIA,
"PAULSONBILT, LTD.",CORPORATION,PA,1000 W 11TH AVE,COATESVILLE,,PA 19320-0 CHESTER,1000 W 11TH AVE,COATESVILLE,,740522,EDNA G PAULSON,PRESIDENT,1000 W 11TH AVE COATESVILLE PA 19320-0 CHESTER,1000 W 11TH AVE COATESVILLE PA 19320-2811
EDWARD C. LECKEY ATTORNEY AT LAW,CORPORATION,NAN,20 CHATHAM SQ,PITTSBURGH,,,,,,740523,JANICE B LECKEY,SECRETARY,400 MANOR BUILDING PITTSBURGH PA 15219-0 ALLEGHENY,20 CHATHAM SQ PITTSBURGH PA 15219-02
"ALPHA UNDERWRITERS AGENCY, LTD.",CORPORATION,NAN,,,,PA 19440-0 MONTGOMERY,3218 LINE LEXINGTON RD,HATFIELD,,740524,,,3218 LINE LEXINGTON RD HATFIELD PA 19440-0 MONTGOMERY,
"ORBIT: A DIVISION OF ART A LA CARTE, INC.",CORPORATION,PA,4312 MAIN ST,PHILADELPHIA,,PA 19127-0 PHILADELPHIA,4203 MAIN ST,PHILADELPHIA,,740525,DAVID FICKES,PRESIDENT,4203 MAIN ST PHILADELPHIA PA 19127-0 PHILADELPHIA,4312 MAIN ST PHILADELPHIA PA 19127-1529
"J.L.S. TRUCKING, INC.",CORPORATION,NAN,837 LINTON AVE,CROYDON,,PA,837 LINTON AVENUE,CROYDON,,740526,EDWARD TASEY,TREASURER,837 LINTON AVENUE CROYDON PA 19020-0 BUCKS,837 LINTON AVE CROYDON PA 19021-6852
"SCHAHBUS, INC.",CORPORATION,NAN,171 CAMP COUNCIL RD,PHOENIXVILLE,,PA 19460-0 CHESTER,171 CAMP COUNCIL ROAD,PHOENIXVILLE,,740527,STEPHEN SKOPP,PRESIDENT,171 CAMP COUNCIL ROAD PHOENIXVILLE PA 19460-0 CHESTER,171 CAMP COUNCIL RD PHOENIXVILLE PA 19460-15
"STOUGHTON, W. SPENCER ASSOCIATES, INC.",CORPORATION,NAN,1728 BANTRY DR,DRESHER,,PA 19025-0 MONTGOMERY,1728 BANTRY DR,DRESHER,,740528,W SPENCER STOUGHTON,TREASURER,1728 BANTRY DR DRESHER PA 19025-0 MONTGOMERY,1728 BANTRY DR DRESHER PA 19025-46
"LAKE ERIE EMPLOYERS' ASSOCIATION, INC.",NONPROFIT,NAN,,,,PA,1250 TOWER LANE,ERIE,,740531,,,1250 TOWER LANE ERIE PA 16505-0 ERIE,
GARDEN CHAPEL,NONPROFIT,NAN,,,,PA 17057-0 DAUPHIN,1001 LUMBER STREET,MIDDLETOWN,,740532,,,1001 LUMBER STREET MIDDLETOWN PA 17057-0 DAUPHIN,
LANCASTER YMCA FOUNDATION,NONPROFIT,PA,,,,PA,572 N QUEEN ST,LANCASTER,17603-3027,740533,,,572 N QUEEN ST LANCASTER PA 17603-3027 LANCASTER,
"LEGIS, INCORPORATED",NONPROFIT,NAN,,,,PA 19106-0 PHILADELPHIA,330 SPRUCE STREET,PHILA,,740534,,,330 SPRUCE STREET PHILA PA 19106-0 PHILADELPHIA,
"PATRICIA MURPHY'S ENTERPRISES, INC.",CORPORATION,NAN,,,,PA 15021-0 WASHINGTON,"OLD ROUTE 22, PO BOX 113",PARIS,,740536,,,"OLD ROUTE 22, PO BOX 113 PARIS PA 15021-0 WASHINGTON",
LALL CORPORATION,CORPORATION,PA,,,,PA 17756-0 LYCOMING,RD 2,MUNCY,,740537,,,RD 2 MUNCY PA 17756-0 LYCOMING,
"MICHAEL WUSYLKO, M.D., P.C.",CORPORATION,NAN,20826 ROUTE 19,CRANBERRY TWP,16033-0,PA,RT 19 N CRANBERRY TWP RD 1 BOX 163-A,EVANS CITY,16033-0,740538,MICHAEL WUSYLKO,PRESIDENT,RT 19 N CRANBERRY TWP RD 1 BOX 163-A EVANS CITY PA 16033-0 BUTLER,20826 ROUTE 19 CRANBERRY TWP PA 16066-10
BRITE STARR DISTRIBUTORS CORPORATION,CORPORATION,PA,,,,PA 19107-0 PHILADELPHIA,"STE 1500, 1015 CHESTNUT ST",PHILADELPHIA,,740540,,,"STE 1500, 1015 CHESTNUT ST PHILADELPHIA PA 19107-0 PHILADELPHIA",
"ASSOCIATION DIRECTIONS, INC.",CORPORATION,NAN,PO BOX 114,MEDIA,,PA 19063-0 DELAWARE,109 OAKVIEW DRIVE,MEDIA,,740541,WAYNE W CONGAR,PRESIDENT,109 OAKVIEW DRIVE MEDIA PA 19063-0 DELAWARE,PO BOX 114 MEDIA PA 19063-23
THE KINSMAN GARDEN COMPANY,CORPORATION,PA,6805 EASTON RD,PIPERSVILLE,,PA,RIVER ROAD POINT,PLEASANT,,740542,MICHELE KINSMAN,VICEPRESIDENT,RIVER ROAD POINT PLEASANT PA 18950-0 BUCKS,6805 EASTON RD PIPERSVILLE PA 18947-9717
ENERGY PROJECTS CORPORATION,CORPORATION,PA,,,,PA,PO BOX 59 HILLCREST RD,QUAKERTOWN,,740543,,,PO BOX 59 HILLCREST RD QUAKERTOWN PA 18951-0 BUCKS,
FORTREND COMPANY,PARTNERSHIP,PA,,,,,,,,740544,ANTHONY M DIGIOIA JR ET AL,GENPARTNER,OAKMONT PA 0 -0 ALLEGHENY,PA
BENTLEYVILLE UNION HOLINESS CAMPMEETING ASSOCIATION,NONPROFIT,NAN,,,,PA 15314-0 WASHINGTON,5 CAMP MEETING GROUND RD,BENTLEYVILLE,,740545,,,5 CAMP MEETING GROUND RD BENTLEYVILLE PA 15314-0 WASHINGTON,
THE WAYNEWOOD ASSOCIATION,NONPROFIT,PA,,,,PA,"WAYNEWOOD, RD 1",LAKE ARIEL,,740546,,,"WAYNEWOOD, RD 1 LAKE ARIEL PA 18436-0 WAYNE",
BRITISH AMERICAN PETROLEUM QUEBEC,PARTNERSHIP,NAN,,,,,,,,740549,BRITISH AMERICAN PETROLEUM COR,GENPARTNER,42 LANGMAID LANE % LELAND C FLYNN BRADFORD PA 16701-0 MCKEAN,PA
"GOODWIN AND SIBBIE, INC.",CORPORATION,NAN,,,,PA 19139-0 PHILADELPHIA,6135 SPRUCE ST,PHILADELPHIA,,740550,,,6135 SPRUCE ST PHILADELPHIA PA 19139-0 PHILADELPHIA,
"MACKESS, INC.",CORPORATION,PA,48 FORREST HILLS DR,VOORHEES,19006,PA,67 BUCK ROAD,HUNTINGDON VALLEY,19006,740551,RICHARD MCCAFFERY,VICEPRESIDENT,67 BUCK ROAD HUNTINGDON VALLEY PA 19006 MONTGOMERY,48 FORREST HILLS DR VOORHEES NJ 08043-3909
"MICHAEL HAJATIAN, D.D.S., P.C.",CORPORATION,NAN,10 S CLINTON ST,DOYLESTOWN,,PA,38 VALLEY DRIVE,FURLONG,,740552,MICHAEL HAJATIAN JR,PRESIDENT,38 VALLEY DRIVE FURLONG PA 18925-0 BUCKS,10 S CLINTON ST DOYLESTOWN PA 18901-09
"PARAMOUNT MUSIC, INC.",CORPORATION,NAN,,,,PA,50 WEST SHENANGO ST,SHARPSVILLE,16150-0,740553,,,50 WEST SHENANGO ST SHARPSVILLE PA 16150-0 MERCER,
OVERBROOK ASSOCIATION,NONPROFIT,NAN,,,,PA 19401-0 MONTGOMERY,151 WEST MARSHALL ST,NORRISTOWN,,740554,,,151 WEST MARSHALL ST NORRISTOWN PA 19401-0 MONTGOMERY,
"BERKS COUNTY S.I.D.S. SOCIETY, INC.",NONPROFIT,NAN,,,,,,,,740555,,,"BOX 139-D, R.D.1 ROBESONIA PA 19551-0 BERKS",
CHAR-WEST COUNCIL OF GOVERNMENTS,NONPROFIT,PA,,,,PA 15106-0 ALLEGHENY,ONE GLASS ST,CARNEGIE,,740556,,,ONE GLASS ST CARNEGIE PA 15106-0 ALLEGHENY,
"SCHUYLKILL COUNTY PRISON SOCIETY, INC.",NONPROFIT,NAN,,,,PA 17901-0 SCHUYLKILL,301 MAHANTONGO ST,POTTSVILLE,,740557,,,301 MAHANTONGO ST POTTSVILLE PA 17901-0 SCHUYLKILL,
UNIVERSAL HEALING MISSIONS,NONPROFIT,NAN,,,,PA,304 UNION STREET,HOLLIDAYSBURG,,740558,,,304 UNION STREET HOLLIDAYSBURG PA 16648-0 BLAIR,
"CORRY BAPTIST CHURCH OF CORRY, PENNSYLVANIA",NONPROFIT,NAN,,,,PA,112 EAST WASHINGTON ST,CORRY,,740559,,,112 EAST WASHINGTON ST CORRY PA 16407-0 ERIE,
"NURSING MOTHERS' NETWORK, INC.",NONPROFIT,PA,,,,PA 19061-0 DELAWARE,1030 MEETINGHOUSE RD,BOOTHWYN,,740560,,,1030 MEETINGHOUSE RD BOOTHWYN PA 19061-0 DELAWARE,
ROSELAND CHRISTIAN FELLOWSHIP,NONPROFIT,NAN,,,,PA 16644-0 CAMBRIA,1225 ROSELAND RD,GLASGOW,,740561,,,1225 ROSELAND RD GLASGOW PA 16644-0 CAMBRIA,
SUN VILLAGE CIVIC ASSOCIATION,NONPROFIT,NAN,,,,PA 19013-0 DELAWARE,1119 WHITE ST,CHESTER,,740562,,,1119 WHITE ST CHESTER PA 19013-0 DELAWARE,
CAMBRIA RESIDENTIAL SERVICES,NONPROFIT,NAN,,,,PA 15901-0 CAMBRIA,709 FRANKLIN ST,JOHNSTOWN,,740563,,,709 FRANKLIN ST JOHNSTOWN PA 15901-0 CAMBRIA,
THE GINNY THORNBURGH FOUNDATION,NONPROFIT,PA,,,,PA 16254-0 CLARION,"P.O. BOX 674, RD 2",SHIPPENVILLE,,740564,,,"P.O. BOX 674, RD 2 SHIPPENVILLE PA 16254-0 CLARION",
"CARLISLE CHAPTER 86, D.A.V. DEPARTMENT OF PENNSYLVANIA",NONPROFIT,NAN,,,,PA 17013-0 CUMBERLAND,125 CHESTER ST,CARLISLE,,740565,,,125 CHESTER ST CARLISLE PA 17013-0 CUMBERLAND,
YOUTHAVEN,NONPROFIT,NAN,,,,,,,,740566,,,"PO BOX 510-SUITE 508, ONE MONTGOMERY PLA ZA NORRISTOWN PA 19404-0 MONTGOMERY",
YOUTH COMMUNICATION/PHILADELPHIA,NONPROFIT,NAN,,,,PA 19108-0 PHILADELPHIA,"SUITE 895, 401 NORTH BROAD ST",PHILADELPHIA,,740567,,,"SUITE 895, 401 NORTH BROAD ST PHILADELPHIA PA 19108-0 PHILADELPHIA",
"HORNICK INDUSTRIES, INC.",CORPORATION,PA,,,,PA 15024-0 ALLEGHENY,41 MEADOW ST,CHESWICK,,740568,,,41 MEADOW ST CHESWICK PA 15024-0 ALLEGHENY,
THE COVIL CORPORATION,CORPORATION,NAN,,,,,,,,740569,,,"WESTERN SAVINGS BUILDING, 17TH FLOOR PHILADELPHIA PA 19107-0 PHILADELPHIA",
"ELEMENTAL SYSTEMS, INC.",CORPORATION,NAN,C/O JAMES B TRICE 623 KENNEDY RD,WAYNE,,PA 19807-0 DELAWARE,623 KENNEDY ROAD,WAYNE,,740570,LILLIAN T MURPHY,TREASURER,623 KENNEDY ROAD WAYNE PA 19807-0 DELAWARE,C/O JAMES B TRICE 623 KENNEDY RD WAYNE PA 19087-23
THE ATA GROUP INC.,CORPORATION,PA,,,,,,,,740571,,,"C/O NESHAMINY PLAZA 1, STE 215, STREET R D AND BRISTOL PK BENSALEM PA 19020-0 BUCKS",
"RIFF CLEANERS, LTD.",CORPORATION,NAN,,,,PA 19147-0 PHILADELPHIA,314 S 5TH ST,PHILADELPHIA,,740572,,,314 S 5TH ST PHILADELPHIA PA 19147-0 PHILADELPHIA,
"2400 MACK'S LOUNGE, INC.",CORPORATION,PA,,,,PA 19132-0 PHILADELPHIA,2400 NORTH 25TH ST,PHILADELPHIA,,740573,,,2400 NORTH 25TH ST PHILADELPHIA PA 19132-0 PHILADELPHIA,
"S & S WELDING SUPPLY, INC.",CORPORATION,NAN,BOX 157,COCHRANTON,,PA 17314-0 CRAWFORD,179 NORTH FRANKLIN ST,COCHRANTON,,740575,ERVIN J STANFORD,PRESIDENT,179 NORTH FRANKLIN ST COCHRANTON PA 17314-0 CRAWFORD,BOX 157 COCHRANTON PA 16314-20
"STATE ALARM OF PENNSYLVANIA, INC.",CORPORATION,NAN,,,,,,,,740576,,,RD 2 CLARION PA 16214-0 CLARION,
BRITISH AMERICAN PETROLEUM PAPA,PARTNERSHIP,NAN,,,,,,,,740577,BRITISH AMERICAN PETROLEUM COR,GENPARTNER,42 LANGMAID LANE % LELAND C FLYNN BRADFORD PA 16701-0 MCKEAN,PA
BRITISH AMERICAN PETROLEUM OSCAR,PARTNERSHIP,NAN,,,,,,,,740578,BRITISH AMERICAN PETROLEUM COR,GENPARTNER,P. O. BOX 151 % NORTHEAST OIL AND GAS DR ILLING & SERVICEING CO BRADFORD PA 16701-0 MCKEAN,PA
PRONTO PIZZA INC.,CORPORATION,NAN,,,,PA 19401-0 MONTGOMERY,824 DEKALB ST,NORRISTOWN,,740580,,,824 DEKALB ST NORRISTOWN PA 19401-0 MONTGOMERY,
"S.M. CHETLIN, M.D. RHEUMATOLOGY, INC.",CORPORATION,NAN,7047 PENN AVE,PITTSBURGH,,PA 15212-0 ALLEGHENY,"490 E NORTH AVE, STE 208",PITTSBURGH,,740581,SHERWOOD M CHETLIN,TREASURER,"490 E NORTH AVE, STE 208 PITTSBURGH PA 15212-0 ALLEGHENY",7047 PENN AVE PITTSBURGH PA 15208-02
"BACH, RICHARD G. & ASSOCIATES, P.C.",CORPORATION,NAN,21235 RT 19 S,CRANBERRY TWP,16063-0,PA,"BOX 227-1, ROUTE 19, R.D.1",ZELIENOPLE,16063-0,740582,ROSELLA BACH,VICEPRESIDENT,"BOX 227-1, ROUTE 19, R.D.1 ZELIENOPLE PA 16063-0 BUTLER",21235 RT 19 S CRANBERRY TWP PA 16066-10
"GOLDBERG AND SILVERMAN, A PROFESSIONAL CORPORATION",CORPORATION,NAN,STE 225 100 MATSONFORD RD,RADNOR,16063-0,,,,,740583,ROBERT SILVERMAN,VICEPRESIDENT,"105 WYNNEWOOD HOUSE, 300 E LANCASTER AVE WYNNEWOOD PA 19096-0 MONTGOMERY",STE 225 100 MATSONFORD RD RADNOR PA 19087-23
"PAR 3 SPORTSWEAR, INC.",CORPORATION,PA,,,,PA 18512-0 LACKAWANNA,147 CHESTNUT ST,DUNMORE,,740584,,,147 CHESTNUT ST DUNMORE PA 18512-0 LACKAWANNA,
"ROLFE CONSULTANTS, LTD.",CORPORATION,NAN,3425 HORTON RD,NEWTOWN SQUARE,,PA 19041-0 MONTGOMERY,600,HAVERFORD,,740585,GERALD ROLFE,PRESIDENT,600 HAVERFORD AVENUE HAVERFORD PA 19041-0 MONTGOMERY,3425 HORTON RD NEWTOWN SQUARE PA 19073-23
LIFE CARE PARTNERS,PARTNERSHIP,NAN,,,,,,,,740586,LIFE CARE COMMUNITIES CORPORAT,GENPARTNER,STE 714 GSB BUILDING 1 BELMONT AVENUE BALA CYNWYD PA 19004-0 MONTGOMERY,PA
"UNITED CANCER RESEARCH SOCIETY, INC.",NONPROFIT,CA,,,,PA 15132-0 ALLEGHENY,523 WALNUT ST,MCKEESPORT,,740587,,,523 WALNUT ST MCKEESPORT PA 15132-0 ALLEGHENY,
"WARREN REAL ESTATE GROUP, INC.",CORPORATION,MI,,,,,,,,740588,,,"CHESTNUT RIDGE ROAD, (% TIMOTHY CHASE, R D#1, BOX 5173-A) GROVE CITY PA 16127-0 MERCER",
"DKHH EQUITIES, INC.",CORPORATION,NAN,1201 COUNTY LINE RD,ROSEMONT,,,,,,740589,JOSEPH P FRANCE,VICEPRESIDENT,1905 ARCHITECT'S BUILDING PHILADELPHIA PA 19103-0 PHILADELPHIA,1201 COUNTY LINE RD ROSEMONT PA 19010-46
"MCMINN OLDSMOBILE, INC.",CORPORATION,DE,226 PORTMAN LN,BRIDGEVILLE,,PA 15216-0 ALLEGHENY,3200 WEST LIBERTY AVENUE,PITTSBURGH,,740592,MICHAEL S HORNYAK,SECRETARY,3200 WEST LIBERTY AVENUE PITTSBURGH PA 15216-0 ALLEGHENY,226 PORTMAN LN BRIDGEVILLE PA 15017-1281
"HALBOUTY, MICHEL T. ENERGY CO.",CORPORATION,DE,,,,,,,,740594,,,123 SOUTH BROAD STREET C/O C T CORPORATI ON SYSTEM PHILADELPHIA PA 19109-0 PHILADELPHIA,
POLYBAC CORPORATION,CORPORATION,DE,P O BOX 156,PITMAN,,,,,,740596,JOHN ZIKOPOULOUS,PRESIDENT,"225 SOUTH 15TH STREET, C/O UNITED STATES CORPORATION COMPANY PHILADELPHIA PA 19102-0 PHILADELPHIA",P O BOX 156 PITMAN NJ 08071
GENERAL MACHINE & TOOL CORPORATION,CORPORATION,NAN,,,,PA 15219-0 ALLEGHENY,718 5TH AVE,PITTSBURGH,,740597,,,718 5TH AVE PITTSBURGH PA 15219-0 ALLEGHENY,
"HORIZON INVESTMENT GROUP, LTD.",CORPORATION,NAN,,,,PA 18510-0 LACKAWANNA,826 MONROE AVE,SCRANTON,,740598,,,826 MONROE AVE SCRANTON PA 18510-0 LACKAWANNA,
"BORROMEO BROS., INC.",CORPORATION,NAN,,,,PA 19063-0 DELAWARE,344 W FRONT ST,MEDIA,,740599,,,344 W FRONT ST MEDIA PA 19063-0 DELAWARE,
"PAT - DOL CORPORATION, INC.",CORPORATION,NAN,,,,PA 15902-0 CAMBRIA,276 LINDEN AVE,JOHNSTOWN,,740600,,,276 LINDEN AVE JOHNSTOWN PA 15902-0 CAMBRIA,
VALLEY FORGE CONVENIENCE STORE INC.,CORPORATION,PA,,,,,,,,740601,,,380 COVERED BRIDGE RD KING OF PRUSSIA PA 19406-0 MONTGOMERY,
"MT. OLIVER FURNITURE & SHOPPING CENTER, INC.",CORPORATION,NAN,,,,PA 15210-0 ALLEGHENY,218 BROWNSVILLE RD,PITTSBURGH,,740602,,,218 BROWNSVILLE RD PITTSBURGH PA 15210-0 ALLEGHENY,
"AAROT, ASHOK M. P.C. DR.",CORPORATION,NAN,7519 TORRESDALE AVE,PHILADELPHIA,,PA 19136-0 PHILADELPHIA,7519 TORRESDALE AVENUE,PHILADELPHIA,,740603,ASHOK BAROT,PRESIDENT,7519 TORRESDALE AVENUE PHILADELPHIA PA 19136-0 PHILADELPHIA,7519 TORRESDALE AVE PHILADELPHIA PA 19136-3335
"PALACRAS, LTD.",CORPORATION,PA,,,,PA,27 NORTH SEVENTH ST,ALLENTOWN,18101-0,740604,,,27 NORTH SEVENTH ST ALLENTOWN PA 18101-0 LEHIGH,
"COMPU-TECH SERVICES, INC.",CORPORATION,NAN,,,,PA,244 PROSPECT ST,CATASAUQUA,18032-0,740606,,,244 PROSPECT ST CATASAUQUA PA 18032-0 LEHIGH,
LA MONEGASQUE U.S.A. LTD.,CORPORATION,PA,FL 32200 FLETCHER AVE,FORT LEE,18032-0,,,,,740607,MICHAEL COLAMECO,VICEPRESIDENT,1500 MARKET ST 12TH FL EAST TOWER PHILADELPHIA PA 19102 PHILADELPHIA,FL 32200 FLETCHER AVE FORT LEE NJ 07024-5063
"I.M.C. INDUSTRIES, INC.",CORPORATION,PA,C/O LOUISE BRODY 16710 SENTERRA DR,DELRAY BCH,18104-0,PA,3737 TREXLER BLVD,ALLENTOWN,18104-0,740608,LOUISE BRODY,PRESIDENT,3737 TREXLER BLVD ALLENTOWN PA 18104-0 LEHIGH,C/O LOUISE BRODY 16710 SENTERRA DR DELRAY BCH FL 33484
"PROJECT 116, INC.",CORPORATION,NAN,,,,PA 19106-0 PHILADELPHIA,116 N 2ND ST,PHILADELPHIA,,740609,,,116 N 2ND ST PHILADELPHIA PA 19106-0 PHILADELPHIA,
"FLUID POWER CONTROLS, INC.",CORPORATION,NAN,PO BOX 269,BECHTELSVILLE,,PA 19473-0 MONTGOMERY,97 MAIN ST,SCHWENKSVILLE,,740610,RICHARD CROYLE,PRESIDENT,97 MAIN ST SCHWENKSVILLE PA 19473-0 MONTGOMERY,PO BOX 269 BECHTELSVILLE PA 19505-0269
"SIGNTACTICS, INC.",CORPORATION,DE,109 RIDGE ROAD,CHADDS FORD,,PA 19317-0 CHESTER,"RD#2, BOX 109",CHADDS FORD,,740611,KAREN HAUSLEIN,PRESIDENT,"RD#2, BOX 109 CHADDS FORD PA 19317-0 CHESTER",109 RIDGE ROAD CHADDS FORD PA 19317-23
HARRIMAN TKM ASSOCIATES,PARTNERSHIP,PA,,,,PA 15237-0 ALLEGHENY,805 MCKNIGHT PARK DR,PITTSBURGH,,740613,E ALAN BATES,GENPARTNER,805 MCKNIGHT PARK DR PITTSBURGH PA 15237-0 ALLEGHENY,PA
"HARRY NEIL WATERSTON, D.M.D., P.C.",CORPORATION,PA,700 W BROOKHAVEN RD,WALLINGFORD,,PA 19086-0 DELAWARE,700 W BROOKHAVEN RD,WALLINGFORD,,740614,HARRY N WATERSTON,TREASURER,700 W BROOKHAVEN RD WALLINGFORD PA 19086-0 DELAWARE,700 W BROOKHAVEN RD WALLINGFORD PA 19086-6716
"FASHION INSTITUTE OF PHILADELPHIA, INC.",CORPORATION,NAN,C/O WILLIAM J MAZUR 300 6TH AVE,PITTSBURGH,,PA 15222-0 ALLEGHENY,300 6TH AVE,PITTSBURGH,,740615,WILLIAMS J MAZUR,TREASURER,300 6TH AVE PITTSBURGH PA 15222-0 ALLEGHENY,C/O WILLIAM J MAZUR 300 6TH AVE PITTSBURGH PA 15222-02
"DACOR NURSING, INC.",CORPORATION,NAN,,,,PA 19149-0 PHILADELPHIA,6334 MERSHON ST,PHILA,,740616,,,6334 MERSHON ST PHILA PA 19149-0 PHILADELPHIA,
"HOME SAFE SECURITY SYSTEMS, INC.",CORPORATION,PA,,,,PA 15071-0 ALLEGHENY,118 CLINTON AVE,OAKDALE,,740617,,,118 CLINTON AVE OAKDALE PA 15071-0 ALLEGHENY,
18-T. & J. CORPORATION,CORPORATION,NAN,,,,PA 19121-0 PHILADELPHIA,1801 N 27TH ST,PHILADELPHIA,,740618,,,1801 N 27TH ST PHILADELPHIA PA 19121-0 PHILADELPHIA,
"BUCKHORN INVESTMENTS, INC.",CORPORATION,PA,,,,,,,,740619,,,175 NORTH VINE ST % GULAMABBAS F. DINANI HAZLETON PA 18201-0 LUZERNE,
ALPINE REALTY CONSTRUCTION CORPORATION,CORPORATION,NAN,,,,PA 19107-0 PHILADELPHIA,"22ND FLOOR, 12 S 12TH STREET",PHILADELPHIA,,740620,,,"22ND FLOOR, 12 S 12TH STREET PHILADELPHIA PA 19107-0 PHILADELPHIA",
"RESOURCES FOR BUSINESS GROWTH, LTD.",CORPORATION,NAN,705 OLD GULPH RD,BRYN MAWR,,PA 19085-0 DELAWARE,771 E LANCASTER AVE,VILLANOVA,,740621,ALLEN L GREENOUGH,PRESIDENT,771 E LANCASTER AVE VILLANOVA PA 19085-0 DELAWARE,705 OLD GULPH RD BRYN MAWR PA 19010-46
BERGSTRASSE PARENT-TEACHER ORGANIZATION,NONPROFIT,PA,,,,,,,,740623,,,"HAHNSTOWN RD, RD#3 EPHRATA PA 17522-0 LANCASTER",
WEST ELIZABETH LADIES AUXILIARY,NONPROFIT,NAN,,,,PA 15088-0 ALLEGHENY,520 5TH ST,WEST ELIZABETH,,740624,,,520 5TH ST WEST ELIZABETH PA 15088-0 ALLEGHENY,
"PLYMOUTH BOROUGH AMBULANCE ASSOCIATION, INC.",NONPROFIT,PA,,,,PA 18651-0 LUZERNE,24 GAYLORD AVE,PLYMOUTH,,740625,,,24 GAYLORD AVE PLYMOUTH PA 18651-0 LUZERNE,
"PENNSYLVANIA LUMBER AND BUILDING MATERIAL DEALERS FOR GOOD GOVERNMENT, INC.",NONPROFIT,NAN,,,,PA 17055-0 CUMBERLAND,5020 RITTER RD STE 110,MECHANICSBURG,,740626,,,5020 RITTER RD STE 110 MECHANICSBURG PA 17055-0 CUMBERLAND,
"COMMUNITY ARTS ALLIANCE, INC.",NONPROFIT,NAN,,,,PA,250 SOUTH BROAD STREET,PHILADELPHIA,,740627,,,250 SOUTH BROAD STREET PHILADELPHIA PA 19102-0 BUCKS,
SURGICAL ASSOCIATES RESEARCH AND EDUCATION FOUNDATION,NONPROFIT,PA,,,,,,,,740628,RALPH WETMORE,SECRETARY,"3401 CIVIC CENTER BLVD ABR 14TH FLR, OGC PHILADELPHIA PA 19104-0 PHILADELPHIA",3401 CIVIC CENTER BLVD ABR 14TH FLR-OCG PHILADELPHIA PA 19104
SWAMP DOG CLUB,NONPROFIT,PA,,,,PA,C/O JAMES METZLER R.D. #1 BOX 429,MOHNTON,,740630,,,C/O JAMES METZLER R.D. #1 BOX 429 MOHNTON PA 19540-0 BERKS,
"EASTWIND TRADING, INC.",CORPORATION,NAN,,,,,,,,740632,,,"PO BOX 405, KELLERS CHURCH RD PLUMSTEADVILLE PA 18949-0 BUCKS",
"WHITE ROSE SQUARES, INC.",NONPROFIT,NAN,,,,PA 17403-0 YORK,1232 E KING STREET,YORK,,740634,,,1232 E KING STREET YORK PA 17403-0 YORK,
"COMPLETE VIDEO SERVICES, INC.",CORPORATION,PA,,,,PA,222 MARKET ST,MIFFLINBURG,,740635,,,222 MARKET ST MIFFLINBURG PA 17844-0 UNION,
SENIOR AMERICANS CLUB INC.,NONPROFIT,NAN,,,,PA 15137-0 ALLEGHENY,1000 TAYLOR STREET,NORTH VERSAILLES,,740636,,,1000 TAYLOR STREET NORTH VERSAILLES PA 15137-0 ALLEGHENY,
CENTRE BAPTIST CHURCH OF STATE COLLEGE,NONPROFIT,NAN,,,,PA,1450 SOUTH ATHERTON STREET,STATE COLLEGE,16801-0,740637,,,1450 SOUTH ATHERTON STREET STATE COLLEGE PA 16801-0 CENTRE,
"WOMEN'S INTERNATIONAL TRADE ASSOCIATION, INC.",NONPROFIT,PA,,,,,,,,740638,,,C/O JAY INTERNATIONAL INC 403 LAFAYETTE BLDG PHILA PA 19106-0 PHILADELPHIA,
"PLATEAU TIMBER, INC.",CORPORATION,NAN,,,,PA,ROUTE 646,REW,16744-0,740639,,,ROUTE 646 REW PA 16744-0 MCKEAN,
PHILADELPHIA CHRISTIAN FELLOWSHIP,NONPROFIT,NAN,,,,PA 19118-0 MONTGOMERY,810 SOUTHAMPTON AVENUE,WYNDMOOR,,740640,,,810 SOUTHAMPTON AVENUE WYNDMOOR PA 19118-0 MONTGOMERY,
"PLATEAU HARDWOODS, INC.",CORPORATION,PA,,,,PA,ROUTE 646,REW,16744-0,740641,,,ROUTE 646 REW PA 16744-0 MCKEAN,
"AMERICAN REAL ESTATE ASSOCIATES, INC.",CORPORATION,DE,,,,,,,,740642,,,580 WEST GERMANTOWN PIKE PLYMOUTH MEETING PA 19462-0 MONTGOMERY,
"COUNTRY FORD, INC.",CORPORATION,DE,30 LAKEWOOD RD,GREENSBURG,,PA 19103-0 PHILADELPHIA,C/O C T CORPORATION SYSTEM 1635 MARKET STREET,PHILADELPHIA,,740643,MICHAEL F SHEARY,TREASURER,C/O C T CORPORATION SYSTEM 1635 MARKET STREET PHILADELPHIA PA 19103-0 PHILADELPHIA,30 LAKEWOOD RD GREENSBURG PA 15601-65
"LEAGUE FOR VISITING NURSE ASSOCIATION/HOME-HEALTH SERVICES, INC.",NONPROFIT,NAN,,,,PA 18704-0 LUZERNE,C/O 260 PIERCE ST,KINGSTON,,740644,,,C/O 260 PIERCE ST KINGSTON PA 18704-0 LUZERNE,
INDOCHINESE-AMERICAN COUNCIL,NONPROFIT,PA,,,,PA,4934-36 OLD YORK ROAD,PHILADELPHIA,19141,740645,,,4934-36 OLD YORK ROAD PHILADELPHIA PA 19141 PHILADELPHIA,
CEDAR GLEN HOMEOWNERS' ASSOCIATION,NONPROFIT,NAN,,,,PA,"C/O FERMAN LEX, INC. 19 MILYKO DRIVE",WASHINGTON CROSSING,,740646,,,"C/O FERMAN LEX, INC. 19 MILYKO DRIVE WASHINGTON CROSSING PA 18977-0 BUCKS",
"PENNSYLVANIA PROFESSIONAL CONSTABLES, INC.",NONPROFIT,NAN,,,,,,,,740647,,,C/O JEFFREY K SPRECHER ESQ. 4707 TENTH A VENUE TEMPLE PA 19560-0 BERKS,
MOUNT HOPE UNITED METHODIST CHURCH,NONPROFIT,PA,258 MT HOPE ROAD,SOUTH FORK,19014-1203,PA,882 CONCORD RD,ASTON,19014-1203,740648,RONALD RUSSELL,OTHER,882 CONCORD RD ASTON PA 19014-1203 DELAWARE,258 MT HOPE ROAD SOUTH FORK PA 15956
"AMERICAN SOCIETY OF PROFESSIONAL ESTIMATORS, THE GREATER LEHIGH VALLEY, CHAPTER NO. 41",NONPROFIT,NAN,,,,PA,C/O ALFRED M PARRY 46 CHERRY LANE,MACUNGIE,18062-0,740649,,,C/O ALFRED M PARRY 46 CHERRY LANE MACUNGIE PA 18062-0 LEHIGH,
MEDSTAR FOUNDATION,NONPROFIT,NAN,,,,PA,P O BOX 4402 SOUTH & AUBREY STS,ALLENTOWN,18105-0,740650,,,P O BOX 4402 SOUTH & AUBREY STS ALLENTOWN PA 18105-0 LEHIGH,
FREE ENTERPRISE EDUCATION FOUNDATION,NONPROFIT,NAN,,,,PA 17701-0 LYCOMING,"PO BOX 812, 416 PINE ST",WILLIAMSPORT,,740651,,,"PO BOX 812, 416 PINE ST WILLIAMSPORT PA 17701-0 LYCOMING",
CENTRAL CONVEYOR COMPANY,CORPORATION,TN,11154 WILDWOOD,OLIVE BRANCH,,,,,,740652,THOMAS SAWYER,TREASURER,123 SOUTH BROAD STREET C/O C T CORPORATI ON SYSTEM PHILADELPHIA PA 19109-0 PHILADELPHIA,11154 WILDWOOD OLIVE BRANCH MS 38654
U.S. COATING COMPANY,CORPORATION,PA,3805 KINGSLEY DR,HARRISBURG,,PA 19144-0 PHILADELPHIA,128 E TULPEHOCKEN ST,PHILADELPHIA,,740653,JERRY ARKIN,PRESIDENT,128 E TULPEHOCKEN ST PHILADELPHIA PA 19144-0 PHILADELPHIA,3805 KINGSLEY DR HARRISBURG PA 17110-1562
CREST SERVICES CORP.,CORPORATION,PA,,,,PA 19063-0 DELAWARE,218 W FRONT ST,MEDIA,,740654,,,218 W FRONT ST MEDIA PA 19063-0 DELAWARE,
"SALEM TUBE, INC.",CORPORATION,DE,C/O ANDAL CORP 560 LEXINGTON AVE,NEW YORK,,PA,225 SOUTH 15TH ST,PHILADELPHIA,,740655,MICHAEL HUBER,TREASURER,225 SOUTH 15TH ST PHILADELPHIA PA 0 -0 PHILADELPHIA,C/O ANDAL CORP 560 LEXINGTON AVE NEW YORK NY 10022
"TRIAD INDUSTRIES, INC.",CORPORATION,NAN,,,,PA 17401-0 YORK,1781 W MARKET ST,YORK,,740656,,,1781 W MARKET ST YORK PA 17401-0 YORK,
"PENNSYLVANIA BINGO CASINO, INC.",CORPORATION,NAN,,,,PA,1325 DEWEY ST,CONWAY,15027-0,740657,,,1325 DEWEY ST CONWAY PA 15027-0 BEAVER,
EARTH RESOURCES EXPLORATION & DEVELOPMENT CORP.,CORPORATION,OH,,,,PA,79 SOUTH LAKE STREET,ERIE,,740658,,,79 SOUTH LAKE STREET ERIE PA 16428-0 ERIE,
"ENERGY TECH, INC.",CORPORATION,NAN,,,,PA 15644-0 WESTMORELAND,"BOX 263A, RD#2",JEANNETTE,,740659,,,"BOX 263A, RD#2 JEANNETTE PA 15644-0 WESTMORELAND",
"EXPRESS COLOR PHOTO, INC.",CORPORATION,PA,343 MAIN ST,PENNSBURG,,PA,635 SKUNK HOLLOW ROAD,CHALFONT,,740660,TSUGIO HAMADA,PRESIDENT,635 SKUNK HOLLOW ROAD CHALFONT PA 18914-0 BUCKS,343 MAIN ST PENNSBURG PA 18073-46
"PENN SEAL, INC.",CORPORATION,PA,,,,,,,,740664,,,1550 UNITED ENGINEERS BLDG 30 S 17TH ST PHILADELPHIA PA 19103-0 PHILADELPHIA,
"MINI STORAGE INVESTMENTS, INC.",CORPORATION,MO,,,,PA 19114-0 PHILADELPHIA,2700 GRANT AVE,PHILADELPHIA,,740665,,,2700 GRANT AVE PHILADELPHIA PA 19114-0 PHILADELPHIA,
"CLARKE'S PUB, INC.",CORPORATION,NAN,C/O PETER J EICHENLAUBPO BOX 88,FEASTERVILLE,,PA 19124-0 PHILADELPHIA,5100 DITMAN STREET,PHILADELPHIA,,740667,WILLIAM E CLARKE,PRESIDENT,5100 DITMAN STREET PHILADELPHIA PA 19124-0 PHILADELPHIA,C/O PETER J EICHENLAUBPO BOX 88 FEASTERVILLE PA 19047-09
"PENNSYLVANIA TRUCK CENTERS, INC.",CORPORATION,PA,310 MIFFLIN DR,WRIGHTSVILLE,17368,PA,310 MIFFLIN DRIVE,WRIGHTSVILLE,17368,740668,RONALD G BOWMAN,SECRETARY,310 MIFFLIN DRIVE WRIGHTSVILLE PA 17368 YORK,310 MIFFLIN DR WRIGHTSVILLE PA 17368-9190
"RICK WEAVER BUICK, GMC, INC.",CORPORATION,DE,PO BOX 799,ERIE,,PA,714 W 12TH ST,ERIE,,740669,ANGES MILNE,TREASURER,714 W 12TH ST ERIE PA 16501-0 ERIE,PO BOX 799 ERIE PA 16512-0799
"20/20 VISIONS, INC.",CORPORATION,NAN,430 POTTSTOWN AVENUE,PENNSBURG,,PA 18041-0 MONTGOMERY,228 MAIN STREET EAST,GREENVILLE,,740670,STEVEN P EISS,VICEPRESIDENT,228 MAIN STREET EAST GREENVILLE PA 18041-0 MONTGOMERY,430 POTTSTOWN AVENUE PENNSBURG PA 18073-46
"P. A. FLOORS, INC.",CORPORATION,NAN,,,,PA 15317-0 WASHINGTON,231 BELMONT AVE,CANONSBURG,,740671,,,231 BELMONT AVE CANONSBURG PA 15317-0 WASHINGTON,
"ROYAL COMPANY AUCTIONEERS, INC.",CORPORATION,CA,,,,,,,,740672,,,"100 PINE STREET C/O PRENTICE-HALL CORPOR ATION SYSTEMS, INC. HARRISBURG PA 17108-0 DAUPHIN",
"BATTERY WORLD, LTD.",CORPORATION,NAN,C/O JOE FIEGLEMAN 1900 MTVIEW RD 409,CLARKS SUMMIT,,PA 18519-0 LACKAWANNA,347 MAIN AVE,DICKSON CITY,,740673,WILLARD L YATES,VICEPRESIDENT,347 MAIN AVE DICKSON CITY PA 18519-0 LACKAWANNA,C/O JOE FIEGLEMAN 1900 MTVIEW RD 409 CLARKS SUMMIT PA 18411-35
"DENTAL REFERRAL SERVICES, INC.",CORPORATION,MN,,,,,,,,740674,,,%CT CORPORATION SYSTEM PHILADELPHIA,
FIRST ABSTRACT CORPORATION,CORPORATION,NAN,,,,,,,,740675,,,SUITE 403 BANK TOWERS BLDG SCRANTON PA 18503-0 LACKAWANNA,
"GOLDEN PARACHUTE, INC.",CORPORATION,NAN,7805 HAINES ROAD,CHELTENHAM,,PA 19012-0 MONTGOMERY,7805 HAINES ROAD,CHELTENHAM,,740676,SAMUEL RICHMAN,VICEPRESIDENT,7805 HAINES ROAD CHELTENHAM PA 19012-0 MONTGOMERY,7805 HAINES ROAD CHELTENHAM PA 19012-46
"R.E.C.H., INC.",CORPORATION,PA,130 BRIDGE ST,TUNKHANNOCK,,PA 18657-0 WYOMING,BOX 37 130 BRIDGE STREET,TUNKHANNOCK,,740677,WILLIAM GUYETTE,TREASURER,BOX 37 130 BRIDGE STREET TUNKHANNOCK PA 18657-0 WYOMING,130 BRIDGE ST TUNKHANNOCK PA 18657-66
"THE COOKIEWORKS, INC.",CORPORATION,NAN,C/O D LOCKSHIN 20424 NE 16TH PL N,MIAMI BCH,,,,,,740679,MICHAEL GLICKSTEIN,VICEPRESIDENT,123 S BROAD ST C/O C T CORP SYSTEM PHILADELPHIA PA 19109-0 PHILADELPHIA,C/O D LOCKSHIN 20424 NE 16TH PL N MIAMI BCH FL 33179
"CEDAR PARK QUARTERS, INC.",CORPORATION,NAN,4926-28 BALTIMORE RD,PHILADELPHIA,,PA 19143-0 PHILADELPHIA,4926-28 BALTIMORE AVENUE,PHILADELPHIA,,740680,KAY FIELDS,TREASURER,4926-28 BALTIMORE AVENUE PHILADELPHIA PA 19143-0 PHILADELPHIA,4926-28 BALTIMORE RD PHILADELPHIA PA 19143-51
"FIELDS LEASING GROUP, INC.",CORPORATION,PA,,,,PA 19143-0 PHILADELPHIA,4926-28 BALTIMORE AVENUE,PHILADELPHIA,,740681,,,4926-28 BALTIMORE AVENUE PHILADELPHIA PA 19143-0 PHILADELPHIA,
"GCM ENTERPRISES, INC.",CORPORATION,PA,,,,PA 17744-0 LYCOMING,RD#1 BOX 407,LINDEN,,740682,,,RD#1 BOX 407 LINDEN PA 17744-0 LYCOMING,
"BREAST SCREENING CENTER, LIMITED",CORPORATION,PA,,,,PA 19103-0 PHILADELPHIA,255 SOUTH 17TH ST,PHILADELPHIA,,740683,,,255 SOUTH 17TH ST PHILADELPHIA PA 19103-0 PHILADELPHIA,
"C.D. BROTHERS, INC.",CORPORATION,PA,,,,,,,,740684,,,1528 WEST CHESTER PIKE WEST CHESTER PA 19380-0 CHESTER,
"STEEL CITY SOFTWARE, INC.",CORPORATION,PA,562 KELSO RD,PITTSBURGH,,PA 15243-0 ALLEGHENY,562 KELSO ROAD,PITTSBURGH,,740687,TERRANCE MILANI,SECRETARY,562 KELSO ROAD PITTSBURGH PA 15243-0 ALLEGHENY,562 KELSO RD PITTSBURGH PA 15243-1510
"D P SALES, INC.",CORPORATION,PA,C/O KELLY WELDE CO 510A ABBOTT DR,BROOMALL,,PA 19083-0 DELAWARE,316 OXFORD ROAD,HAVERTOWN,,740688,DONALD SANDMAN,PRESIDENT,316 OXFORD ROAD HAVERTOWN PA 19083-0 DELAWARE,C/O KELLY WELDE CO 510A ABBOTT DR BROOMALL PA 19008-23
"PATWIND, INC.",CORPORATION,NAN,,,,PA,PO BOX 637 (ROUTE 611),REVERE,,740689,,,PO BOX 637 (ROUTE 611) REVERE PA 18953-0 BUCKS,
"WILLIAM GREENBERG, P.C.",CORPORATION,NAN,6636 ROSEMOOR ST,PITTSBURGH,,PA 15217-0 ALLEGHENY,6636 ROSEMOOR STREET,PITTSBURGH,,740690,WILLIAM GREENBERG,PRESIDENT,6636 ROSEMOOR STREET PITTSBURGH PA 15217-0 ALLEGHENY,6636 ROSEMOOR ST PITTSBURGH PA 15217-02
"UNITED STEEL SERVICES, INC.",CORPORATION,NAN,,,,PA 15221-0 ALLEGHENY,1217 WOOD STREET,PITTSBURGH,,740692,,,1217 WOOD STREET PITTSBURGH PA 15221-0 ALLEGHENY,
"KEYSTONE INVESTMENT AND CONSULTANTS, INC.",CORPORATION,NAN,,,,PA,"RD 5, BOX 325",DUNCANSVILLE,,740693,,,"RD 5, BOX 325 DUNCANSVILLE PA 16635-0 BLAIR",
"BECAUSE YOU CARE, INC.",NONPROFIT,NAN,,,,PA,PO BOX 54 8726 BARON ROAD,MCKEAN,,740694,,,PO BOX 54 8726 BARON ROAD MCKEAN PA 16426-0 ERIE,
"PHYSICIAN STAFFING, INC.",CORPORATION,OH,,,,,,,,740695,,,%CT CORPORATION SYSTEM ALLEGHENY,
"D.C.M. TRANSPORT, INC.",CORPORATION,NAN,1080 LAKEWOOD DR,HARRISBURG,,PA 17109-0 DAUPHIN,1080 LAKEWOOD DRIVE,HARRISBURG,,740696,DENNIS WHITSEL,VICEPRESIDENT,1080 LAKEWOOD DRIVE HARRISBURG PA 17109-0 DAUPHIN,1080 LAKEWOOD DR HARRISBURG PA 17109-22
"L.T.D. MANUFACTURING, INC.",CORPORATION,NAN,PO BOX 748,MEADVILLE,,PA 16335-0 CRAWFORD,"R.D. #7, P O BOX 535",MEADVILLE,,740697,MICHAEL B LEECH,SECRETARY,"R.D. #7, P O BOX 535 MEADVILLE PA 16335-0 CRAWFORD",PO BOX 748 MEADVILLE PA 16335-6748
"TIRE ENERGY RECOVERY, INC.",CORPORATION,PA,,,,PA 19401-0 MONTGOMERY,504 EAST FORNANCE STREET,NORRISTOWN,,740698,,,504 EAST FORNANCE STREET NORRISTOWN PA 19401-0 MONTGOMERY,
EDWARD D. MURRAY INC.,CORPORATION,NAN,324 GRANDVIEW DR,SARVER,16055-0,PA,324 GRANDVIEW DRIVE,SARVER,16055-0,740699,EDWARD MURRAY,PRESIDENT,324 GRANDVIEW DRIVE SARVER PA 16055-0 BUTLER,324 GRANDVIEW DR SARVER PA 16055-10
"PARK LANE UNIFORM COMPANY, INC.",CORPORATION,NAN,C/O HARRY B DICHTER 8808 CHELTENHAM AVE,PHILADELPHIA,,PA,2379 COTTMAN AVE,PHILADELPHIA,,740700,IRA P DICHTER,PRESIDENT,2379 COTTMAN AVE PHILADELPHIA PA 0 -0 PHILADELPHIA,C/O HARRY B DICHTER 8808 CHELTENHAM AVE PHILADELPHIA PA 19118-51
FRIENDS OF THE STATE MUSEUM,NONPROFIT,NAN,,,,PA 17120-24 DAUPHIN,300 NORTH ST,HARRISBURG,,740702,,,300 NORTH ST HARRISBURG PA 17120-24 DAUPHIN,
"NORTH STAR EXPORTS, INC.",CORPORATION,NAN,,,,,,,,740704,,,3100 LEWIS TOWER BLDG PHILA PA 19102-0 PHILADELPHIA,
"MARK II ASSOCIATES, INC.",CORPORATION,PA,266 S 23RD ST,PHILADELPHIA,,,,,,740705,SAM AGRESTA,SECRETARY,3 PENN CENTER % MARTIN B PITKOW ESQ PHILADELPHIA PA 19102-0 PHILADELPHIA,266 S 23RD ST PHILADELPHIA PA 19103-2510
"VAN PELL LEASING, INC.",CORPORATION,NAN,,,,PA,91 EAST COURT ST,DOYLESTOWN,,740706,,,91 EAST COURT ST DOYLESTOWN PA 18901-0 BUCKS,
"PRODUCT SERVICES, INC.",NONPROFIT,PA,,,,PA 19464-0 MONTGOMERY,158 N HANOVER ST PO BOX 444,POTTSTOWN,,740707,,,158 N HANOVER ST PO BOX 444 POTTSTOWN PA 19464-0 MONTGOMERY,
"INSURANCE PLANNING SERVICES, INC.",CORPORATION,PA,C/O LEONARD FRANKEL 67 ROY LANE,HUNTINGDON VLY,,PA 19025-0 MONTGOMERY,715 TWINING RD,DRESHER,,740708,LEONARD FRANKEL,PRESIDENT,715 TWINING RD DRESHER PA 19025-0 MONTGOMERY,C/O LEONARD FRANKEL 67 ROY LANE HUNTINGDON VLY PA 19006-46
"NOVEL WORDS, INC.",CORPORATION,NAN,1032 SPRUCE ST,PHILADELPHIA,,PA 19107-0 PHILADELPHIA,1032 SPRUCE ST,PHILA,,740709,ELLANNA WILLIAMS,PRESIDENT,1032 SPRUCE ST PHILA PA 19107-0 PHILADELPHIA,1032 SPRUCE ST PHILADELPHIA PA 19107-51
THE BUY AMERICAN CAMPAIGN,NONPROFIT,PA,,,,PA 19033-0 DELAWARE,111 MCDADE BLVD APT A-9,FOLSOM,,740710,,,111 MCDADE BLVD APT A-9 FOLSOM PA 19033-0 DELAWARE,
"ENCORE THEATRE, INC.",NONPROFIT,NAN,,,,PA 18407-0 LACKAWANNA,20 SPRING ST,CARBONDALE,,740711,,,20 SPRING ST CARBONDALE PA 18407-0 LACKAWANNA,
KING DAVID MASONIC HALL ASSOCIATION,NONPROFIT,PA,,,,PA 18704-0 LUZERNE,386 TIOGA AVE,KINGSTON,,740712,,,386 TIOGA AVE KINGSTON PA 18704-0 LUZERNE,
"SOUTH MOUNTAIN ACTIVE CITIZENS NINETEEN, INC.",NONPROFIT,NAN,,,,,,,,740713,,,"ALLENTOWN CRIME PREVENTION BUREAU, HAMIL TON BLVD ALLENTOWN PA 18105-0 LEHIGH",
DOYLESTOWN COMMONS CONDOMINIUM OWNERS ASSOCIATION,NONPROFIT,NAN,,,,PA,5049 SWAMP ROAD % ASSOCIA MID-ATLANTIC SUITE 304,FOUNTAINVILLE,18923,740714,,,5049 SWAMP ROAD % ASSOCIA MID-ATLANTIC SUITE 304 FOUNTAINVILLE PA 18923 BUCKS,
LIVING WORD FELLOWSHIP OF PERRY COUNTY,NONPROFIT,NAN,,,,,,,,740715,,,R.D. 2 BOX 286A NEWPORT PA 17074-0 PERRY,
PENN HILLS BOCCE CLUB,NONPROFIT,NAN,,,,PA 15219-0 ALLEGHENY,1031 FIFTH AVE,PITTSBURGH,,740716,,,1031 FIFTH AVE PITTSBURGH PA 15219-0 ALLEGHENY,
"THE OLD CASINO HALL AND TEEN CENTER, INC.",NONPROFIT,NAN,,,,,,,,740717,,,116 GORDON AVE C/O M ANDREWS CARBONDALE PA 18407-0 LACKAWANNA,
PLYMOUTH RESCUE UNIT INCORPORATED,NONPROFIT,PA,,,,PA 18651-0 LUZERNE,24 GAYLORD AVE,PLYMOUTH,,740718,,,24 GAYLORD AVE PLYMOUTH PA 18651-0 LUZERNE,
"RONAELE CO., INC.",CORPORATION,NAN,,,,PA 19444-0 MONTGOMERY,"PO BOX 178, 665 THOMAS ROAD",LAFAYETTE HILL,,740719,,,"PO BOX 178, 665 THOMAS ROAD LAFAYETTE HILL PA 19444-0 MONTGOMERY",
FEDERAL STREET ASSOCIATES,PARTNERSHIP,NAN,,,,PA 15212-0 ALLEGHENY,848 WESTERN AVE,PITTSBURGH,,740720,WILLIAM JACOBY,GENPARTNER,848 WESTERN AVE PITTSBURGH PA 15212-0 ALLEGHENY,PA
"HUNTINGDON VALLEY SERVICE CO., INC.",CORPORATION,NAN,C/O JOS R DOMBROWSKI 283 LEEDOM WAY,NEWTOWN,,,,,,740721,THOMAS J FYNES,VICEPRESIDENT,1985 BYBERRY RD BUILDING D HUNTINGDON VALLEY PA 19006-0 MONTGOMERY,C/O JOS R DOMBROWSKI 283 LEEDOM WAY NEWTOWN PA 18940-09
BERNTURN CORP.,CORPORATION,DE,C/O TURNER 195 COUNTY RIDGE DR,RYEBROOK,,,,,,740722,STUART TURNER,VICEPRESIDENT,225 SOUTH 15TH STREET C/O RUDOLPH SEIDNE R GOLDSTEIN ETC PHILADELPHIA PA 19102-0 PHILADELPHIA,C/O TURNER 195 COUNTY RIDGE DR RYEBROOK NY 10573
STRAB HOTEL MANAGEMENT CORP.,CORPORATION,DE,195 COUNTRY RIDGE DR,PORT CHESTER,,,,,,740723,STUART TURNER,VICEPRESIDENT,225 SOUTH 15TH STREET C/O RUDOLPH SEIDNE R GOLDSTEIN ETC PHILADELPHIA PA 19102-0 PHILADELPHIA,195 COUNTRY RIDGE DR PORT CHESTER NY 10573
G.K. HOTEL MANAGEMENT CORP.,CORPORATION,DE,450 7TH AVE,PENTHOUSE NEW YORK,,PA 19102-0 PHILADELPHIA,225 SOUTH 15TH STREET,PHILADELPHIA,,740724,GEORGE KAUFMAN,TREASURER,225 SOUTH 15TH STREET PHILADELPHIA PA 19102-0 PHILADELPHIA,450 7TH AVE PENTHOUSE NEW YORK NY 10001
"TOLLMAN-HUNDLEY PHILADELPHIA, INC.",CORPORATION,NY,,,,,,,,740725,,,225 SOUTH 15TH STREET C/O RODOLPH SEIDNE R GOLDSTEIN ETC PHILADELPHIA PA 19102-0 PHILADELPHIA,
CATARACT TRUCK & CAR RENTAL CORP.,CORPORATION,NY,,,,,,,,740726,,,123 SOUTH BROAD STREET C/O C T CORPORATI ON SYSTEM PHILADELPHIA PA 19109-0 PHILADELPHIA,
GEO SECURITIES CORP.,CORPORATION,TX,,,,,,,,740727,,,123 SOUTH BROAD STREET C/O C T CORPORATI ON SYSTEM PHILADELPHIA PA 19109-0 PHILADELPHIA,
"NESHAMINY VALLEY INFORMATION PROCESSING, INC.",CORPORATION,DE,26TH FLR 123 N WACKER DR,CHICAGO,,PA 19103-0 PHILADELPHIA,C/O C T CORPORATION SYSTEM 1635 MARKET STREET,PHILADELPHIA,,740728,RAYMOND I SKILLING,SECRETARY,C/O C T CORPORATION SYSTEM 1635 MARKET STREET PHILADELPHIA PA 19103-0 PHILADELPHIA,26TH FLR 123 N WACKER DR CHICAGO IL 60606
MARION LIMITED PARTNERS,PARTNERSHIP,PA,,,,PA 15238-0 ALLEGHENY,114 WILMAR DRIVE,PITTSBURGH,,740729,"BILL W WILCOCK, ET AL",GENPARTNER,114 WILMAR DRIVE PITTSBURGH PA 15238-0 ALLEGHENY,PA
BRANDYWINE PROPERTIES LIMITED,PARTNERSHIP,PA,,,,PA 19380-0 CHESTER,800 AIRPORT RD,WEST CHESTER,,740730,WILLIAM B WILSON,GENPARTNER,800 AIRPORT RD WEST CHESTER PA 19380-0 CHESTER,PA
INVESTMENT GROUP I,PARTNERSHIP,PA,,,,PA 15101-0 ALLEGHENY,1818 FOXCROFT LN #801,ALLISON PARK,,740732,JOHN F MCGINTY ET AL,GENPARTNER,1818 FOXCROFT LN #801 ALLISON PARK PA 15101-0 ALLEGHENY,PA
"H & M LACHEEN, INC.",CORPORATION,PA,2401 PENNA AVENUE APT 14 B25,PHILADELPHIA,,PA 33484-0 PHILADELPHIA,5759 PHOENIX COURT,DELRAY BEACH,,740733,NANETTE LACHEEN,PRESIDENT,5759 PHOENIX COURT DELRAY BEACH PA 33484-0 PHILADELPHIA,2401 PENNA AVENUE APT 14 B25 PHILADELPHIA PA 19130-51
IRA J. HELLER D.D.S.,CORPORATION,NAN,1106 CARLISLE RDBOX 174,CAMP HILL,,PA 17011-0 CUMBERLAND,CEDAR CLIFF MALL PO BOX 174,CAMP HILL,,740734,IRA J HELLER,PRESIDENT,CEDAR CLIFF MALL PO BOX 174 CAMP HILL PA 17011-0 CUMBERLAND,1106 CARLISLE RDBOX 174 CAMP HILL PA 17011-6213
"BACHMANN INDUSTRIES, INC.",CORPORATION,PA,1400 E ERIE AVE,PHILADELPHIA,,PA 19124-0 PHILADELPHIA,1400 EAST ERIE AVE,PHILADELPHIA,,740736,KENNETH TING,PRESIDENT,1400 EAST ERIE AVE PHILADELPHIA PA 19124-0 PHILADELPHIA,1400 E ERIE AVE PHILADELPHIA PA 19124-51
"JAYROB, INC.",CORPORATION,NAN,4076 W TILDEN RD,HARRISBURG,,PA 17112-0 DAUPHIN,4076 W TILDEN RD,HARRISBURG,,740737,MARC BERGER,PRESIDENT,4076 W TILDEN RD HARRISBURG PA 17112-0 DAUPHIN,4076 W TILDEN RD HARRISBURG PA 17112-22
"PETER ANTHONY, INC.",CORPORATION,PA,36 CASWALLEN DR,WEST CHESTER,,,,,,740738,PETER A BERARDI,PRESIDENT,36 CASWALLEN DR WEST CHESTER PA 19380-0 CHESTER,36 CASWALLEN DR WEST CHESTER PA 19380
"SUMMIT CLEANERS, INC.",CORPORATION,NAN,,,,,,,,740739,,,C/O SUITE 301 BLUE BELL WEST 650 SKIPPAC K PIKE BLUE BELL PA 19422-0 MONTGOMERY,
"PINCUS, REICH, HAHN, DUBROFF & GANZ, P.C.",CORPORATION,NAN,C/O FREEDMAN & ADELMAN345 N YORK RD,HATBORO,,,,,,740740,JERRY ZASLOW,SECRETARY,731 WYNNEWOOD RD APT 37 WALNUT HILL ATTN: ALLEN DUBROFF ARDMORE PA 19003-0 MONTGOMERY,C/O FREEDMAN & ADELMAN345 N YORK RD HATBORO PA 19040-46
CARLISLE STREET DEVELOPMENT CORPORATION,CORPORATION,NAN,34 LOCUST ST,GETTYSBURG,,PA,34 LOCUST AVE,GETTYSBURG,,740741,RONALD E PACK,PRESIDENT,34 LOCUST AVE GETTYSBURG PA 17325-0 ADAMS,34 LOCUST ST GETTYSBURG PA 17325-01
"WESTMORELAND GASTROENTEROLOGY ASSOCIATES, P.C.",CORPORATION,PA,532 W PITTSBURGH ST,GREENSBURG,,PA 15601-0 WESTMORELAND,545 RUGH ST,GREENSBURG,,740743,THOMAS L SOCHACKI,TREASURER,545 RUGH ST GREENSBURG PA 15601-0 WESTMORELAND,532 W PITTSBURGH ST GREENSBURG PA 15601-2239
"OIL, GAS, COAL INDUSTRIES, INC.",CORPORATION,NAN,,,,PA,652 WEST PARK ST,HONESDALE,,740744,,,652 WEST PARK ST HONESDALE PA 18431-0 WAYNE,
"SKIPPACK BEVERAGE COMPANY, INC.",CORPORATION,PA,1120 BRIDGE RD BOX 177,CREAMERY,,PA 19474-0 MONTGOMERY,ROUTE 113 & ROUTE 73,SKIPPACK,,740745,JEFFREY S WHEELIN,PRESIDENT,ROUTE 113 & ROUTE 73 SKIPPACK PA 19474-0 MONTGOMERY,1120 BRIDGE RD BOX 177 CREAMERY PA 19430-46
"WINTERSFARM, INC.",CORPORATION,NAN,,,,PA 19107-0 PHILADELPHIA,C/O WISSOW & ODZA 21 S 12TH ST (4TH FLR. ),PHILA,,740746,,,C/O WISSOW & ODZA 21 S 12TH ST (4TH FLR. ) PHILA PA 19107-0 PHILADELPHIA,
"R. K. STRONG ASSOCIATES, INC.",CORPORATION,NAN,728 LINCOLN HGWY,EXTON,,PA 19301-0 CHESTER,209 LANCASTER AVE,PAOLI,,740747,STANLEY I COSTELLO JR,VICEPRESIDENT,209 LANCASTER AVE PAOLI PA 19301-0 CHESTER,728 LINCOLN HGWY EXTON PA 19341
"THOMAS, C. A. CO., INC.",CORPORATION,NAN,,,,PA 19013-0 CHESTER,2341 IRVINGTON PL,CHESTER,,740748,,,2341 IRVINGTON PL CHESTER PA 19013-0 CHESTER,
"SAV-WAY SUPERMARKETS OF GLENOLDEN, INC.",CORPORATION,NAN,,,,PA 19036-0 DELAWARE,1057 CEDARWOOD AVENUE,GLENOLDEN,,740750,,,1057 CEDARWOOD AVENUE GLENOLDEN PA 19036-0 DELAWARE,
"BLUE RIDGE ENERGY, INC.",CORPORATION,NAN,C/O DONALD E STOOPS 14177 ANTHONY HWY,WAYNESBORO,,PA 17268-0 FRANKLIN,220 SOUTH POTOMAC STREET,WAYNESBORO,,740751,DONALD STOOPS,TREASURER,220 SOUTH POTOMAC STREET WAYNESBORO PA 17268-0 FRANKLIN,C/O DONALD E STOOPS 14177 ANTHONY HWY WAYNESBORO PA 17268-28
"ADVANCE MAINTENANCE ENTERPRISES, INC.",CORPORATION,NAN,,,,PA 17522-0 LANCASTER,328 W. MAIN STREET,EPHRATA,,740752,,,328 W. MAIN STREET EPHRATA PA 17522-0 LANCASTER,
SUNRAY DEVELOPMENT CORPORATION,CORPORATION,PA,,,,,,,,740754,,,7TH FLOOR AMERICAN BANK BLDG POTTSVILLE PA 17901-0 SCHUYLKILL,
"FURFARI'S SOFT PRETZEL BAKERY, INC.",CORPORATION,NAN,,,,PA,2023-29 FRANKFORD AVENUE,PHILADELPHIA,,740755,,,2023-29 FRANKFORD AVENUE PHILADELPHIA PA 0 -0 PHILADELPHIA,
"YELWATT FOREIGN AUTO PARTS, INC.",CORPORATION,NAN,,,,,,,,740756,,,STAR ROUTE 1 BOX 108 ROUTE 590 HAWLEY PA 18428-0 WAYNE,
"WALEBE LAND AND CATTLE MANAGEMENT COMPANY, INC.",CORPORATION,NAN,,,,PA 19426-0 MONTGOMERY,POST OFFICE BOX 128 HOPWOOD ROAD,COLLEGEVILLE,,740757,,,POST OFFICE BOX 128 HOPWOOD ROAD COLLEGEVILLE PA 19426-0 MONTGOMERY,
REINCO INC.,CORPORATION,PA,,,,PA 19116-0 PHILADELPHIA,1852 MERLIN ROAD,PHILADELPHIA,,740758,,,1852 MERLIN ROAD PHILADELPHIA PA 19116-0 PHILADELPHIA,
"VEG-PAC, INC.",CORPORATION,NAN,C/O RICHARD FELDMAN 138 VICTOR AVE,LAUREL SPRIN,,PA 19133-0 PHILADELPHIA,2235 N. AMERICAN STREET,PHILADELPHIA,,740759,RICHARD FELDMAN,SECRETARY,2235 N. AMERICAN STREET PHILADELPHIA PA 19133-0 PHILADELPHIA,C/O RICHARD FELDMAN 138 VICTOR AVE LAUREL SPRIN NJ 08021
FRANKLIN ESTATES SERVICE CORPORATION,CORPORATION,NAN,STE 506A MCKNIGHT PARK DR,PITTSBURGH,,PA 15237-0 ALLEGHENY,3471 BABCOCK BLVD,PITTSBURGH,,740760,RICHARD A BECK,PRESIDENT,3471 BABCOCK BLVD PITTSBURGH PA 15237-0 ALLEGHENY,STE 506A MCKNIGHT PARK DR PITTSBURGH PA 15237-02
"TELEWORLD COMMUNICATIONS, INC.",CORPORATION,NAN,,,,PA 19001-0 MONTGOMERY,2121 RUSH ROAD,ABINGTON,,740761,,,2121 RUSH ROAD ABINGTON PA 19001-0 MONTGOMERY,
NAMMO POCAL INC.,CORPORATION,PA,100 ELECTRIC ST,SCRANTON,,,,,,740762,GARY GOODWIN,PRESIDENT,%CT CORPORATION SYSTEM DAUPHIN,100 ELECTRIC ST SCRANTON PA 18509-1804
"AMANN'S TAVERN, INC.",CORPORATION,NAN,1027 GARFIELD AVE,C/O PHILIP C AMANN GLENSIDE,,PA 19111-0 PHILADELPHIA,6525 RISING SUN AVENUE,PHILADELPHIA,,740763,PHILIP C AMANN,TREASURER,6525 RISING SUN AVENUE PHILADELPHIA PA 19111-0 PHILADELPHIA,1027 GARFIELD AVE C/O PHILIP C AMANN GLENSIDE PA 19038-46
"VIDEOWORKS PRODUCTIONS, INC.",CORPORATION,PA,,,,PA 16335-0 CRAWFORD,KEYSTONE BLDG 865 MARKET ST,MEADVILLE,,740764,,,KEYSTONE BLDG 865 MARKET ST MEADVILLE PA 16335-0 CRAWFORD,
"PROCESSING PLUS, INC.",CORPORATION,PA,,,,PA,59 BROOKSIDE ROAD SUITE 110,WESCOSVILLE,18106-0,740765,,,59 BROOKSIDE ROAD SUITE 110 WESCOSVILLE PA 18106-0 LEHIGH,
LEPRECHAUN LAUNDRY LIMITED,CORPORATION,PA,,,,PA,P O BOX 274 ROUTE 209,BRODHEADSVILLE,18322-0,740766,,,P O BOX 274 ROUTE 209 BRODHEADSVILLE PA 18322-0 MONROE,
"BLUE EAGLE COURIER, INC.",CORPORATION,NAN,1414 CALCON HOOK RD,SHARON HILL,,PA 19145-0 PHILADELPHIA,1610 JACKSON STREET,PHILADELPHIA,,740769,FRANK SPEZIALE,PRESIDENT,1610 JACKSON STREET PHILADELPHIA PA 19145-0 PHILADELPHIA,1414 CALCON HOOK RD SHARON HILL PA 19079-23
"PAPPAGALLO'S II PIZZA RESTAURANT, INC.",CORPORATION,NAN,,,,PA 19114-0 PHILADELPHIA,11914 STEVENS ROAD,PHILADELPHIA,,740770,,,11914 STEVENS ROAD PHILADELPHIA PA 19114-0 PHILADELPHIA,
"DANDY LION, LTD.",CORPORATION,PA,C/O SALLY STROUCE 2902 GREENBRIAR LN,ALLENTOWN,,,,,,740771,SALLIE STROUCE,TREASURER,"C/O BUTZ HUDDERS & TALLMAN, 740 HAMILTON MALL ALLENTOWN PA 18101-0 LEHIGH",C/O SALLY STROUCE 2902 GREENBRIAR LN ALLENTOWN PA 18103-39
"JOHN DE NOFA & SONS, INC.",CORPORATION,PA,7023 GILLESPIE ST,PHILADELPHIA,,PA 19135-0 PHILADELPHIA,7023 GILLESPIE STREET,PHILADELPHIA,,740772,JOHN DENOFA,PRESIDENT,7023 GILLESPIE STREET PHILADELPHIA PA 19135-0 PHILADELPHIA,7023 GILLESPIE ST PHILADELPHIA PA 19135-51
"NEW PHILLY, INC.",CORPORATION,NAN,,,,PA 19149-0 PHILADELPHIA,7133 RUTLAND ST,PHILADELPHIA,,740773,,,7133 RUTLAND ST PHILADELPHIA PA 19149-0 PHILADELPHIA,
ACE SEWING MACHINE COMPANY,CORPORATION,PA,,,,PA 19106-0 PHILADELPHIA,209 NORTH 3RD STREET,PHILADELPHIA,,740774,,,209 NORTH 3RD STREET PHILADELPHIA PA 19106-0 PHILADELPHIA,
WAREHOUSE AMERICA INCORPORATED,CORPORATION,PA,,,,PA,2385 KINNEY ROAD,GENESEE,16923,740775,,,2385 KINNEY ROAD GENESEE PA 16923 POTTER,
"WIRING BY WALL, INC.",CORPORATION,NAN,1450 MAIN ST,SHOEMAKERSVILLE,19555,PA,1450 MAIN STREET,SHOEMAKERSVILLE,19555,740777,WILLIAM SNYDER,TREASURER,1450 MAIN STREET SHOEMAKERSVILLE PA 19555 BERKS,1450 MAIN ST SHOEMAKERSVILLE PA 19555-9644
"RICHLAND NAUTILUS FITNESS CENTER, INC.",CORPORATION,PA,,,,,,,,740778,,,RICHLAND MALL JOHNSTOWN PA 15904-0 CAMBRIA,
"SCHRINER AND COLEMAN, INC.",CORPORATION,NAN,R D 1,WILLIAMSPORT,,PA 17703-0 LYCOMING,R.D. 1,WILLIAMSPORT,,740779,JACK COLEMAN,TREASURER,R.D. 1 WILLIAMSPORT PA 17703-0 LYCOMING,R D 1 WILLIAMSPORT PA 17701-41
"FALK, ARNOLD J. P.C.",CORPORATION,NAN,C/O JANET FALK 60 N 2ND ST BOX 818,EASTON,,PA 18042-0 NORTHAMPTON,60 N 2ND ST PO BOX 818,EASTON,,740780,ARNOLD J FALK,SECRETARY,60 N 2ND ST PO BOX 818 EASTON PA 18042-0 NORTHAMPTON,C/O JANET FALK 60 N 2ND ST BOX 818 EASTON PA 18042-48
HARTFORD SPECIALTY COMPANY,CORPORATION,DE,ONE,HARTFORD,,,,,,740782,ROBERT W PAIANO,TREASURER,%CORPORATION SERVICE COMPANY DAUPHIN,ONE HARTFORD PLAZA HARTFORD CT 06155
"VINCENT D. CARACCIOLO CONTRACTOR, INC.",CORPORATION,NAN,,,,PA,1704 - 3RD AVENUE 1ST FLOOR,ALTOONA,,740783,,,1704 - 3RD AVENUE 1ST FLOOR ALTOONA PA 16602-0 BLAIR,
TINA COMPANY,PARTNERSHIP,NAN,,,,PA 19130-0 PHILADELPHIA,2333 PENNA AVE,PHILADELPHIA,,740784,SANDER L FIELD ET AL,GENPARTNER,2333 PENNA AVE PHILADELPHIA PA 19130-0 PHILADELPHIA,PA
"BARNSTEAD AND SIRIANNI INDUSTRIAL, INC.",CORPORATION,NAN,,,,PA 19002-0 MONTGOMERY,1700 HOLMES RD,MAPLE GLEN,,740785,,,1700 HOLMES RD MAPLE GLEN PA 19002-0 MONTGOMERY,
THE FREEZE CORPORATION,CORPORATION,NAN,PO BOX 1533,SPRINGFIELD,,PA 17013-0 CUMBERLAND,519 BOSLER AVE,CARLISLE,,740786,JAMES FREEZE,VICEPRESIDENT,519 BOSLER AVE CARLISLE PA 17013-0 CUMBERLAND,PO BOX 1533 SPRINGFIELD VA 22151-0533
"HY CARB EASTERN, INC.",CORPORATION,NAN,530 OLD FRANKSTOWN RD,MONROEVILLE,,PA 15146-0 ALLEGHENY,530 OLD FRANKTOWN RD,MONROEVILLE,,740787,TIMOTHY TASSICK,VICEPRESIDENT,530 OLD FRANKTOWN RD MONROEVILLE PA 15146-0 ALLEGHENY,530 OLD FRANKSTOWN RD MONROEVILLE PA 15146-02
THE HOPKINSON FAMILY PARTNERSHIP,PARTNERSHIP,PA,,,,PA 19035-0 MONTGOMERY,1145 GINKGO LN,GLADWYNE,,740788,MARK HOPKINSON ET AL,GENPARTNER,1145 GINKGO LN GLADWYNE PA 19035-0 MONTGOMERY,PA
"OLNEY EAGLES YOUTH ORGANIZATION, INC.",NONPROFIT,NAN,,,,PA 19124-0 PHILADELPHIA,1116 OVERINGTON ST,PHILADELPHIA,,740789,,,1116 OVERINGTON ST PHILADELPHIA PA 19124-0 PHILADELPHIA,
GARRY BROS. COAL COMPANY,CORPORATION,NAN,1565 N PASEO,CERCA GREEN VALLEY,16037-0,PA,"458 S LIBERTY ST., BOX 161",HARMONY,16037-0,740790,RANDY HOUSEHOLDER,PRESIDENT,"458 S LIBERTY ST., BOX 161 HARMONY PA 16037-0 BUTLER",1565 N PASEO CERCA GREEN VALLEY AZ 85614
