name,city,state,address,category
ANTHONY ELEMENTARY,MONDOVI,WI,S12115 STATE HWY 37,MIDDLE
123 YOU N ME PRESCHOOL,PEORIA,IL,809 W DETWEILLER DR STE A,MIDDLE
138TH STREET,HAWTHORNE,CA,5403 WEST 138TH ST.,MIDDLE
ANTHONY J. INFANTE SCHOOL,JERSEY CITY,NJ,3055 KENNEDY BLVD,MIDDLE
1408 S. GOLIAD ST.,ROCKWALL,TX,1408 S GOLIAD ST,MIDDLE
1ST BAPTIST CHURCH PRESCHOOL,WARREN,AR,310 S MAIN ST,MIDDLE
1ST CEREBRAL PALSY OF NJ,BELLEVILLE,NJ,7 SANFORD AVE,MIDDLE
1ST CLASS MONTESSORI,CORDOVA,TN,1725 APPLING RD,MIDDLE
1ST UNITED METHODIST PRESCHOOL & KINDERGARTEN,ROCKY MOUNT,NC,100 S CHURCH ST,MIDDLE
21 CENTURY STEM ACADEMY,DECATUR,GA,1549 CLAIRMONT RD STE 103,MIDDLE
21ST CENTURY ACADEMY,HOPKINSVILLE,KY,210 GLASS AVE,MIDDLE
ANTIOCH ADULT,ANTIOCH,CA,820 WEST SECOND ST.,MIDDLE
ANTIOCH BAPTIST CHRISTIAN ACADEMY,KNOXVILLE,TN,5709 N BROADWAY ST,MIDDLE
ANTIOCH CHRISTIAN ACADEMY,ANTIOCH,CA,1509 MONTEREY DR,MIDDLE
ANTIOCH CHRISTIAN ACADEMY,OKLAHOMA CITY,OK,3616 SW 119TH ST,MIDDLE
2450 CHILDCARE INC DBA HAPPY DAYS CHILDCARE,HIGHLAND,IN,2645 MAIN ST,MIDDLE
247 LEARNING ACADEMY,ORLANDO,FL,7015 OAKMORE LN,MIDDLE
ANTIOCH SCHOOL,FALL RIVER,MA,618 ROCK ST,MIDDLE
2ND NATURE ACADEMY,NASHUA,NH,10 GROTON RD,MIDDLE
3 R COMMUNITY DAY,NEVADA CITY,CA,13061 NEVADA CITY HWY.,MIDDLE
ANTON P E P,MORTON,TX,500 CHAMPION DR,MIDDLE
3088 E 800 N,BRYANT,IN,9585 S 150 E,MIDDLE
3RD H S,WYLIE,TX,951 S BALLARD,MIDDLE
4 OUR KIDS LEARNING ACADEMY,BAYTOWN,TX,7625 GARTH RD,MIDDLE
40 SYLVAN PETERSHEIM,ELIZABETHVILLE,PA,451 RAKERS MILL RD,MIDDLE
4POINTS ACADEMY,AUSTIN,TX,"5145 RANCH RD 620 NORTH, STE G-130",MIDDLE
565 ACADEMY,TOLEDO,OH,3700 DORR ST,MIDDLE
601 SCHOOL,SAN BERNARDINO,CA,1472 E SIXTH ST.,MIDDLE
63RD ST MULTICULTURAL ACAD OF ACADEMIC EXCELLENCE,PHILADELPHIA,PA,5828 MARKET ST,MIDDLE
ANTONIA SAEZ,HUMACAO,PR,CALLE FONT MARTELO ESQUINA ROOSEVELT,MIDDLE
72 E W 7,ORLANDO,FL,445 W AMELIA ST,MIDDLE
ANTONIO PAGAN,LAJAS,PR,CARR 316 KM 1 HM 4 BO CANDELARIA,MIDDLE
ANTONIO RIVERA,COROZAL,PR,CARR 802 KM O HM 5 BO PALMARITO,MIDDLE
ANTONIO S PAOLI (MUSICA),CAGUAS,PR,AVE JOSE VILLARES ESQ RAFAEL CORDERO,MIDDLE
ANTRIM MENNONITE SCHOOL,FREEPORT,OH,20360 CADIZ RD,MIDDLE
7TH H S - NORTHEAST,ROUND ROCK,TX,1311 ROUND ROCK AVE,MIDDLE
9 FRUITS LEARNING CENTER,MOUNTAIN VIEW,CA,2484 OLD MIDDLE FIELD WAY,MIDDLE
ANZA ELEMENTARY,SAN FRANCISCO,CA,40 VEGA ST.,MIDDLE
ANZA VALLEY CHRISTIAN SCHOOL,ANZA,CA,39200 ROLLING HILLS RD,MIDDLE
AOC-GRAHAM COUNTY JUVENILE DETENTION CENTER,SAFFORD,AZ,919 THATCHER,MIDDLE
91ST PSALM CHRISTIAN SCHOOL,PHOENIX,AZ,2020 E BASELINE RD,MIDDLE
9THBRIDGE SCHOOL,LAS VEGAS,NV,310 S 9TH ST,MIDDLE
A B C LITTLE SCHOOL,VAN NUYS,CA,6447 WOODMAN AVE,MIDDLE
A BETTER CHANCE SCHOOL/CAL AUTISM FOUNDATION,RICHMOND,CA,4138 LAKESIDE DR,MIDDLE
A BOOKS CHRISTIAN ACADEMY,APOPKA,FL,1001 ROGER WILLIAMS RD,MIDDLE
A CARING TOUCH CHRISTIAN FAMILY CENTER,PALMDALE,CA,3035 E AVE S,MIDDLE
A CHILD S PLACE,BALTIMORE,MD,4701 N CHARLES ST,MIDDLE
A CHILD S PLACE SCHOOL,LINCROFT,NJ,1409 W FRONT ST,MIDDLE
A CHILD'S CHOICE MONTESSORI SCHOOL,BETHLEHEM,PA,402 3RD AVE,MIDDLE
A CHILD'S CHOICE MONTESSORI SCHOOL,MERIDIAN,ID,1797 S MILLENIUM WAY,MIDDLE
APEX FRIENDSHIP MIDDLE,APEX,NC,7801 HUMIE OLIVE RD,MIDDLE
A CHILD'S GARDEN,BEND,OR,2150 NE STUDIO RD STE 1,MIDDLE
A CHILD'S PLACE DAY SCHOOL,EAST ELMHURST,NY,32-20 108TH ST,MIDDLE
A CHILD'S TOUCH,THORNTON,CO,9141 POZE BLVD,MIDDLE
APHASIC CLASSES,CAPITOLA,CA,504 MONTEREY AVE.,MIDDLE
APHASIC/BROOK KNOLL,SCOTTS VALLEY,CA,150 TREE TOP DR.,MIDDLE
A CHILDREN'S HABITAT MONTESSORI SCHOOL,INDIANAPOLIS,IN,801 W 73RD ST,MIDDLE
A CHILDRENS PLACE LEARNING CENTER,ALLENTOWN,PA,719 ROBLE RD,MIDDLE
A CHILDS GARDEN MONTESSORI SCHOOL,CARROLLTON,TX,1935 OLD DENTON RD,MIDDLE
A CHILDS PLACE TOO,EAST ELMHURST,NY,3220 108TH ST,MIDDLE
A CHILDS UNIVERSITY,CRANSTON,RI,695 PARK AVE,MIDDLE
A CHILDS WORLD,DOYLESTOWN,PA,2001 S EASTON RD,MIDDLE
A CHILDS WORLD,NEWTOWN,PA,2147 S EAGLE RD,MIDDLE
APOLLO,CHANNELVIEW,TX,1019 DELL DALE,MIDDLE
A COUNTRY GARDEN MONTESSORI,ENUMCLAW,WA,38722 264TH AVE SE,MIDDLE
A DARE TO CARE LEARNING CENTER,CULVER CITY,CA,4356 OVERLAND AVE,MIDDLE
A DIFFERENT WORLD ACADEMY,GRETNA,LA,141 BELLEMEADE BLVD,MIDDLE
A ENGLISH LANGUAGE SCHOOL,EAST LANSING,MI,1120 S HARRISON RD,MIDDLE
A G DAY CARE LEARNING CENTER,MIAMI,FL,2123 W FLAGLER ST,MIDDLE
APOLLO JUNIOR HIGH,ANAHEIM,CA,1301 SOUTH KNOTT AVE.,MIDDLE
A GROWING PLACE MONTESSORI,SAINT LOUIS,MO,7001 FORSYTH BLVD,MIDDLE
A HABITAT FOR LEARNING,ABILENE,TX,3242 BELTWAY S,MIDDLE
APOLONIA VALENTIN (FELICIA),SANTA ISABEL,PR,CALLE LUIS MU?OZ RIVERA,MIDDLE
APOPKA CHRISTIAN ACADEMY,APOPKA,FL,509 S PARK AVE,MIDDLE
APOSTLES LUTHERAN SCHOOL,SAN JOSE,CA,5828 SANTA TERESA BLVD,MIDDLE
A KID'S PLACE,LEESBURG,VA,248 LOUDOUN ST SW,MIDDLE
APOSTOLIC BIBLE INSTITUTE CHRISTIAN ACADEMY,OAKDALE,MN,6944 HUDSON BLVD,MIDDLE
APOSTOLIC CHRISTIAN ACADEMY,MARYVILLE,TN,1723 WILLIAM BLOUNT DR,MIDDLE
A L HAGEN JUNIOR HIGH SCHOOL,DICKINSON,ND,402 4TH ST W,MIDDLE
APOSTOLIC CHRISTIAN ACADEMY,NORTH VERNON,IN,710 E COUNTY ROAD 160 N,MIDDLE
APOSTOLIC CHRISTIAN ACADEMY,OPELOUSAS,LA,637 MELANCON ST,MIDDLE
APOSTOLIC CHRISTIAN ACADEMY,SOMERSET,PA,141 FORWARD BLVD,MIDDLE
APOSTOLIC CHRISTIAN SCHOOL,KNOXVILLE,TN,5020 PLEASANT RIDGE RD,MIDDLE
APOSTOLIC CHRISTIAN SCHOOL,SHELBYVILLE,IN,1500 MILLER AVE,MIDDLE
APOSTOLIC INSTIT OF MISSOURI,DIGGINS,MO,3710 NORMANDY RD,MIDDLE
APOSTOLIC LIGHTHOUSE CHRISTIAN SCHOOL,SILER CITY,NC,701 N 2ND AVE,MIDDLE
APOSTOLIC PRAISE CHRISTIAN ACADEMY,DIXON,NM,JCT 75 CTY RD 0063 #8,MIDDLE
APOSTOLIC REVIVAL CENTER CHRISTIAN SCHOOL,FORT MYERS,FL,2100 BARDEN ST,MIDDLE
"APOSTOLIC WORSHOP CHILD DEVELOPMENT, INC.",ORLANDO,FL,8001 SILVER STAR RD,MIDDLE
APPALACHIA ELEMENTARY,APPALACHIA,VA,3965 KENT JUNCTION ROAD,MIDDLE
A LEARNING DAY CARE CENTER,HOMESTEAD,FL,17 NE 1ST RD,MIDDLE
APPALACHIAN  SCHOOL,ONEONTA,AL,350 COUNTY HIGHWAY 12,MIDDLE
APPALACHIAN CHRISTIAN ACADEMY,MANCHESTER,KY,168 SDA SCHOOL RD,MIDDLE
A MOTHER'S TOUCH CREATIVE LEARNING CENTER,ARLINGTON HEIGHTS,IL,125 N DRYDEN AVE,MIDDLE
A MOTHERS TOUCH LEARNING ACADEMY,DES PLAINES,IL,1666 RAND RD,MIDDLE
A NEW WORLD OF MONTESSORI,DANVILLE,CA,101 SONORA AVE,MIDDLE
A PERFECT PLACE 4 KIDZ,MIAMI GARDENS,FL,18441 NW 2ND AVE STE 112,MIDDLE
A PHILIP RANDOLPH TECHNICAL HIGH SCHOOL,DETROIT,MI,17101 HUBBELL ST,MIDDLE
APPLE ACADEMY CHARTER PUBLIC,LOS ANGELES,CA,4920 S. W.ERN AVE.,MIDDLE
A PLACE TO GROW,OJAI,CA,414 E. OJAI AVE.,MIDDLE
A PLUS LEARNING ACADEMY,LAKE CITY,FL,810 SW FAITH RD,MIDDLE
A PLUS PREPARATORY LEARNING ACADEMY,ELLENWOOD,GA,100 DUDLEY DR,MIDDLE
APPLE BLOSSOMS CHILD CENTER,MANCHESTER,NH,1 SUNDIAL AVE STE 117,MIDDLE
A RAINBOW OF FRIENDS PRESCHOOL,COLORADO SPRINGS,CO,9355 PEACEFUL VALLEY RD,MIDDLE
A STEP AHEAD,FERNLEY,NV,945 N CLOVER LN,MIDDLE
A STEP AHEAD LEARNING CENTER,REX,GA,340 WILKERSON RD,MIDDLE
A STEP UP @ IMMOKALEE,IMMOKALEE,FL,701 IMMOKALEE DR,MIDDLE
A STEP UP ACADEMY,JENKINTOWN,PA,520 MEETINGHOUSE RD,MIDDLE
A STEP UP INC.,EAST GREENWICH,RI,88 CROMPTON RD,MIDDLE
A UNIQUE LEARNING ACADEMY,LITHONIA,GA,7290 COVINGTON HWY,MIDDLE
APPLE GROVE,ORRVILLE,OH,12899 HACKETT RD,MIDDLE
APPLE GROVE SCHOOL,DOVER,DE,2391 HAZLETTVILLE RD,MIDDLE
APPLE HILL,DUNDEE,OH,8164 TR 662,MIDDLE
APPLE MONTESSORI OF HOBOKEN,HOBOKEN,NJ,1055 MAXWELL LN,MIDDLE
APPLE MONTESSORI OF METUCHEN,METUCHEN,NJ,12 CENTER ST,MIDDLE
APPLE MONTESSORI OF WAYNE,WAYNE,NJ,25 NEVINS RD,MIDDLE
APPLE MONTESSORI SCHOOL,BETHESDA,MD,7210 HIDDEN CREEK RD,MIDDLE
APPLE MONTESSORI SCHOOL OF EDGEWATER,EDGEWATER,NJ,8 ADELAIDE PL,MIDDLE
APPLE MONTESSORI SCHOOL OF MORRIS PLAINS,MORRIS PLAINS,NJ,1339 LITTLETON RD,MIDDLE
APPLE MONTESSORI SCHOOL OF OAKLAND,OAKLAND,NJ,192 RAMAPO VALLEY RD,MIDDLE
APPLE MONTESSORI SCHOOL OF RANDOLPH,RANDOLPH,NJ,470 MILLBROOK AVE,MIDDLE
A VILLAGE GREEN MONTESSORI,LIBERTYVILLE,IL,125 W CHURCH ST,MIDDLE
APPLE MONTESSORI SCHOOLS - HOBOKEN,HOBOKEN,NJ,220 SINATRA DR,MIDDLE
APPLE MONTESSORISCHOOL OF MAHWAH,MAHWAH,NJ,75 E RAMAPO AVE,MIDDLE
APPLE ORCHARD SCHOOL,BROOKLINE,MA,282D NEWTON ST,MIDDLE
APPLE PIE PRESCHOOL,BIG SUR,CA,HWY. 1,MIDDLE
APPLE RIDGE MONTESSORI SCHOOL,CATONSVILLE,MD,200 INGLESIDE AVE,MIDDLE
A WORLD DISCOVERY MONTESSORI SCHOOL,EVERETT,WA,10814 7TH AVE SE,MIDDLE
A WORLD OF KNOWLEDGE PRESCHOOL AND LEARNING CENTER,PEMBROKE PINES,FL,750 NW 180TH TER,MIDDLE
APPLE TREE FAITH COMM CHRISTIAN ACAD-DC CENTER,SAINT CLAIR SHORES,MI,19800 FRAZHO ST,MIDDLE
APPLE TREE LEARNING CENTER,CHESAPEAKE,VA,1101 VOLVO PKWY,MIDDLE
A. B. MORRIS INTERMEDIATE,CASTRO VALLEY,CA,3310 BARLOW DR.,MIDDLE
APPLE TREE MONTESSORI SCHOOL,SOUTHWEST RANCHES,FL,6301 SW 160TH AVE,MIDDLE
APPLE TREE SCHOOL,HOUSTON,TX,17127 RED OAK DR,MIDDLE
APPLE VALLEY ADULT EDUCATION,APPLE VALLEY,CA,13063 PAWNEE RD.,MIDDLE
APPLE VALLEY CHRISTIAN SCHOOL,APPLE VALLEY,CA,22230 OTTAWA RD,MIDDLE
APPLE VALLEY JUNIOR HIGH,APPLE VALLEY,CA,12555 NAVAJO RD.,MIDDLE
APPLE VALLEY MIDDLE,APPLE VALLEY,CA,12555 NAVAJO RD.,MIDDLE
APPLE VALLEY SCHOOL,SANTAQUIN,UT,105 E 770 N,MIDDLE
APPLE VALLEY UNIFIED PRESCHOOL SPECIAL EDUCATION,APPLE VALLEY,CA,12555 NAVAJO RD.,MIDDLE
APPLEGATE ADVENTIST JR ACADEMY,ROUND ROCK,TX,4 APPLEGATE CIR,MIDDLE
APPLES & BOOKS LEARNING CENTER,BRANCHBURG,NJ,1036 US HIGHWAY 202 S,MIDDLE
APPLES OF GOLD EDUCATIONAL CENTER,FRESNO,CA,7272 W SHAW AVE,MIDDLE
APPLESEED ACADEMY,MESQUITE,TX,4346 N GALLOWAY AVE,MIDDLE
APPLESEED ALMADEN MONTESSORI SCHOOL,SAN JOSE,CA,5200 DENT AVE,MIDDLE
APPLESEED MONTESSORI SCHOOL,NORTH BROOKFIELD,MA,331 N MAIN ST STE 4,MIDDLE
APPLESEED MONTESSORI SCHOOL - WARNER,SUNNYVALE,CA,1302 WARNER AVE,MIDDLE
A. LINWOOD HOLTON GOVERNOR'S SCHOOL,ABINGDON,VA,SOUTHWEST VA HIGHER ED CENTER,MIDDLE
APPLETREE CHRISTIAN PRESCHOOL & KINDERGARTEN,BROOMFIELD,CO,545 W 10TH AVE,MIDDLE
A. WARREN MCCLASKEY ADULT CENTER,SACRAMENTO,CA,5241 J ST.,MIDDLE
A.B. COMBS ELEMENTARY SCHOOL,COMBS,KY,641 HWY 80 W,MIDDLE
APPLETREE MONTESSORI,MISSION VIEJO,CA,25542 JERONIMO RD,MIDDLE
A.C.E. ADULT,FALLBROOK,CA,2400 SOUTH STAGE COACH LN.,MIDDLE
APPLETREE SCHOOL,FAIRFAX,VA,9655 BLAKE LN,MIDDLE
APPLETREE SCHOOL II,VIENNA,VA,712 TAPAWINGO RD SW,MIDDLE
APPLEWILD SCHOOL,FITCHBURG,MA,120 PROSPECT ST,MIDDLE
APPLEWOOD CHRISTIAN SCHOOL,SEDALIA,MO,25396 HWY O,MIDDLE
APPLICATIONS AND RESEARCH LABORATORY,ELLICOTT CITY,MD,10920 CLARKSVILLE PIKE,MIDDLE
APPLING CHRISTIAN ACADEMY,BAXLEY,GA,1479 HATCH PKWY S,MIDDLE
AAA ACADEMY,BLUE ISLAND,IL,13801 CHATHAM ST,MIDDLE
APPOMATTOX CHRISTIAN ACADEMY,APPOMATTOX,VA,1916 REDFIELDS RD,MIDDLE
AARDVARK CHILD CARE & LEARNING CENTER,GLEN MILLS,PA,335 CHEYNEY RD,MIDDLE
APPOMATTOX REGIONAL GOVERNOR'S SCHOOL,PETERSBURG,VA,512 W WASHINGTON ST,MIDDLE
APPRENDE PRIVATE SCHOOL,VALLEY PARK,MO,436B VALLEY SCHOOL DR,MIDDLE
APPRENTICE ACADEMY HS OF NC,WAXHAW,NC,8201 WILLOW BRANCH DRIVE,MIDDLE
APS PRESCHOOL,AKRON,OH,1160 WINHURST DR,MIDDLE
AARON SCHOOL,NEW YORK,NY,309 E 45TH ST REAR 1,MIDDLE
ABA ACADEMY,ST PETERSBURG,FL,4301 16TH ST N,MIDDLE
AQUIDNECK ISLAND CHRISTIAN ACADEMY,PORTSMOUTH,RI,321 E MAIN RD,MIDDLE
ABACUS MONTESSORI ACADEMY,CHALFONT,PA,180 E BUTLER AVE,MIDDLE
ABACUS SCHOOL OF AUSTIN,AUSTIN,TX,14115 AVERY RANCH BLVD,MIDDLE
ABBA INDEPENDENT LEARNING CENTER,PASADENA,TX,1035 FAIRMONT PKWY,MIDDLE
ABBEVILLE CHRISTIAN ACADEMY,ABBEVILLE,AL,258 ML TILLIS DR,MIDDLE
AQUIN CATHOLIC ELEMENTARY SCHOOL,CASCADE,IA,608 3RD AVE NW,MIDDLE
ABBOTSFORD CHRISTIAN ACADEMY,ABBOTSFORD,WI,4868 CEMETARY AVE,MIDDLE
AQUIN CATHOLIC JR SR HIGH SCHOOL,FREEPORT,IL,1419 S GALENA AVE,MIDDLE
AQUIN ELEMENTARY SCHOOL,FREEPORT,IL,202 W PLEASANT ST,MIDDLE
AQUINAS ACADEMY,BEAR,DE,2370 RED LION RD,MIDDLE
AQUINAS ACADEMY,GREENSBURG,PA,340 N MAIN ST,MIDDLE
AQUINAS ACADEMY,LIVINGSTON,NJ,388 S LIVINGSTON AVE,MIDDLE
AQUINAS ACADEMY,MENOMONEE FALLS,WI,N72W15935 GOOD HOPE RD,MIDDLE
AQUINAS CATHOLIC COMMUNITY SCHOOL,MERRILLVILLE,IN,801 W 73RD AVE,MIDDLE
AQUINAS CATHOLIC SCHOOLS,LA CROSSE,WI,315 S 11TH ST,MIDDLE
AQUINAS HIGH SCHOOL,AUGUSTA,GA,1920 HIGHLAND AVE,MIDDLE
AQUINAS HIGH SCHOOL,BRONX,NY,685 E 182ND ST,MIDDLE
ABBOTT SCHOOL,IRVINGTON,NY,100 N BROADWAY,MIDDLE
AQUINAS HIGH SCHOOL,LA CROSSE,WI,315 11TH ST S,MIDDLE
AQUINAS INSTITUTE,ROCHESTER,NY,1127 DEWEY AVE,MIDDLE
AQUINAS MIDDLE HIGH SCHOOL,DAVID CITY,NE,3420 MN RD # 149,MIDDLE
ABC / TORRINGFORD,TORRINGTON,CT,837 CHARLES ST,MIDDLE
ABC ACADEMY,CHICAGO,IL,2714 W PRATT BLVD,MIDDLE
ABC ADULT,CERRITOS,CA,12254 CUESTA DR.,MIDDLE
ABC CHARTER MIDDLE,LOS ANGELES,CA,1501 WILSHIRE BLVD.,MIDDLE
ABC CHILDCARE CENTER,TEMECULA,CA,29705 SOLANA WAY,MIDDLE
ABC DAYCARE AND PRESCHOOL,HIALEAH,FL,990 W 22ND ST,MIDDLE
ABC INTERNATIONAL MONTESSORI ACADEMY,BLOOMINGTON,MN,10801 NORMANDALE BLVD,MIDDLE
ARANSAS PASS JJAEP,ARANSAS PASS,TX,244 W HARRISON BLVD,MIDDLE
"ABC LEARNING CENTRE, INC (DBA ABC-STEWART SCHOOL)",COLUMBUS,IN,6691 W STATE ROAD 46,MIDDLE
ABC LEARNING PREP,PEMBROKE PINES,FL,18239 PINES BLVD,MIDDLE
ABC LITTLE SCHOOL,STUDIO CITY,CA,11728 MOORPARK ST,MIDDLE
ABC LITTLE SCHOOLS - WEST HOLLYWOOD,WEST HOLLYWOOD,CA,927 N FAIRFAX AVE,MIDDLE
ABC MONTESSORI ACADEMY FOR THE BRILLIANT CHILD,MCDONOUGH,GA,483 WALKER DR,MIDDLE
ABC OF NC CHILD DEVELOPMENT CENTER,WINSTON SALEM,NC,905 FRIEDBERG CHURCH RD,MIDDLE
ABC PLAYHOUSE,TORRANCE,CA,18213 PRAIRIE AVE,MIDDLE
ABC SCHOOL,SACRAMENTO,CA,4540 HARLIN DR,MIDDLE
ABC'S OF LEARNING,TOWACO,NJ,74 JACKSONVILLE RD,MIDDLE
ABC'S OF LEARNING AND GROWING INC,FORT LAUDERDALE,FL,7720 KIMBERLY BLVD,MIDDLE
ABCD DAYCARE CENTER,COEUR D ALENE,ID,1124 N C ST,MIDDLE
ARBOR BAY SCHOOL,SAN CARLOS,CA,1017 CEDAR ST,MIDDLE
ARBOR MONTISORRI SCHOOL,DECATUR,GA,2998 LAVISTA RD,MIDDLE
ABELS ACADEMY,CLERMONT,FL,355 CITRUS TOWER BLVD STE 116,MIDDLE
ARBOR SCHOOL OF ARTS & SCIENCES,TUALATIN,OR,4201 SW BORLAND RD,MIDDLE
ABERCROMBIE ACADEMY,SPRING,TX,17102 THEISS MAIL ROUTE RD,MIDDLE
ABERDEEN CATHOLIC SCHOOLS,ABERDEEN,SD,419 1ST AVE NE,MIDDLE
ARBOR SCHOOL OF CENTA,WINTER SPRINGS,FL,1010 SPRING VILLAS PT,MIDDLE
ARBOR SCHOOLS,SAMMAMISH,WA,1107 228TH AVE SE,MIDDLE
"ABERDEEN CHRISTIAN SCHOOL, INC",ABERDEEN,SD,1500 N HWY 281,MIDDLE
ARBOR VIEW MONTESSORI,ROSEVILLE,CA,7441 FOOTHILLS BLVD # 140,MIDDLE
ARBORBROOK CHRISTIAN ACADEMY,MATTHEWS,NC,4823 WAXHAW INDIAN TRL RD,MIDDLE
ARBORCREEK MONTESSORI SCHOOL,FARMERS BRANCH,TX,2713 COOKSCREEK PL,MIDDLE
ABF LEARNING CENTER,HOMESTEAD,FL,12767 SW 280TH ST,MIDDLE
ABI CHRISTIAN ACADEMY,SAINT PAUL,MN,6944 HUDSON BLVD N,MIDDLE
ABIDING HOPE PRESCHOOL,LITTLETON,CO,6337 S ROBB WAY,MIDDLE
ABIDING PEACE ACADEMY,SIMPSONVILLE,SC,401 BATESVILLE RD,MIDDLE
ABIDING SAVIOR ACADEMY,SIOUX FALLS,SD,4100 S BAHNSON AVE,MIDDLE
ABIDING SAVIOR LUTHERAN CHURCH,LAKE FOREST,CA,23262 EL TORO RD,MIDDLE
ABIDING SAVIOR LUTHERAN SCHOOL,SAINT LOUIS,MO,4353 BUTLER HILL RD,MIDDLE
ABIDING WORD LUTHERAN SCHOOL,HOUSTON,TX,17123 RED OAK DR,MIDDLE
ABILENE BAPTIST ACADEMY,ABILENE,KS,409 N VAN BUREN ST,MIDDLE
ABILITY SCHOOL,ENGLEWOOD,NJ,75 KNICKERBOCKER RD,MIDDLE
ARC ORANGE COUNTY CHAPTER,MIDDLETOWN,NY,28 INGRASSIA RD,MIDDLE
ARCADIA ADULT,ARCADIA,CA,150 SOUTH THIRD AVE.,MIDDLE
ARCADIA ADULT EVENING SCHOOL,ARCADIA,CA,180 CAMPUS DR.,MIDDLE
ARCADIA CHILDREN'S EDUCATIONAL CENTER,ARCADIA,CA,9845 E LEMON AVE,MIDDLE
ABINGTON FRIENDS SCHOOL,JENKINTOWN,PA,575 WASHINGTON LN,MIDDLE
ABINTRA MONTESSORI SCHOOL,NASHVILLE,TN,914 DAVIDSON DR,MIDDLE
ABIS PLACE,CORAL SPRINGS,FL,1710 N UNIVERSITY DR,MIDDLE
ARCADIA FIRST BAPTIST CHRISTIAN SCHOOL,SANTA FE,TX,14828 HWY 6,MIDDLE
ABLE ACADEMY,NAPLES,FL,5860 GOLDEN GATE PKWY,MIDDLE
ABLE CENTER,ORLANDO,FL,1530 S PRIMROSE DR,MIDDLE
ABLE CHARTER SCHOOL 6TH-8TH,OKLAHOMA CITY,OK,4500 N CLASSEN BLVD STE 2015,MIDDLE
ABLE CHARTER SCHOOL 9TH-12TH,OKLAHOMA CITY,OK,4500 N CLASSEN BLVD STE 2015,MIDDLE
ABM MINISTRIES-LIGHTHOUSE CHRISTIAN ACADEMY,PIEDMONT,MO,PO BOX 100,MIDDLE
ABM VIETNAMESE SCHOOL,ATLANTA,GA,4300 BUFORD HWY NE STE 104,MIDDLE
ARCADIA LEARNING CENTER,TACOMA,WA,6312 N 30TH ST,MIDDLE
ABNER MONTESSORI SCHOOL,CHAPIN,SC,432 E BOUNDARY ST,MIDDLE
ABOITE CHRISTIAN SCHOOL,ROANOKE,IN,14615 WINTERS RD,MIDDLE
ARCADIA MONTESSORI SCHOOL,PHOENIX,AZ,5115 E VIRGINIA AVE,MIDDLE
ABOUT FACE JJAEP,EL PASO,TX,4500 LAWRENCE AVE,MIDDLE
ARCANE ELEMENTARY,SIMI VALLEY,CA,1717 ARCANE ST.,MIDDLE
ARCANUM EARLY LEARNING CENTER,ARCANUM,OH,310 N MAIN ST,MIDDLE
ARCH BISHOP MOELLER HIGH SCHOOL,CINCINNATI,OH,9001 MONTGOMERY RD,MIDDLE
ARCHBISHOP ALTER HIGH SCHOOL,KETTERING,OH,940 E DAVID RD,MIDDLE
ABRAHAM JOSHUA HESCHEL SCHOOL,NEW YORK,NY,30 W END AVE,MIDDLE
ARCHBISHOP BERGAN CATHOLIC SCHOOL,FREMONT,NE,545 E 4TH ST,MIDDLE
ABRAHAM KAZEN MIDDLE,SAN ANTONIO,TX,1520 GILLETTE BLVD,MIDDLE
ARCHBISHOP BORDERS SCHOOL,BALTIMORE,MD,3500 FOSTER AVE,MIDDLE
ARCHBISHOP CHAPELLE HIGH SCHOOL,METAIRIE,LA,8800 VETERANS MEMORIAL BLVD,MIDDLE
ARCHBISHOP CURLEY HIGH SCHOOL,BALTIMORE,MD,3701 SINCLAIR LN,MIDDLE
ARCHBISHOP HANNAN HIGH SCHOOL,COVINGTON,LA,71324 HWY 1077,MIDDLE
ARCHBISHOP HOBAN HIGH SCHOOL,AKRON,OH,1 HOLY CROSS BLVD,MIDDLE
ARCHBISHOP LYKE-ST TIMOTHY CAMPUS,GARFIELD HEIGHTS,OH,4351 E 131ST ST,MIDDLE
ARCHBISHOP MCCARTHY HIGH SCHOOL,SOUTHWEST RANCHES,FL,5451 S FLAMINGO RD,MIDDLE
ARCHBISHOP MCNICHOLAS HIGH SCHOOL,CINCINNATI,OH,6536 BEECHMONT AVE,MIDDLE
ARCHBISHOP MITTY HIGH SCHOOL,SAN JOSE,CA,5000 MITTY WAY,MIDDLE
ARCHBISHOP MOLLOY HIGH SCHOOL,BRIARWOOD,NY,8353 MANTON ST,MIDDLE
ARCHBISHOP MURPHY HIGH SCHOOL,EVERETT,WA,12911 39TH AVE SE,MIDDLE
ARCHBISHOP NEALE SCHOOL,LA PLATA,MD,104 PORT TOBACCO RD,MIDDLE
ARCHBISHOP RUMMEL HIGH SCHOOL,METAIRIE,LA,1901 SEVERN AVE,MIDDLE
ARCHBISHOP RYAN ACADEMY FOR THE DEAF,PHILADELPHIA,PA,4251 L ST,MIDDLE
ARCHBISHOP RYAN HIGH SCHOOL,PHILADELPHIA,PA,11201 ACADEMY RD,MIDDLE
ARCHBISHOP SHAW HIGH SCHOOL,MARRERO,LA,1000 BARATARIA BLVD,MIDDLE
ABRAHAM LINCOLN ELEMENTARY,DALY CITY,CA,101 LAKE MERCED BLVD.,MIDDLE
ARCHBISHOP SPALDING HIGH SCHOOL,SEVERN,MD,8080 NEW CT RD,MIDDLE
ARCHBISHOP STEPINAC HIGH SCHOOL,WHITE PLAINS,NY,950 MAMARONECK AVE,MIDDLE
ARCHBISHOP WILLIAMS HIGH SCHOOL,BRAINTREE,MA,80 INDEPENDENCE AVE,MIDDLE
ARCHBISHOP WOOD HIGH SCHOOL,WARMINSTER,PA,655 YORK RD,MIDDLE
ARCHER SCHOOL FOR GIRLS,LOS ANGELES,CA,11725 W SUNSET BLVD,MIDDLE
ARCHES ACADEMY,OREM,UT,280 S 400 E,MIDDLE
ARCHWAY,LEICESTER,MA,77 MULBERRY ST,MIDDLE
ARCHWAYS COMMUNITY DAY,AMERICAN CANYON,CA,300 BENTON WAY,MIDDLE
ARDEN CAHILL ACADEMY,GRETNA,LA,3101 WALL BLVD,MIDDLE
ARDEN CHRISTIAN SCHOOL,ARDEN,NC,2568 HENDERSONVILLE RD,MIDDLE
ARDMORE ADVENTIST ACADEMY,ARDMORE,OK,154 BEAVER ACADEMY RD,MIDDLE
ABRAM FRIEDMAN OCCUPATIONAL,LOS ANGELES,CA,1646 SOUTH OLIVE ST.,MIDDLE
ABRAXAS ACADEMY,MORGANTOWN,PA,1000 ACADEMY DR,MIDDLE
ABRAXAS I ARLENE LISSNER HIGH SCHOOL,MARIENVILLE,PA,165 ABRAXAS RD,MIDDLE
ABRAXAS LEADERSHIP DEVELOPMENT PROGRAM,SOUTH MOUNTAIN,PA,"10058 S MOUNTAIN ROAD,BLDG. #6",MIDDLE
ABRAXAS YOUTH CENTER,SOUTH MOUNTAIN,PA,10058 S MOUNTAIN RD BLDG 3,MIDDLE
ABUNDANT LIFE ACADEMY,BELLEVUE,PA,10 N FREMONT AVE,MIDDLE
ABUNDANT LIFE ACADEMY,KINGSTON,NY,389 BROADWAY,MIDDLE
ABUNDANT LIFE ACADEMY,NUTLEX,NJ,390 WASHINGTON AVE,MIDDLE
AREA 7 ALTERNATIVE SCHOOL,LOS ANGELES,CA,4805 PASADENA AVE. TR.,MIDDLE
ABUNDANT LIFE CHRISTIAN ACADEMY,INDIAN TRAIL,NC,4224 BLANCHARD CIR,MIDDLE
ABUNDANT LIFE CHRISTIAN ACADEMY,LAS VEGAS,NV,1720 J ST,MIDDLE
ABUNDANT LIFE CHRISTIAN ACADEMY,MARGATE,FL,1494 BANKS RD,MIDDLE
ABUNDANT LIFE CHRISTIAN ACADEMY,THORP,WI,105 E HILL ST,MIDDLE
ABUNDANT LIFE CHRISTIAN LRNG CENTER /NEW JERUSALEM,MIAMI,FL,777 NW 85TH ST,MIDDLE
ABUNDANT LIFE CHRISTIAN SCHOOL,ALBUQUERQUE,NM,2851 ARENAL RD SW,MIDDLE
ABUNDANT LIFE CHRISTIAN SCHOOL,GREENVILLE,SC,630 FARRS BRIDGE RD,MIDDLE
ABUNDANT LIFE CHRISTIAN SCHOOL,LA MARQUE,TX,5130 HALLAM RD,MIDDLE
ABUNDANT LIFE CHRISTIAN SCHOOL,MADISON,WI,4901 E BUCKEYE RD,MIDDLE
ABUNDANT LIFE CHRISTIAN SCHOOL,TRIADELPHIA,WV,976 CHAPEL HILL RD,MIDDLE
ABUNDANT LIFE CHRISTIAN SCHOOL,WILMINGTON,MA,173 CHURCH ST,MIDDLE
ABUNDANT LIFE MINISTRIES,VIRGINIA BEACH,VA,6037 PROVIDENCE RD STE 1,MIDDLE
ABUNDANT LIFE SCHOOL,SHERWOOD,AR,9200 HWY 107,MIDDLE
ABUNDANTCRESCENT CITY CHRISTIAN ACADEMY,CRESCENT CITY,FL,2701 S US HIGHWAY 17,MIDDLE
ACACIA ACADEMY,KOKOMO,IN,830 S MAIN ST,MIDDLE
ACACIA ACADEMY,LA GRANGE,IL,6425 WILLOW SPRINGS RD,MIDDLE
ACACIA ELEMENTARY CHARTER,STOCKTON,CA,1016 E. BIANCHI RD.,MIDDLE
ARENAC EASTERN ELEMENTARYMIDDLE SCHOOL,TWINING,MI,200 SMALLEY ST,MIDDLE
ARENAC EASTERN HIGH SCHOOL,TWINING,MI,200 SMALLEY ST,MIDDLE
ARENDELL PARROTT ACADEMY,KINSTON,NC,1901 DOBBS FARM RD,MIDDLE
ACACIA LEARNING CENTER,LOS ANGELES,CA,2900 W VERNON AVE,MIDDLE
ACACIA MIDDLE CHARTER,STOCKTON,CA,1016 E. BIANCHI RD.,MIDDLE
ARETE PREPATORY SCHOOL,LITHONIA,GA,3072 EVANS MILL RD,MIDDLE
ACACIAWOOD SCHOOL,ANAHEIM,CA,2530 W LA PALMA AVE,MIDDLE
ACADEME OF THE OAKS,DECATUR,GA,146 NEW ST,MIDDLE
ARGONAUT ELEMENTARY,HAYWARD,CA,1481 FRY LN.,MIDDLE
ACADEMIA DE LA RECTA PORTA ICDS,WASHINGTON,DC,7614 GEORGIA AVE NW,MIDDLE
ACADEMIA PRIVATE SCHOOL,WINDERM,FL,6506 OLD BRICK RD STE 110,MIDDLE
ARGONNE ELEMENTARY,SAN LEANDRO,CA,15550 ARGONNE ST.,MIDDLE
ACADEMIC ALTERNATIVE EDUCATION,BOCA RATON,FL,23123 STATE ROAD 7,MIDDLE
ACADEMIC BEHAVIOR SCHOOL EAST,HOUSTON,TX,7703 S LOOP E,MIDDLE
ACADEMIC BEHAVIOR SCHOOL WEST,HOUSTON,TX,7800 WESTGLEN,MIDDLE
ACADEMIC HIGH SCHOOL,BOCA RATON,FL,23123 STATE ROAD 7 STE 107,MIDDLE
ACADEMIC MASTERY ACADEMY,SOUTH HOLLAND,IL,16341 S PARK AVE,MIDDLE
ACADEMICS PLUS,EVANS,GA,717 INDUSTRIAL PARK RD,MIDDLE
ACADEMIE DE MONTESSORI,JACKSONVILLE,FL,1216 LASALLE ST,MIDDLE
ACADEMY 360,MIDLOTHIAN,VA,13900 HULL STREET ROAD,MIDDLE
ACADEMY ADVENTURES MID-TOWN,TUCSON,AZ,825 E. FT. LOWELL RD.,MIDDLE
ACADEMY AT DOUBLE H RANCH,FAIRMOUNT,GA,9906 HENDERSON MOUNTAIN RD,MIDDLE
ACADEMY AT NEW LIFE,FAYETTEVILLE,NC,6501 CAMDEN RD,MIDDLE
ACADEMY AT ST. SABINA,FLORISSANT,MO,1625 SWALLOW LN,MIDDLE
ACADEMY AT THE BEACH,PALM HARBOR,FL,1961 E LAKE RD,MIDDLE
ACADEMY AT VIRGINIA RANDOLPH,GLEN ALLEN,VA,2204 MOUNTAIN RD,MIDDLE
ARI GUIRAGOS MINASSIAN ARMENIAN SCHOOL,SANTA ANA,CA,5311 W MCFADDEN AVE,MIDDLE
ACADEMY FOR ACADEMIC EXCELLENCE,CLARKSVILLE,TN,2134 OLD ASHLAND CITY RD,MIDDLE
ACADEMY FOR ACADEMICS  ARTS,HUNTSVILLE,AL,2800 POPLAR ST NW,MIDDLE
ACADEMY FOR ADVANCEMENT OF CHILDREN WITH AUTISM,CHATSWORTH,CA,10824 TOPANGA CANYON BLVD,MIDDLE
ACADEMY FOR ADVANCEMENT OF CHILDREN WITH AUTISM,LANCASTER,CA,6742 E AVE H,MIDDLE
ARISE ACADEMY CHARTER HIGH SCHOOL,PHILADELPHIA,PA,2116 E. HAINES STREET,MIDDLE
ACADEMY FOR AUTISM,ORLANDO,FL,11 E LANCASTER RD,MIDDLE
ARISTA PREP NURSERY SCHOOL,BROOKLYN,NY,275 KINGSTON AVE,MIDDLE
ARISTOTLE ACADEMY,AMERICAN FORK,UT,704 S 600 E,MIDDLE
ARIZONA AGRIBUSINESS & EQUINE CENTER  INC. - MESA,MESA,AZ,1833 W. SOUTHERN AVE,MIDDLE
ARIZONA AGRIBUSINESS & EQUINE CENTER  INC. - PRESCOTT VALLEY,PRESCOTT VALLEY,AZ,7500 CIVIC CIRCLE DR.,MIDDLE
ARIZONA AGRIBUSINESS & EQUINE CENTER  INC. - RED MOUNTAIN,MESA,AZ,2165 N. POWER ROAD,MIDDLE
ARIZONA AGRIBUSINESS & EQUINE CENTER INC. - MESA,MESA,AZ,1833 W. SOUTHERN AVE,MIDDLE
ARIZONA AUTISM CHARTER SCHOOL  UPPER SCHOOL CAMPUS,PHOENIX,AZ,1445 E. INDIAN SCHOOL RD.,MIDDLE
ARIZONA CULTURAL ACADEMY & COLLEGE PREP,PHOENIX,AZ,7810 S 42ND PL,MIDDLE
ARIZONA INTERNATIONAL ACADEMY,SCOTTSDALE,AZ,12430 N SCOTTSDALE RD,MIDDLE
ARIZONA LUTHERAN ACADEMY,PHOENIX,AZ,6036 S 27TH AVE,MIDDLE
ACADEMY FOR INDIVIDUAL EXCELLENCE,LOUISVILLE,KY,3101 BLUEBIRD LN,MIDDLE
ACADEMY FOR INDIVIDUALIZED STUDY/INDEPENDENT STUDY/HOME SCHO,LAS VEGAS,NV,4601 W. BONANZA RD,MIDDLE
ARIZONA WORLD SCHOOL,ELOY,AZ,900 N. MAIN STREET,MIDDLE
ARK CHRISTIAN ACADEMY,BROOKLYN,NY,1710 EASTERN PKWY,MIDDLE
ACADEMY FOR KIDS,CLACKAMAS,OR,13698 SE 147TH AVE,MIDDLE
ARK CHRISTIAN ACADEMY,ST AUGUSTINE,FL,307 ANASTASIA BLVD,MIDDLE
ARK OF SAFETY CHRISTIAN ACADEMY,WAIANAE,HI,"86-120 FARRINGTON HWY, STE 110",MIDDLE
ACADEMY FOR LEARNING,LAS VEGAS,NV,1018 E SAHARA AVE STE D,MIDDLE
ARKANSAS CONNECTIONS ACADEMY ELEMENTARY,BENTONVILLE,AR,609 SW 8TH ST,MIDDLE
ARKANSAS CONSOLIDATED HIGH SCHOOL - DERMOTT #3,DERMOTT,AR,878 E GAINES ST,MIDDLE
ACADEMY FOR PRECISION LEARNING,SEATTLE,WA,"5031 UNIVERSITY WAY NE, #105",MIDDLE
ACADEMY FOR SCIENCE  FOREIGN LANGUAGE,HUNTSVILLE,AL,3221 MASTIN LAKE RD,MIDDLE
ACADEMY FOR YOUNG LEARNERS INC,HIALEAH,FL,18191 NW 68TH AVE STE 101,MIDDLE
ACADEMY HILL SCHOOL,SPRINGFIELD,MA,1190 LIBERTY ST,MIDDLE
ACADEMY INNOVATION,GAINESVILLE,GA,1399 THOMPSON BRIDGE RD,MIDDLE
ACADEMY JJAEP,LITTLE RIVER,TX,704 E MAIN ST,MIDDLE
ACADEMY MONTESSORI INTERNATIONALE,KANSAS CITY,MO,12501 STATE LINE RD,MIDDLE
ACADEMY MONTESSORI PRESCHOOL,ALBUQUERQUE,NM,11216 PHOENIX AVE NE,MIDDLE
ACADEMY NORTHWEST,MARYSVILLE,WA,514 STATE AVE STE 108,MIDDLE
ACADEMY OF ART  CAREERS AND TECHNOLOGY,RENO,NV,380 EDISON WAY,MIDDLE
ARLINGTON ACADEMY OF MIAMI LLC,HIALEAH,FL,4814 NW 167TH ST,MIDDLE
ARLINGTON BAPTIST SCHOOL,BALTIMORE,MD,3030 N ROLLING RD,MIDDLE
ARLINGTON CATHOLIC HIGH SCHOOL,ARLINGTON,MA,16 MEDFORD ST,MIDDLE
ARLINGTON CHRISTIAN ACADEMY,AKRON,OH,539 S ARLINGTON ST,MIDDLE
ARLINGTON CHRISTIAN SCHOOL,ARLINGTON,WA,2425 200TH ST NE,MIDDLE
ACADEMY OF ARTS AND SCIENCES: SONOMA,THOUSAND OAKS,CA,850 HAMPSHIRE RD. STE. P,MIDDLE
ACADEMY OF ARTS AND SCIENCES: THOUSAND OAKS & SIMI VALLEY,WESTLAKE VILLAGE,CA,850 HAMPSHIRE RD. STE. P,MIDDLE
ARLINGTON COMMUNITY MIDDLE SCHOOL,INDIANAPOLIS,IN,120 E WALNUT ST,MIDDLE
ACADEMY OF CHRISTIAN EDUCATION,RESTON,VA,10800 PARKRIDGE BLVD # 150,MIDDLE
ACADEMY OF COASTAL CAROLINA,SHALLOTTE,NC,623 VILLAGE RD SW,MIDDLE
ACADEMY OF CONSTRUCTION/ENGINEERING,MINNEAPOLIS,MN,4001 HARRIET AVE S,MIDDLE
ARLINGTON FAITH ACADEMY,ARLINGTON,TX,5100 US HIGHWAY 287,MIDDLE
ARLINGTON HEIGHTS CHRISTIAN SCHOOL,CORPUS CHRISTI,TX,9550 LEOPARD ST,MIDDLE
ACADEMY OF EARLY LEARNING,HYANNIS,MA,465 FALMOUTH RD,MIDDLE
ACADEMY OF ENGINEERING AND TECHNOLOGY,LEESBURG,VA,801 N KING STREET,MIDDLE
"ARLINGTON KINDERGARTEN OF JACKSONVILLE, INC",JACKSONVILLE,FL,1210 MARCHECK ST,MIDDLE
ACADEMY OF EXCELLENCE,EUREKA SPRINGS,AR,157 HUNTSVILLE RD,MIDDLE
ACADEMY OF EXCELLENCE,MILWAUKEE,WI,633 S 12TH ST,MIDDLE
ACADEMY OF EXCELLENCE,STATESVILLE,NC,612 S RACE ST,MIDDLE
ACADEMY OF GREATNESS AND EXCELLENCE,TEANECK,NJ,441 N ST,MIDDLE
ARLINGTON MONTESSORI HOUSE,ARLINGTON,VA,3809 WASHINGTON BLVD,MIDDLE
ARLINGTON MONTESSORI SCHOOL,ARLINGTON HEIGHTS,IL,2025 S GOEBBERT RD,MIDDLE
ARLINGTON OAKS ELEMENTARY,WEST SACRAMENTO,CA,1800 DEVON AVE.,MIDDLE
ARLINGTON SCHOOL,BELMONT,MA,115 MILL ST,MIDDLE
ARLINGTON SCHOOL,BIRMINGHAM,AL,1312 22ND ST S,MIDDLE
ARLYN DAY SCHOOL,HIGHLAND PARK,IL,2789 OAK ST,MIDDLE
ARMA DEI ACADEMY,HIGHLANDS RANCH,CO,345 E WILDCAT RESERVE PKWY,MIDDLE
ACADEMY OF INTERNATIONAL STUDIES,HAMTRAMCK,MI,3056 HANLEY ST,MIDDLE
ARMAND BAYOU MONTESSORI,HOUSTON,TX,16204 HICKORY KNOLL DR,MIDDLE
ARMBRUST CHRISTIAN ACADEMY,HUNKER,PA,7786 ROUTE 819,MIDDLE
ARMENIAN SISTERS ACADEMY,MONTROSE,CA,2361 FLORENCITA AVE,MIDDLE
ARMENIAN SISTERS ACADEMY,RADNOR,PA,440 UPPER GULPH RD,MIDDLE
ACADEMY OF MEDIA ARTS,LOS ANGELES,CA,2009 WEST MARTIN LUTHER KING BLVD.,MIDDLE
ACADEMY OF MONTESSORI INTERNATIONAL,THONOTOSASSA,FL,15421 MORRIS BRIDGE RD,MIDDLE
ACADEMY OF MOUNT ST URSULA,BRONX,NY,330 BEDFORD PARK BLVD,MIDDLE
ACADEMY OF NOTRE DAME,TYNGSBORO,MA,180 MIDDLESEX RD,MIDDLE
ACADEMY OF OUR LADY,MARRERO,LA,5501 WESTBANK EXPY,MIDDLE
ACADEMY OF OUR LADY OF GRACE,FAIRVIEW,NJ,400 KAMENA ST,MIDDLE
"ACADEMY OF OUR LADY OF MERCY, LAURALTON HALL",MILFORD,CT,200 HIGH ST,MIDDLE
ACADEMY OF OUR LADY OF MT CARMEL,TENAFLY,NJ,10 COUNTY ROAD,MIDDLE
ACADEMY OF OUR LADY OF PEACE,NEW PROVIDENCE,NJ,99 S ST,MIDDLE
ACADEMY OF PERSONALIZED EXCELLENCE,MINNEAPOLIS,MN,2620 RUSSELL AVE N,MIDDLE
ACADEMY OF SAINT ELIZABETH,MORRISTOWN,NJ,2 CONVENT RD,MIDDLE
ACADEMY OF SAINT LOUIS,CHESTERFIELD,MO,1633 KEHRS MILL RD BLDG B,MIDDLE
ACADEMY OF SAINT PAUL,RAMSEY,NJ,187 WYCKOFF AVE,MIDDLE
ARMSTRONG MS,FAIRLESS HILLS,PA,475 WISTAR RD,MIDDLE
ACADEMY OF SCHOLASTIC ACHIEVEMENT,CHICAGO,IL,4651 W MADISON ST,MIDDLE
ACADEMY OF SCIENCE AND ENGINEERING,LOS ANGELES,CA,5753 RODEO RD.,MIDDLE
ARMSTRONG VALLEY CHRISTIAN SCHOOL,HALIFAX,PA,943 ENDERS RD,MIDDLE
ACADEMY OF ST ADALBERT,BEREA,OH,56 ADELBERT ST,MIDDLE
ACADEMY OF ST BENEDICT THE AFRICAN,CHICAGO,IL,6020 S LAFLIN ST,MIDDLE
ACADEMY OF ST JAMES OF THE MARCHES,TOTOWA,NJ,400 TOTOWA RD,MIDDLE
ARMY & NAVY ACADEMY,CARLSBAD,CA,2605 CARLSBAD BLVD,MIDDLE
ACADEMY OF ST JOSEPH,NEW YORK,NY,111 WASHINGTON PL,MIDDLE
ACADEMY OF THE ARTS (THE),BRONX,NY,888 REV J A POLITE AVE,MIDDLE
ARNOLD CHRISTIAN ACADEMY,ARNOLD,MD,365 JONES STATION RD,MIDDLE
ACADEMY OF THE HOLY ANGELS,DEMAREST,NJ,315 HILLSIDE AVE,MIDDLE
ACADEMY OF THE HOLY CROSS,KENSINGTON,MD,4920 STRATHMORE AVE,MIDDLE
ACADEMY OF THE HOLY FAMILY,BALTIC,CT,54 W MAIN ST # 691,MIDDLE
ACADEMY OF THE HOLY NAMES,TAMPA,FL,3319 BAYSHORE BLVD,MIDDLE
ACADEMY OF THE IMMACULATE HEART OF MARY,AKRON,OH,2935 CHENOWETH RD,MIDDLE
ACADEMY OF THE MOST BLESSED SACRAMENT,FRANKLIN LAKES,NJ,785 FRANKLIN LAKE RD,MIDDLE
ACADEMY OF THE NEW CHURCH BOYS SCHOOL,BRYN ATHYN,PA,2815 BENADE CIR,MIDDLE
ACADEMY OF THE NEW CHURCH GIRLS SCHOOL,BRYN ATHYN,PA,2815 BENADE CIR,MIDDLE
ACADEMY OF THE SACRED HEART,NEW ORLEANS,LA,4521 ST CHARLES AVE,MIDDLE
ACADEMY OF THE SACRED HEART,SAINT CHARLES,MO,619 N 2ND ST,MIDDLE
AROUND THE WORLD CHILDREN CENTER,DOWNEY,CA,10441 LAKEWOOD BLVD,MIDDLE
ACADEMY OF WHOLE LEARNING,MINNETONKA,MN,3500 WILLISTON RD,MIDDLE
ACADEMY ON THE HILL,ALISO VIEJO,CA,10 MAREBLU,MIDDLE
ACADEMY PERFORMING PRESCHOOL,VICTORVILLE,CA,12219 SECOND AVE.,MIDDLE
ACADEMY PREP CENTER OF ST PETERSBURG,ST PETERSBURG,FL,2301 22ND AVE S,MIDDLE
ACADEMY PREP CENTER OF TAMPA,TAMPA,FL,1407 E COLUMBUS DR,MIDDLE
ACADEMY PRIMARY SCHOOL & CHILD DEVELOPMENT CENTER,ROCKVILLE,MD,10107 DARNESTOWN RD,MIDDLE
ACADEMY SCHOOLS,TUKWILA,WA,14601 INTERURBAN AVE S,MIDDLE
ARRIS MONTESSORI,ASHBURN,VA,44675 CAPE CT STE 189,MIDDLE
ACADEMY-NOTRE DAME DE NAMUR,VILLANOVA,PA,560 SPROUL RD,MIDDLE
ARROW ACADEMY,WHIPPANY,NJ,90 WHIPPANY RD,MIDDLE
ACADEMY/FULL-TIME PROGRAMS,TRENTON,NJ,1085 OLD TRENTON RD,MIDDLE
ACADEMY360 UPPER SCHOOL,LIVINGSTON,NJ,6 REGENT ST,MIDDLE
ARROW CENTER FOR EDUCATION TANGRAM,BALTIMORE,MD,8830 ORCHARD TREE LN,MIDDLE
ARROWHEAD CHRISTIAN ACADEMY,REDLANDS,CA,105 TENNESSEE ST,MIDDLE
ACALANES ADULT EDUCATION CENTER,WALNUT CREEK,CA,1963 TICE VALLEY BLVD.,MIDDLE
ACARATH MONTESSORI CENTER,SCHAUMBURG,IL,22 KRISTIN DR,MIDDLE
ACCEL,PHOENIX,AZ,10251 N 35TH AVE,MIDDLE
ARROWHEAD MONTESSORI,PEORIA,AZ,14801 N 83RD AVE,MIDDLE
ACCELERATED INT CHARTER SCHOOL,HOUSTON,TX,12825 SUMMIT RDG DR,MIDDLE
ACCELERATED SCHOOLS,DENVER,CO,2160 S COOK ST,MIDDLE
ACCELERATED SCHOOLS OF OVERLAND PARK,OVERLAND PARK,KS,10713 BARKLEY ST,MIDDLE
ACCELERATION ACADEMIES LLC,MIAMI BEACH,FL,1001 N MIAMI BEACH BLVD,MIDDLE
ACCELERATIONS LEARNING CENTER,HONOLULU,HI,1012 PIIKOI ST FL 2,MIDDLE
ACCELERE,OMAHA,NE,2606 HAMILTON ST,MIDDLE
ACCESS FUTURES CHILD CARE CENTER,WORCESTER,MA,799 W BOYLSTON ST STE 3,MIDDLE
ACCOTINK ACADEMY,SPRINGFIELD,VA,8519 TUTTLE RD,MIDDLE
ACE ACADEMY  JEFFERSON SITE,DETROIT,MI,13330 E JEFFERSON AVENUE,MIDDLE
ACE ACADEMY SOUTH,FLORIDA CITY,FL,303 W PALM DR,MIDDLE
ACE DAY & NIGHT SCHOOL  - CLOSED,PHOENIX,AZ,735 E FILLMORE ST.,MIDDLE
ACE DAY & NIGHT SCHOOL - CLOSED,PHOENIX,AZ,735 E FILLMORE ST.,MIDDLE
ARROYO GARFIELD ELEM.,PASADENA,CA,540 S. PASADENA AVE.,MIDDLE
ARROYO GRANDE MONTESSORI SCHOOL,ARROYO GRANDE,CA,216 OAK ST,MIDDLE
ARROYO HIGH (APHASIA),EL MONTE,CA,4921 N. CEDAR AVE.,MIDDLE
ACERA SCHOOL,WINCHESTER,MA,5 LOWELL AVE,MIDDLE
ACERO CHTR  ROBERTO CLEMENTE CMPS,CHICAGO,IL,2050 N NATCHEZ AVE,MIDDLE
ACERO CHTR  SOR JUANA INES DE LA,CHICAGO,IL,7416 N RIDGE BLVD,MIDDLE
ARROYO PASEO CHARTER HIGH,SAN DIEGO,CA,3773 EL CAJON BLVD.,MIDDLE
ACERO CHTR NETRK -  MAJOR GARCIA,CHICAGO,IL,4248 W 47TH ST,MIDDLE
ARRUPE JESUIT HIGH SCHOOL,DENVER,CO,4343 UTICA ST,MIDDLE
ART'S LEARNING ACADEMY,CHIPLEY,FL,739 7TH ST,MIDDLE
ARTE I RPTCS (REGIONAL PROFESSIONAL TECHNICAL CHARTER SCHOOL,TWIN FALLS,ID,COLLEGE OF SOUTHERN IDAHO EVER,MIDDLE
ACHIEVE KIDS,SAN JOSE,CA,1212 MCGINNESS AVE,MIDDLE
ARTHUR B. INGHAM CENTER,SALINAS,CA,47 SAN BANACIO CANYON RD.,MIDDLE
ACHIEVEMENT CENTER OF SARASOTA THE,SARASOTA,FL,1201 N BENEVA RD,MIDDLE
ARTHUR E. WRIGHT ELEMENTARY,CALABASAS,CA,4029 N. LAS VIRGENES RD.,MIDDLE
ARTHUR I MEYER JEWISH ACADEMY,PALM BEACH GARDENS,FL,5225 HOOD RD,MIDDLE
ACHIEVEMENT INTEGRITY AND MATURITY,ALEXANDRIA,VA,C/O KATHRYN SALERNO,MIDDLE
ARTHUR MORGAN SCHOOL,BURNSVILLE,NC,60 AMS CIR,MIDDLE
ACHIEVER CHRISTIAN SCHOOL,SAN JOSE,CA,540 SANDS DR,MIDDLE
ACHIEVER'S CHRISTIAN ACADEMY,JENNINGS,FL,1424 HAMILTON AVE,MIDDLE
ACHIEVERS CENTER FOR EDUCATION,SAN ANTONIO,TX,5084 DEZAVLA RD,MIDDLE
ACHIEVING STARS ACADEMY,MILPITAS,CA,301 S ABBOTT AVE,MIDDLE
ARTHUR ROBERT ASHE CENTER,FORT LAUDERDALE,FL,1701 NW 23RD AVE,MIDDLE
ACLD SCHOOL,YOUNGSTOWN,OH,118 E WOOD ST,MIDDLE
ACLD TILLOTSON SCHOOL,PITTSBURGH,PA,4900 GIRARD RD,MIDDLE
ACORN HILL WALDORF KINDERGARTEN & NURSERY,SILVER SPRING,MD,9504 BRUNETT AVE,MIDDLE
ACORN LEARNING CENTER,TWIN FALLS,ID,493 EASTLAND DR,MIDDLE
ACORN MONTESSORI,MINNEAPOLIS,MN,310 - 38TH ST. S SUITE 133,MIDDLE
ACORN MONTESSORI CHARTER SCHOOL  INC. - WEST,PRESCOTT VALLEY,AZ,7555 E. LONG LOOK DRIVE,MIDDLE
ARTOIS ELEMENTARY,ARTOIS,CA,PO BOX H,MIDDLE
ACORN MONTESSORI SCHOOL,LEBANON,NJ,1222 STATE ROUTE 31,MIDDLE
ARTS  COMMUNICATIONS ACADEMY AT FAIR PLAIN,BENTON HARBOR,MI,120 E NAPIER AVE,MIDDLE
ACORN SCHOOL,STRATHAM,NH,136 WINNICUTT RD,MIDDLE
ARTS & HUMANITIES FOCUS PRGM,LINCOLN,NE,643 S 25TH STE 9,MIDDLE
ARTS & IDEAS SUDBURY SCHOOL,BALTIMORE,MD,4915 HOLDER AVE,MIDDLE
ACRES OF FUN CHILD CARE CENTER INC.,PINELLAS PARK,FL,6262 62ND AVE N,MIDDLE
ACS EDUCATIONAL RESOURCES AND CONSULTANT LLC,ORMOND BEACH,FL,53 N OLD KINGS RD STE D,MIDDLE
ACT,STONE MOUNTAIN,GA,1170 N HAIRSTON RD,MIDDLE
ARTS AND MEDIA PREPARATORY ACADEMY,BROOKLYN,NY,905 WINTHROP ST,MIDDLE
ACTION BASED ENTERPRISES SCHOOL,WOONSOCKET,RI,141 MAIN ST,MIDDLE
ACTION DAY PRIMARY PLUS ALLEN SCHOOL,SAN JOSE,CA,5845 ALLEN AVE,MIDDLE
ACTIS (O. J.) JUNIOR HIGH,BAKERSFIELD,CA,2400 WESTHOLME BLVD.,MIDDLE
ACTIVE LEARNING CENTER,ALLENTOWN,PA,7200B WINDSOR DR,MIDDLE
ACTIVE LEARNING CENTER,BREINIGSVILLE,PA,9999 HAMILTON BLVD BLDG 10,MIDDLE
ARTS SCHOOL,OAKLAND,CA,5263 BROADWAY TER.,MIDDLE
ARTS THEREAFTER CHRISTIAN SCHOOL,ST CLOUD,FL,2745 CANOE CREEK RD,MIDDLE
ARTSTECH,KANSAS CITY,MO,1522 HOLMES ST,MIDDLE
ARTURO SOMOHANO,BAYAMON,PR,URB VILLA ESPA?A CALLE LOS PIRINEOS,MIDDLE
ARUNDEL CHRISTIAN SCHOOL,HANOVER,MD,"7459 CANDLEWOOD ROAD, SUITES A-F",MIDDLE
ARVIN CONTINUATION HIGH,BAKERSFIELD,CA,2000 24TH ST.,MIDDLE
ARVIN-LAMONT ADULT SCHOOL,ARVIN,CA,PO BOX 518,MIDDLE
ACTON (EH),ACTON,CA,32248 NORTH CROWN VALLEY RD.,MIDDLE
ACTON ACADEMY,AUSTIN,TX,1404 E RIVERSIDE DR,MIDDLE
ACTON ACADEMY ALBUQUERQUE,ALBUQUERQUE,MN,6901 SAN ANTONIO DR NE,MIDDLE
AS YOU ARE PRESCHOOL,RESEDA,CA,7855 LINDLEY AVE,MIDDLE
AS-SABEEL ACADEMY,GREER,SC,1601 CLEMENT RD,MIDDLE
ACTON ACADEMY VENICE BEACH,VENICE,CA,2210 LINCOLN BLVD STE 13,MIDDLE
AS-SAFA INSTITUTE/AS-SAFA ACADEMY,SAN JOSE,CA,801 HIBISCUS LN,MIDDLE
ACTS ACADEMY,VALLEY,AL,316 FOB JAMES DR,MIDDLE
ACTS CHRISTIAN ACADEMY,FARMINGTON,NM,2600 SULLIVAN AVE,MIDDLE
ACU ARKANSAS CHILDREN'S UNIVERSITY,HARRISON,AR,400 HWY 43 E,MIDDLE
AD ASTRA SCHOOL,HAWTHORNE,CA,3715 JACK NORTHROP AVE,MIDDLE
ADA CHRISTIAN SCHOOL,ADA,MI,6206 ADA DR SE,MIDDLE
ASBURY CHILD DEVELOPMENT CENTER,SALISBURY,MD,1401 CAMDEN AVE,MIDDLE
ADAIR COMMUNITY DAY,SUNNYVALE,CA,819 WEST IOWA AVE.,MIDDLE
ADAIR ELEMENTARY,SUNNYVALE,CA,830 W. MCKINLEY,MIDDLE
ASBURY KINDERGARTEN & PRESCHOOL,COLUMBIA,SC,1005 ASBURY DR,MIDDLE
ADALINE E. KENT ELEMENTARY,KENTFIELD,CA,250 STADIUM WAY,MIDDLE
ASCEND LEADERSHIP ACADEMY: LEE COUNTY,DURHAM,NC,315 RONDELAY DRIVE,MIDDLE
ADAMS (JOHN) ADULT HIGH,SAN FRANCISCO,CA,1860 HAYES ST.,MIDDLE
ASCENSION ACADEMY,AMARILLO,TX,9300 ASCENSION PKWY,MIDDLE
ADAMS (JOHN)(APHASIA),TORRANCE,CA,2121 W. 238TH ST.,MIDDLE
ASCENSION CATHOLIC DIOCESAN REGIONAL SCHOOL,DONALDSONVILLE,LA,311 SAINT VINCENT ST,MIDDLE
ASCENSION CATHOLIC SCHOOL,MELBOURNE,FL,3000 N HARBOR CITY BLVD,MIDDLE
ASCENSION ELEMENTARY SCHOOL,OAK PARK,IL,601 VAN BUREN ST,MIDDLE
ASCENSION EPISCOPAL KINDERGARTEN,VESTAVIA,AL,1912 CANYON RD,MIDDLE
ASCENSION EPISCOPAL SCHOOL,HOUSTON,TX,2525 SEAGLER,MIDDLE
ASCENSION EPISCOPAL SCHOOL,YOUNGSVILLE,LA,1800 CHEMIN METAIRIE PKWY,MIDDLE
ASCENSION LUTHERAN SCHOOL,FORT WAYNE,IN,8811 SAINT JOE RD,MIDDLE
ASCENSION LUTHERAN SCHOOL,SARASOTA,FL,800 MCINTOSH RD,MIDDLE
ASCENSION LUTHERAN SCHOOL,THOUSAND OAKS,CA,1600 E HILLCREST DR,MIDDLE
ASCENSION LUTHERAN SCHOOL,TORRANCE,CA,17910 PRAIRIE AVE,MIDDLE
ASCENSION LUTHERAN SCHOOL,TUCSON,AZ,1220 W MAGEE RD,MIDDLE
ASCENSION OF OUR LORD CATHOLIC SCHOOL,LA PLACE,LA,1809 GREENWOOD DR,MIDDLE
ASCENSION SCHOOL,CHESTERFIELD,MO,238 SANTA MARIA DR,MIDDLE
ASCENSION SCHOOL,KETTERING,OH,2001 WOODMAN DR,MIDDLE
ASCENSION SCHOOL,NEW YORK,NY,220 W 108TH ST,MIDDLE
ASCENSION SCHOOL,OVERLAND PARK,KS,9510 W 127TH ST,MIDDLE
ASCENSON,LOUISVILLE,KY,4600 LYNNBROOK DR,MIDDLE
ADAMS COUNTY CHRISTIAN ACADEMY,GETTYSBURG,PA,1865 BIGLERVILLE RD,MIDDLE
ASCENT ACADEMIES OF UTAH - WEST VALLEY,WEST VALLEY CITY,UT,3830 SOUTH 5600 WEST,MIDDLE
ADAMS COUNTY CHRISTIAN SCHOOL,WEST UNION,OH,187 WILLOW DR,MIDDLE
ASCENT SCHOOL FOR INDIVIDUALS WITH AUTISM,DEER PARK,NY,819 GRAND BLVD STE 2,MIDDLE
ASHBROOK INDEPENDENT SCHOOL,CORVALLIS,OR,4045 SW RESEARCH WAY,MIDDLE
ASHCREEK RANCH ACADEMY,TOQUERVILLE,UT,652 SHADY LN,MIDDLE
ADAMS INTERNATIONAL SCHOOL,MAIDENS,VA,1655 BROAD ST RD,MIDDLE
ASHE COUNTY EARLY COLLEGE HIGH,WEST JEFFERSON,NC,363 CAMPUS DR,MIDDLE
ADAMS MIDDLE,RICHMOND,CA,5000 PATTERSON CIR.,MIDDLE
ADAMS MONTESSORI SCHOOL,QUINCY,MA,310 ADAMS ST,MIDDLE
ADAMS PROTESTANT REFORMED CHRISTIAN SCHOOL,WYOMING,MI,5539 BYRON CENTER AVE SW,MIDDLE
ADAMS SCHOOL,REDONDO BEACH,CA,2600 RIPLEY AVE.,MIDDLE
ADAMS SCHOOL,ROCKVILLE,IN,600 N ADAMS RD,MIDDLE
ASHERTON EL,ASHERTON,TX,1295 MAY AVE,MIDDLE
ASHERY,FREDERICKSBURG,OH,9135 TR # 652,MIDDLE
ASHEVILLE CATHOLIC SCHOOL,ASHEVILLE,NC,12 CULVERN ST,MIDDLE
ASHEVILLE CHRISTIAN ACADEMY,SWANNANOA,NC,74 RIVERWOOD RD,MIDDLE
ADAMSVILLE PRIMARY SCHOOL,ATLANTA,GA,286 WILSON MILL RD SW,MIDDLE
ASHEVILLE MONTESSORI SCHOOL,ASHEVILLE,NC,15 JULIA ST,MIDDLE
ASHEVILLE SCHOOL,ASHEVILLE,NC,360 ASHEVILLE SCHOOL RD,MIDDLE
ASHEVILLE-PISGAH CHRISTIAN SCHOOL,CANDLER,NC,90 ACADEMY DR,MIDDLE
ADDAMS JUNIOR HIGH,FRESNO,CA,2117 W. MCKINLEY AVE.,MIDDLE
ADDICOTT (IRWIN O.) (TMR),FRESNO,CA,4784 E. DAYTON AVE.,MIDDLE
ASHLAND ELEMENTARY,SAN LEANDRO,CA,15510 USHER ST.,MIDDLE
ADDLESTONE HEBREW ACADEMY,CHARLESTON,SC,1675 RAOUL WALLENBERG BLVD,MIDDLE
ADELAIDE EDUCATIONAL CENTER,PHILADELPHIA,PA,6100 N 21ST ST,MIDDLE
ADELANTO CHARTER ACADEMY,VICTORVILLE,CA,18000 MCCOY CIR.,MIDDLE
ADELANTO MIDDLE,ADELANTO,CA,18295 RACCOON AVE.,MIDDLE
ADELBROOK-THE LEARNING CENTER OF MANCHESTER,MANCHESTER,CT,42 PROSPECT ST,MIDDLE
ASHLAND MONTESSORI SCHOOL,ASHLAND,OH,1515 MIFFLIN AVE,MIDDLE
ADELPHIAN JR. ACADEMY,HOLLY,MI,740 ACADEMY RD,MIDDLE
ASHLAND TECHNICAL COLLEGE,ASHLAND,KY,4818 ROBERTS DRIVE,MIDDLE
ADELPHOI ACADEMY AT HARTFORD HEIGHTS,NORTH HUNTINGDON,PA,15020 ARDARA RD,MIDDLE
ADELPHOI EDUCATION AT ALTOONA,ALTOONA,PA,900 S JAGGARD ST,MIDDLE
ADELPHOI EDUCATION AT BUTLER,BUTLER,PA,120 W CUNNINGHAM ST,MIDDLE
ADELPHOI EDUCATION AT MILLVALE,PITTSBURGH,PA,608 FARRAGUT ST,MIDDLE
ADELPHOI EDUCATION PARTIAL HOSPITALIZATION,LATROBE,PA,310 LIGONIER ST,MIDDLE
ASHLEY ACADEMY,JOHNSON CITY,TN,1502 KNOB CREEK RD,MIDDLE
ADIRONDACK CHRISTIAN SCHOOL,WILMINGTON,NY,6065 NYS ROUTE 86,MIDDLE
ASHLEY HALL SCHOOL,CHARLESTON,SC,172 RUTLEDGE AVE,MIDDLE
ADMINISTRATOR,KITTANNING,PA,215 AURTHER ST,MIDDLE
ADMIRAL FARRAGUT ACADEMY,ST PETERSBURG,FL,501 PARK ST N,MIDDLE
ASHTON ELEMENTARY,SALINAS,CA,112 S. WOOD ST.,MIDDLE
ADOLESCENT DAY TREATMENT CENTER,SAN JOSE,CA,650 S. BASCOM AVE.,MIDDLE
ADOLFO EGUEN,FLORIDA,PR,CARR 641 KM 1 HM 1 BO PAJONAL,MIDDLE
ADOLPH SCHREIBER HEBREW ACADEMY,NEW CITY,NY,360 NEW HEMPSTEAD RD,MIDDLE
ADONAI ACADEMY,CHATTANOOGA,TN,2809 13TH AVE,MIDDLE
ASHVILLE SCHOOL,OXFORD,PA,272 ASHVILLE RD,MIDDLE
ADRIAN MARTINEZ GANDIA,HATILLO,PR,CALLE MANUEL LA COMBA SECT MARINA,MIDDLE
ASHWOOD WALDORF SCHOOL,ROCKPORT,ME,180 PARK ST,MIDDLE
ADRIAN MEDINA,HUMACAO,PR,CARR 921 INTERSECCI?N 914 BO. TEJAS,MIDDLE
ADRIAN MIDDLE SCHOOL 56 BUILDING,ADRIAN,MI,340 EAST CHURCH ST,MIDDLE
ASIA PACIFIC LANGUAGE SCHOOL,BELLEVUE,WA,14040 NE 8TH ST STE 302,MIDDLE
ADULLAM HOUSE CHRISTIAN ACADEMY,WETUMPKA,AL,7469 GEORGIA RD,MIDDLE
ADULT & CAREER EDUCATION CENTER,DANVILLE,VA,141 GOODE STREET,MIDDLE
ADULT ALTERNATIVE EDUCATION,JURUPA VALLEY,CA,4041 PACIFIC AVE.,MIDDLE
ADULT AND CAREER EDUCATION,POMONA,CA,1515 WEST MISSION BLVD.,MIDDLE
ASP - FLORENCE WEST/A.C.I.,FLORENCE,AZ,915 E. DIVERSION DAM RD.,MIDDLE
ASP - MARANA O.C.T.F./A.C.I.,MARANA,AZ,12610 W. SILVERBELL RD.,MIDDLE
ADULT BASIC ED,PLANO,TX,1300 19TH ST,MIDDLE
ASP - PHOENIX WEST/A.C.I.,PHOENIX,AZ,3402 WEST COCOPAH,MIDDLE
ADULT DIAGNOSTIC AND TREATMENT CENTER,AVENEL,NJ,8 PRODUCTION WAY,MIDDLE
ASPC - DOUGLAS/A.C.I.,DOUGLAS,AZ,6911 NORTH B.D.I. BLVD,MIDDLE
ADULT DIVISION CENTER,WHITTIER,CA,9401 SOUTH PAINTER AVE.,MIDDLE
ASPC - SAFFORD/FT. GRANT/A.C.I.,SAFFORD,AZ,896 S. COOK RD.,MIDDLE
ADULT ED,FORT WORTH,TX,1066 W MAGNOLIA,MIDDLE
ADULT ED,POTTERVILLE,MI,420 N HIGH ST,MIDDLE
ADULT ED DEPARTMENT,DEARBORN HEIGHTS,MI,22586 ANN ARBOR TRL,MIDDLE
ASPEN ACADEMY,GREENWOOD VILLAGE,CO,5859 S UNIVERSITY BLVD,MIDDLE
ADULT EDUCATION,CERES,CA,2491 LAWRENCE ST.,MIDDLE
ADULT EDUCATION,FORT MYERS,FL,2855 COLONIAL BLVD,MIDDLE
ADULT EDUCATION,GARDEN GROVE,CA,11262 GARDEN GROVE BLVD.,MIDDLE
ADULT EDUCATION,HILLSDALE,MI,30 SOUTH NORWOOD AVE,MIDDLE
ADULT EDUCATION,MAYO,FL,363 NE CRAWFORD ST,MIDDLE
ADULT EDUCATION,MISSION VIEJO,CA,25598 PETER A. HARTMAN WAY,MIDDLE
ADULT EDUCATION,MOUNTAIN VIEW,CA,333 MOFFETT BLVD.,MIDDLE
ADULT EDUCATION,RED BLUFF,CA,1050 KIMBALL RD.,MIDDLE
ADULT EDUCATION,SAN RAFAEL,CA,PO BOX 390,MIDDLE
ADULT EDUCATION,THOUSAND OAKS,CA,1025 OLD FARM RD.,MIDDLE
ADULT EDUCATION,UPLAND,CA,565 WEST 11TH ST.,MIDDLE
ADULT EDUCATION,VACAVILLE,CA,188-B BELLA VISTA RD.,MIDDLE
ADULT EDUCATION - INDIANTOWN,INDIANTOWN,FL,15255 SW JACKSON AVE,MIDDLE
ADULT EDUCATION CENTER,HIGHLAND SPRINGS,VA,201 EAST NINE MILE ROAD,MIDDLE
ADULT EDUCATION CENTER,SANTA ROSA,CA,2230 LOMITAS AVE.,MIDDLE
ADULT EDUCATION CENTER OF PALM BEACH,WEST PALM BEACH,FL,2161 N MILITARY TRL,MIDDLE
ADULT EDUCATION EASTSIDE UNION,SAN JOSE,CA,625 EDUCATION PARK DR.,MIDDLE
ADULT EDUCATION EVENING PROGRAM,CARMICHAEL,CA,PO BOX 477,MIDDLE
ADULT EDUCATION PROGRAM,GAINESVILLE,FL,620 E UNIVERSITY AVE,MIDDLE
ADULT EDUCATION PROGRAM,SAN JOSE,CA,625 EDUCATIONAL PARK DR.,MIDDLE
ADULT EDUCATION-MARTIN CO HIGH,STUART,FL,2801 S KANNER HWY,MIDDLE
ADULT EVENING,OAKLAND,CA,2455 CHURCH ST.,MIDDLE
ADULT LEARNING CENTER OSCEOLA,KISSIMMEE,FL,2320 NEW BEGINNINGS RD,MIDDLE
ADULT LEARNING CTR.,VIRGINIA BEACH,VA,4160 VIRGINIA BEACH BLVD,MIDDLE
ADULT SATELLITE EAST,DADE CITY,FL,38301 MARTIN LUTHER KING BLVD,MIDDLE
ADULT SATELLITE WEST,NEW PORT RICHEY,FL,7825 CAMPUS DR,MIDDLE
ADULT TRANSITION PROGRAM,MADERA,CA,955 WEST PECAN AVE.,MIDDLE
ADULT VIRTUAL ACADEMY,PALM SPRINGS,FL,4200 PURDY LN BLDG 50-104,MIDDLE
ADULT/COMMUNITY EDUCATION,CRAWFORDVILLE,FL,126 HIGH DR,MIDDLE
ADULT/COMMUNITY EDUCATION,WAUCHULA,FL,901 W MAIN ST,MIDDLE
ASPIRA CHARTER SCHOOLS,CHICAGO,IL,1711 N CALIFORNIA,MIDDLE
ADULT/VOCATIONAL/COMMUNITY EDUCATION,KEY WEST,FL,5901 COLLEGE RD,MIDDLE
ADVANCE ACADEMY AT MATTHEW REARDON CTR FOR AUTISM,SAVANNAH,GA,"6602 ABERCORN ST., STE 200",MIDDLE
ASPIRATIONS SCHOOL OF LEARNING,CARLSBAD,CA,6286 EL CAMINO REAL,MIDDLE
ASPIRE  HIGH SCHOOL,PRESCOTT,AZ,2970 CENTERPOINTE EAST,MIDDLE
ASPIRE ACADEMY,RICHMOND,VA,2020 WESTWOOD AVE,MIDDLE
ADVANCE CHRISTIAN ACADEMY,MIAMI,FL,14420 NW 7TH AVE,MIDDLE
ADVANCE LEARNING ACADEMY,MAITLAND,FL,140 ADVANCE PT,MIDDLE
ADVANCE LEARNING CENTER,SAINT MARYS,GA,3451 CHARLIE SMITH STATE ROAD HWY,MIDDLE
ASPIRE BENJAMIN HOLT MIDDLE,STOCKTON,CA,3293 EAST MORADA LN.,MIDDLE
ADVANCED CAREER EDUCATION CENTER AT HERMITAGE,RICHMOND,VA,8301 HUNGARY SPRING RD,MIDDLE
ADVANCED CAREER EDUCATION CENTER AT HIGHLAND SPRINGS,HIGHLAND SPRINGS,VA,100 TECH DRIVE,MIDDLE
ADVANCED CHRISTIAN ACADEMY,GRESHAM,OR,2500 SE PALMBLAD RD,MIDDLE
ADVANCED PREPARATORY INTERNATIONAL,DALLAS,TX,5787 S HAMPTON RD STE 115,MIDDLE
ADVANCED TECHNOLOGY CENTER,VIRGINIA BEACH,VA,1800 COLLEGE CRESCENT,MIDDLE
ASPIRE OF WNY/CTR FOR LEARNING,CHEEKTOWAGA,NY,4635 UNION RD,MIDDLE
ADVANCED VIRTUAL ACADEMY,HOUSTON,TX,1102 TELEPHONE RD,MIDDLE
ASSEMBLY CHRISTIAN SCHOOL,NEW IBERIA,LA,4219 E ADMIRAL DOYLE DR,MIDDLE
ASSEMBLY OF FAITH CHR. SCHOOL,DALLAS,NC,1030 LOWER DALLAS HWY,MIDDLE
ASSETS SCHOOL,HONOLULU,HI,1 OHANA NUI WAY,MIDDLE
ADVANTAGE ARTS ACADEMY,FARMINGTON,UT,454 S. 500 E.,MIDDLE
ASSUMPTION ACADEMY,BROADVIEW HEIGHTS,OH,9183 BROADVIEW RD,MIDDLE
ADVENT EPISCOPAL DAY SCHOOL,BIRMINGHAM,AL,2019 6TH AVE N,MIDDLE
ADVENT LUTHERAN PRESCHOOL,ZIONSVILLE,IN,11250 N MICHIGAN RD,MIDDLE
ADVENT LUTHERAN SCHOOL,BOCA RATON,FL,300 E YAMATO RD,MIDDLE
ASSUMPTION ACADEMY,STRAFFORD,PA,135 FAIRFIELD LN,MIDDLE
ASSUMPTION BVM ELEMENTARY SCHOOL,PULASKI,WI,109 E PULASKI ST,MIDDLE
ADVENTIST ACADEMY OF SANTA FE,SANTA FE,NM,702 BISHOPS LODGE RD,MIDDLE
ASSUMPTION BVM SCHOOL,BELMONT,MI,6393 BELMONT AVE NE,MIDDLE
ADVENTIST CHRISTIAN ACADEMY,CHARLOTTE,NC,4601 EMORY LN,MIDDLE
ASSUMPTION BVM SCHOOL,POTTSVILLE,PA,112 S 7TH ST,MIDDLE
ADVENTIST CHRISTIAN ACADEMY,NEW PORT RICHEY,FL,4416 THYS RD,MIDDLE
ASSUMPTION BVM SCHOOL,WEST GROVE,PA,290 STATE ROAD,MIDDLE
ADVENTIST CHRISTIAN ACADEMY,PANAMA CITY,FL,2700 LISENBY AVE,MIDDLE
ASSUMPTION CATHOLIC SCHOOL,BELLINGHAM,WA,2116 CORNWALL AVE,MIDDLE
ADVENTIST CHRISTIAN ACADEMY,RALEIGH,NC,4805 DILLARD DR,MIDDLE
ASSUMPTION CATHOLIC SCHOOL,DENVER,CO,2341 E 78TH AVE,MIDDLE
ADVENTIST CHRISTIAN ELEMENTARY,BLOOMINGTON,IN,2230 N MARTHA ST,MIDDLE
ASSUMPTION CATHOLIC SCHOOL,DURAND,WI,901 W PROSPECT ST,MIDDLE
ASSUMPTION CATHOLIC SCHOOL,HIBBING,MN,2310 7TH AVE E,MIDDLE
ASSUMPTION CATHOLIC SCHOOL,HOUSTON,TX,801 ROSELANE ST,MIDDLE
ASSUMPTION CATHOLIC SCHOOL,JACKSONVILLE,FL,2431 ATLANTIC BLVD,MIDDLE
ADVENTIST CHRISTIAN SCHOOL,DETROIT LAKES,MN,404 RICHWOOD RD,MIDDLE
ASSUMPTION CATHOLIC SCHOOL,PERTH AMBOY,NJ,380 MEREDITH ST,MIDDLE
ADVENTIST CHRISTIAN SCHOOL,KLAMATH FALLS,OR,2499 MAIN ST,MIDDLE
ASSUMPTION EARLY CHILDHOOD CENTER,EMERSON,NJ,35 JEFFERSON AVE,MIDDLE
ADVENTIST CHRISTIAN SCHOOL,RIDGECREST,CA,555 W LAS FLORES AVE,MIDDLE
ADVENTIST CHRISTIAN SCHOOL,WILLITS,CA,22751 BRAY RD,MIDDLE
ADVENTIST CHRISTIAN SCHOOL OF MARYVILLE,MARYVILLE,TN,2925 SEVIERVILLE RD,MIDDLE
ADVENTIST MALAMA ELEMENTARY SCHOOL,WAIANAE,HI,86-072 FARRINGTON HWY,MIDDLE
ASSUMPTION HIGH SCHOOL,LOUISVILLE,KY,2170 TYLER LN,MIDDLE
ASSUMPTION HIGH SCHOOL,WISCONSIN RAPIDS,WI,445 CHESTNUT ST,MIDDLE
ASSUMPTION MIDDLE SCHOOL,WISCONSIN RAPIDS,WI,440 MEAD ST,MIDDLE
ASSUMPTION OF THE BVM ELEMENTARY SCHOOL,PASADENA,CA,2660 E ORANGE GROVE BLVD,MIDDLE
ASSUMPTION OF THE BVM SCHOOL,MORRISTOWN,NJ,63 MACCULLOCH AVE,MIDDLE
ASSUMPTION PARISH SCHOOL,SAINT LOUIS,MO,4709 MATTIS RD,MIDDLE
ASSUMPTION PARISH SCHOOL,SPOKANE,WA,3618 W INDIAN TRL RD,MIDDLE
ASSUMPTION SCHOOL,ANSONIA,CT,51 N CLIFF ST,MIDDLE
ASSUMPTION SCHOOL,LOS ANGELES,CA,3016 WINTER ST,MIDDLE
ASSUMPTION SCHOOL,SAN LEANDRO,CA,1851 136TH AVE,MIDDLE
ASSUMPTION SCHOOL,WALLA WALLA,WA,2066 E ALDER ST,MIDDLE
ASSUMPTION-ST BRIDGET SCHOOL,SEATTLE,WA,6220 32ND AVE NE,MIDDLE
ASSURANCE ACADEMY CHRISTIAN SCHOOL,ROCKLEDGE,FL,1009 S FISKE BLVD,MIDDLE
ADVENTURE CHRISTIAN ACADEMY,TAVARES,FL,3800 STATE ROAD 19,MIDDLE
ADVENTURE ISLAND CHRISTIAN SCHOOL,MURRIETA,CA,40515 CALIFORNIA OAKS RD,MIDDLE
ADVENTURE MONTESSORI LEARNING CENTER,LAFAYETTE,CO,250 S CHERRYWOOD DR,MIDDLE
ADVENTURES IN LEARNING,SATELLITE BEACH,FL,590 CASSIA BLVD,MIDDLE
AEF - WESTHAM ACADEMY,DAVIE,FL,5725 ORANGE DR,MIDDLE
AEF SCHOOLS,DAVIE,FL,4650 SW 61ST AVE,MIDDLE
ASTORIA LUTHERAN SCHOOL,ASTORIA,NY,3120 21ST AVE,MIDDLE
AEP CAMPUS,HOWE,TX,105 W TUTT ST,MIDDLE
ASTRA NOVA SCHOOL,LOS ANGELES,CA,574 HILGARD AVE,MIDDLE
ASU ACADEMY AT MIDDLE FORK,WALKERTOWN,NC,3125 WILLISTON ROAD,MIDDLE
AESA PREP ACADEMY,AUSTIN,TX,14101 CANONADE,MIDDLE
AFA ACADEMY/HOWARD PARK CENTER,WILDWOOD,MO,16375 PIERSIDE LN,MIDDLE
AFRICA-CARE ACADEMY,DALLAS,TX,724 W 10TH ST,MIDDLE
AFTERNOON GROUP LEARNING CENTERS,TOWSON,MD,105 W. CHESAPEAKE AVENUE,MIDDLE
AFTON CHRISTIAN SCHOOL,AFTON,VA,9357 CRITZERS SHOP RD,MIDDLE
AG MONTESSORI SCHOOL,UNIONTOWN,PA,199 EDISON ST,MIDDLE
AGAPE ACADEMY & CHILD DEVELOPMENT CENTER,SAINT LOUIS,MO,7400 OLIVE BLVD,MIDDLE
AGAPE CHRISTIAN ACADEMY,CORSICANA,TX,3116 W STATE HIGHWAY 22,MIDDLE
ATASCOCITA MONTESSORI SCHOOL,HUMBLE,TX,19120 W LAKE HOUSTON PKWY,MIDDLE
AGAPE CHRISTIAN ACADEMY,LOBECO,SC,42 KEANS NECK RD,MIDDLE
AGAPE CHRISTIAN ACADEMY,MOORE HAVEN,FL,24068 US HIGHWAY 27,MIDDLE
ATASCOSA CO ALTER,JOURDANTON,TX,1508 CAMPBELL ST,MIDDLE
AGAPE CHRISTIAN ACADEMY,ORLANDO,FL,2425 N HIAWASSEE RD,MIDDLE
AGAPE CHRISTIAN HIGH SCHOOL,MARION,IL,5208 MEADOWLAND PKWY # A,MIDDLE
ATASCOSA COUNTY JJAEP,JOURDANTON,TX,1508 CAMPBELL ST,MIDDLE
AGAPE CHRISTIAN SCHOOL,MISSION,TX,1401 E 24TH ST,MIDDLE
AGAPE CHRISTIAN SCHOOL OF SARASOTA,SARASOTA,FL,150 N SHADE AVE,MIDDLE
ATASCOSA JUVENILE DETENTION CTR,JOURDANTON,TX,711 BROADWAY ST,MIDDLE
AGAPE GARDEN MONTESSORI SCHOOL,KOKOMO,IN,804 S PURDUM ST,MIDDLE
AGAPE JR ACADEMY,LAWRENCEVILLE,GA,186 NEW HOPE RD,MIDDLE
AGAPE LEARNING CENTER,NEW CASTLE,IN,3200 S 14TH ST,MIDDLE
AGAPE MONTESSORI SCHOOL,EL MONTE,CA,9537 TELSTAR AVE STE 129,MIDDLE
ATCHISON HIGH  SCHOOL,ATCHISON,KS,1500 W. RILEY ST,MIDDLE
AGAPE MONTESSORI SCHOOL,OLATHE,KS,16550 W 129TH ST,MIDDLE
AGAPE SCHOOL FOR GIRLS,WALWORTH,WI,215 S MAIN ST,MIDDLE
AGAPELAND CHRISTIAN ACADEMY,BAKERSFIELD,CA,1030 4TH ST,MIDDLE
AGATHOS CLASSICAL SCHOOL,COLUMBIA,TN,1201 MAPLEASH AVE,MIDDLE
ATERES BAIS YAAKOV,LAKEWOOD,NJ,360 OAK ST,MIDDLE
ATERES BAIS YAAKOV ACADEMY OF ROCKLAND,AIRMONT,NY,236 CHERRY LN,MIDDLE
ATERES TZIPORA,LAKEWOOD,NJ,150 OBERLIN AVE N STE 7,MIDDLE
ATHENA DAY SCHOOL,PLYMOUTH,MA,123 S ST,MIDDLE
AGBU MANOOGIAN-DEMIRDJIAN SCHOOL,CANOGA PARK,CA,6844 OAKDALE AVE,MIDDLE
AGBU VATCHE AND TAMAR MANOUKIAN HIGH SCHOOL,PASADENA,CA,2495 E MOUNTAIN ST,MIDDLE
ATHENA MONTESSORI ACADEMY,AUSTIN,TX,1503 MORGAN LN,MIDDLE
AGETS,FLUSHING,NY,13030 31ST AVE,MIDDLE
AGGIELAND COUNTRY SCHOOL,COLLEGE STATION,TX,1500 QUAIL RUN,MIDDLE
AGIA SOPHIA ACADEMY,BEAVERTON,OR,14485 SW WALKER RD,MIDDLE
ATHENIAN ACADEMY CHARTER SCHOOL,CLEARWATER,FL,2289 N HERCULES AVE,MIDDLE
ATHENOUR EARLY CHILDHOOD EDUCATION CENTER,SAN JOSE,CA,5200 DENT AVE,MIDDLE
ATHENS ACADEMY,ATHENS,GA,1281 SPARTAN LN,MIDDLE
AGNES J. JOHNSON  ELEMENTARY,WEOTT,CA,73 SCH RD.,MIDDLE
ATHENS BIBLE SCHOOL,ATHENS,AL,507 S HOFFMAN ST,MIDDLE
ATHENS CHRISTIAN ACADEMY,ATHENS,TX,105 S CARROLL ST,MIDDLE
ATHENS CHRISTIAN PREPARATORY ACADEMY,ATHENS,TX,2621 US HIGHWAY 175 E,MIDDLE
ATHENS EL,SAN ANTONIO,TX,2707 W GERALD AVE,MIDDLE
AGNES WEBER MEADE  (SDL),MARYSVILLE,CA,19TH & AHERN STS.,MIDDLE
AGNEW ELEMENTARY,SANTA CLARA,CA,2250 AGNEW RD.,MIDDLE
AGNUS DEI CHRISTIAN SCHOOL,MIRA LOMA,CA,10514 ROUSELLE DR,MIDDLE
ATHENS MONTESSORI SCHOOL,ATHENS,GA,3145 BARNETT SHOALS RD,MIDDLE
AGUA-DULCE SCHOOL (EH),AGUA DULCE,CA,32700 N. AGUA DULCE,MIDDLE
ATHERTON JR  SR HIGH SCHOOL,BURTON,MI,3354 SOUTH GENESEE RD,MIDDLE
AGUSTIN BALSEIRO,BARCELONETA,PR,CARR 684 KM 15 BO PALMAS ALTAS,MIDDLE
AGUSTIN DUENO,JUNCOS,PR,CARR 185 KM 19 HM 7 BO LAS PI?AS,MIDDLE
AGUSTIN ORTIZ RIVERA,JAYUYA,PR,CALLE GULLERMO ESTEVES,MIDDLE
AHB COMMUNITY SCHOOL,AUSTIN,TX,4001 SPEEDWAY,MIDDLE
AHOSKIE CHRISTIAN SCHOOL,AHOSKIE,NC,500 KIWANIS ST,MIDDLE
AHRENS CHILD CARE CENTER,REDLANDS,CA,201 N UNIVERSITY ST,MIDDLE
AHWATUKEE FOOTHILLS MONTESSORI,PHOENIX,AZ,3221 E CHANDLER BLVD,MIDDLE
AI XIN LEARNING CENTER,NEWARK,CA,5437 CENTRAL AVE,MIDDLE
AIA LANCASTER MIDDLE,LANCASTER,TX,901 E BELTLINE RD,MIDDLE
ATLANTA ADVENTIST ACADEMY,DULUTH,GA,2959 DULUTH HWY 120,MIDDLE
AICHHORN SCHOOL (THE),NEW YORK,NY,23 W 106TH ST,MIDDLE
ATLANTA ADVENTIST INTERNATIONAL SCHOOL,JONESBORO,GA,9940 DIXON INDUSTRIAL BLVD,MIDDLE
ATLANTA COUNTRY DAY SCHOOL,ATLANTA,GA,8725 DUNWOODY PL STE 2,MIDDLE
ATLANTA ELEM.,RIPON,CA,15301 E. FRENCH CAMP RD.,MIDDLE
ATLANTA GIRLS SCHOOL,ATLANTA,GA,3254 NORTHSIDE PKWY NW,MIDDLE
ATLANTA INTERNATIONAL SCHOOL,ATLANTA,GA,2890 N FULTON DR NE,MIDDLE
ATLANTA JEWISH ACADEMY,ATLANTA,GA,5200 NORTHLAND DR,MIDDLE
ATLANTA JEWISH ACADEMY UPPER SCHOOL,ATLANTA,GA,5200 NORTHLAND DR,MIDDLE
ATLANTA MONTESSORI INTERNATIONAL SCHOOL,ATLANTA,GA,1970 CLIFF VALLEY WAY NE STE 250,MIDDLE
AIDAN MONTESSORI SCHOOL,WASHINGTON,DC,2700 27TH ST NW,MIDDLE
ATLANTA NORTH SCHOOL OF SEVENTH-DAY ADVENTISTS,DUNWOODY,GA,5123 CHAMBLEE DUNWOODY RD,MIDDLE
ATLANTA SPEECH SCHOOL,ATLANTA,GA,3160 NORTHSIDE PKWY NW,MIDDLE
ATLANTA TRILINGUAL ACADEMY,ATLANTA,GA,2581 B SPRING RD,MIDDLE
ATLANTA YOUTH ACADEMY,ATLANTA,GA,2120 FORREST PARK RD SE,MIDDLE
AIKENS FBC PRESCHOOL,AIKEN,SC,120 CHESTERFIELD ST N,MIDDLE
ATLANTIC AMISH SCHOOL,ATLANTIC,PA,9778 ATLANTIC RD,MIDDLE
AIM ACADEMY,CONSHOHOCKEN,PA,1200 RIVER RD STE 100,MIDDLE
ATLANTIC CHRISTIAN ACADEMY OF THE PALM BEAC,WEST PALM BEACH,FL,4900 SUMMIT BLVD,MIDDLE
ATLANTIC CHRISTIAN SCHOOL,EGG HARBOR TOWNSHIP,NJ,391 ZION RD,MIDDLE
AIMS COLLEGE PREP MIDDLE,OAKLAND,CA,171 12TH ST.,MIDDLE
AINSWORTH ELEMENTARY SCHOOL,AINSWORTH,IA,835 PARK STREET,MIDDLE
ATLANTIC HIGH ADULT EDUCATION CENTER,DELRAY BEACH,FL,2455 W ATLANTIC AVE,MIDDLE
ATLANTIC REGIONAL SCHOOL,EGG HARBOR,NJ,2562 TILTON RD,MIDDLE
ATLANTIC SHORES CHRISTIAN SCHOOL,CHESAPEAKE,VA,1217 N CENTERVILLE TPKE,MIDDLE
AIR POINT ELEMENTARY,MILPITAS,CA,CALAVERAS RD.,MIDDLE
AIRPORT JUNIOR HIGH,LOS ANGELES,CA,9000 AIRPORT BLVD.,MIDDLE
AKAULA SCHOOL,KUALAPUU,HI,900 KALAE HWY,MIDDLE
ATLANTIS ACADEMY,CORAL SPRINGS,FL,11411 NW 56TH DR,MIDDLE
ATLANTIS ACADEMY,MIAMI,FL,9600 SW 107 AVE,MIDDLE
ATLANTIS ACADEMY PALM BEACHES,WEST PALM BEACH,FL,1950 PRAIRIE RD,MIDDLE
ATLANTIS PREP SCHOOL,MANASQUAN,NJ,1904 ATLANTIC AVE,MIDDLE
AKIBA ACADEMY OF DALLAS,DALLAS,TX,12324 MERIT DR,MIDDLE
AKIBA-SCHECHTER JEWISH DAY SCHOOL,CHICAGO,IL,5235 S CORNELL AVE,MIDDLE
ATLAS INTERNATIONAL SCHOOL,RALEIGH,NC,4112 GARLAND DR,MIDDLE
ATLEE CHRISTIAN ACADEMY,MECHANICSVILLE,VA,8391 ATLEE RD,MIDDLE
ATMORE CHRISTIAN SCHOOL,ATMORE,AL,245 TENNANT DR,MIDDLE
AKIVA ACADEMY,YOUNGSTOWN,OH,505 GYPSY LN,MIDDLE
AKIVA SCHOOL,NASHVILLE,TN,809 PERCY WARNER BLVD,MIDDLE
ATONEMENT ACADEMY,SAN ANTONIO,TX,15415 RED ROBIN RD,MIDDLE
ATONEMENT CHRISTIAN DAY SCHOOL,BARRINGTON,IL,909 E MAIN ST,MIDDLE
ATONEMENT LUTHERAN,GLENDALE,AZ,4001 W BEARDSLEY RD,MIDDLE
ATONEMENT LUTHERAN SCHOOL,FLORISSANT,MO,1285 N NEW FLORISSANT RD,MIDDLE
ATONEMENT LUTHERAN SCHOOL,METAIRIE,LA,6500 RIVERSIDE DR,MIDDLE
ATONEMENT LUTHERAN SCHOOL,MILWAUKEE,WI,4224 W RUBY AVE,MIDDLE
ATRIUM SCHOOL,WATERTOWN,MA,69 GROVE ST,MIDDLE
ATT-P TACH SPECIAL EDUCATION PROG,SKOKIE,IL,4200 MAIIN ST,MIDDLE
ATTAIN CHILDHOOD DEVELOPMENT CENTER,ORLANDO,FL,2710 STATEN AVE,MIDDLE
ATTEN. SCHOOL TREASURER,LAVALLE,WI,QUAKER VALLEY AND COUNTY ROAD G,MIDDLE
AKRON FIRST ACADEMY & PRESCHOOL,AKRON,OH,1175 W MARKET ST,MIDDLE
ATTN: TERESA DEBARSCHMIDT,MANSFIELD,OH,104 W 1ST ST,MIDDLE
AKRON MONTESSORI SCHOOL,FAIRLAWN,OH,3882 BYWOOD AVE,MIDDLE
AKTIV LEARNING ACADEMY,MIAMI,FL,6405 NW 36TH ST STE 104,MIDDLE
AKWESASNE FREEDOM SCHOOL,HOGANSBURG,NY,131 INDIAN VILLAGE RD,MIDDLE
AL FATIH ACADEMY,RESTON,VA,12300 PINECREST RD,MIDDLE
AL HUDA ACADEMY,DURHAM,NC,5104 REVERE RD,MIDDLE
AL HUDA ISLAMIC SCHOOL,TUCSON,AZ,2800 E RIVER RD,MIDDLE
AL IHSAN SCHOOL,CLEVELAND,OH,4600 ROCKY RIVER DR,MIDDLE
AL MADINA SCHOOL OF RICHMOND,MIDLOTHIAN,VA,10700 ACADEMY DR,MIDDLE
AL MADRASA AL ISLAMIYA,BROOKLYN,NY,5224 3RD AVE STE 1,MIDDLE
AL MOSHEH POSTIVE ED,PHILADELPHIA,PA,3972 CAMBRIDGE ST,MIDDLE
AL-AMAL SCHOOL,FRIDLEY,MN,1401 GARDENA AVE NE,MIDDLE
AL-ANSAR ACADEMY,ANAHEIM,CA,1717 S BROOKHURST ST,MIDDLE
AL-ARQAM ISLAMIC SCHOOL,SACRAMENTO,CA,6990 65TH ST,MIDDLE
AL-FALAH ACADEMY,LILBURN,GA,4805 LAWRENCEVILLE HWY NW STE 220,MIDDLE
AL-FURQAN ACADEMY,JACKSONVILLE,FL,2333 SAINT JOHNS BLUFF RD S,MIDDLE
AL-FURQUAN ACADEMY,NORCROSS,GA,568 N NORCROSS TUCKER RD,MIDDLE
AL-HADI SCHOOL OF ACCELERATIVE LEARNING,HOUSTON,TX,2313 S VOSS RD,MIDDLE
AUBURN ADVENTIST ACADEMY,AUBURN,WA,5000 AUBURN WAY S,MIDDLE
AUBURN AREA CATHOLIC SCHOOL,AUBURN,MI,114 W MIDLAND RD,MIDDLE
AL-HAMRA ACADEMY,SHREWSBURY,MA,435 S ST,MIDDLE
AL-HIKMAH ELEMENTARY SCHOOL,PROSPECT PARK,NJ,278 N 8TH ST,MIDDLE
AL-HUDA,CAMP HILL,PA,1007 RANA VILLA AVE,MIDDLE
AL-HUDA ACADEMY,SCHAUMBURG,IL,435 SPRINGSOUTH RD,MIDDLE
AL-HUDA SCHOOL,COLLEGE PARK,MD,5301 EDGEWOOD RD,MIDDLE
AL-IHSAN ACADEMY,SOUTH OZONE PARK,NY,13008 ROCKAWAY BLVD,MIDDLE
AUBURN CLASSICAL ACADEMY INC.,OPELIKA,AL,1901-B WAVERLY PKWY,MIDDLE
AL-IMAN ACADEMY OF MOBILE,MOBILE,AL,63 E DR,MIDDLE
AL-IMAN SCHOOL,RALEIGH,NC,3020 LIGON ST,MIDDLE
AL-MADINAH SCHOOL,BROOKLYN,NY,383 3RD AVE,MIDDLE
AL-MAMOOR SCHOOL,FRESH MEADOWS,NY,7831 PARSONS BLVD,MIDDLE
AL-NOOR ACADEMY,MANSFIELD,MA,20 CHURCH ST,MIDDLE
AL-NOOR SCHOOL,BROOKLYN,NY,675 4TH AVE,MIDDLE
AL-QALAM ACADEMY,SPRINGFIELD,VA,6666 COMMERCE ST,MIDDLE
AL-RAHMAH SCHOOL,BALTIMORE,MD,6631 JOHNNYCAKE RD,MIDDLE
AL-SALAM DAY SCHOOL,MANCHESTER,MO,519 WEIDMAN RD,MIDDLE
ALA QC  ELEM,QUEEN CREEK,AZ,19843 E. CHANDLER HEIGHTS RD.,MIDDLE
ALABAMA CHRISTIAN ACADEMY,MONTGOMERY,AL,4700 WARES FERRY RD,MIDDLE
AUBURN HILLS CHRISTIAN SCHOOL,AUBURN HILLS,MI,3655 N SQUIRREL RD,MIDDLE
AUBURN HILLS SCHOOL,BALTIC,OH,10895 HILLTOP RD SW,MIDDLE
ALABAMA WALDORF SCHOOL,BIRMINGHAM,AL,5901 CRESTWOOD BLVD,MIDDLE
AUBURN MONTESSORI SCHOOL,AUBURN,NH,78 ROCKINGHAM RD,MIDDLE
ALAKA'I O KAUA'I CHARTER SCHOOL,KOLOA,HI,2-4035 KAUMUALII HWY,MIDDLE
ALAMANCE CHRISTIAN SCHOOL,GRAHAM,NC,1336 TOWN BRANCH RD,MIDDLE
ALAMEDA ADULT,ALAMEDA,CA,2201 ENCINAL AVE.,MIDDLE
ALAMEDA CHRISTIAN SCHOOL,ALAMEDA,CA,2226 PACIFIC AVE,MIDDLE
AUCILLA CHRISTIAN ACADEMY,MONTICELLO,FL,7803 AUCILLA RD,MIDDLE
ALAMEDA COUNTY SPECIAL EDUCATION,HAYWARD,CA,313 W. WINTON AVE.,MIDDLE
AUCOCISCO SCHOOL,CAPE ELIZABETH,ME,126 SPURWINK AVE,MIDDLE
ALAMOS ELEMENTARY,WINCHESTER,CA,31989 BENTON RD.,MIDDLE
AUDUBON EL SCH,AUDUBON,PA,2765 EGYPT RD,MIDDLE
ALANE ACADEMY,WAUCHULA,FL,316 TERRELL RD,MIDDLE
AUDUBON JH MAGNET,LOS ANGELES,CA,4120 11TH AVE.,MIDDLE
AUDUBON PRIMARY,ALTADENA,CA,725 WEST ALTADENA DR.,MIDDLE
AUDUBON YOUTH DEVELOPMENT CENTER,LOUISVILLE,KY,8711 LAGRANGE RD,MIDDLE
AUGSBURG PARK MONTESSORI SCHOOL,RICHFIELD,MN,7121 BLOOMINGTON AVE,MIDDLE
AUGUSTA AMISH PAROCHIAL SCHOOLS,AUGUSTA,WI,S11360 COUNTY ROAD G,MIDDLE
AUGUSTA CHRISTIAN,MARTINEZ,GA,313 BASTON RD,MIDDLE
ALAZHAR SCHOOL,TAMARAC,FL,7201 W MCNAB RD,MIDDLE
AUGUSTA FIRST SEVENTH DAY ADVENTIST SCHOOL,AUGUSTA,GA,4301 WHEELER RD,MIDDLE
ALBANY ACADEMIES,ALBANY,NY,135 ACADEMY RD,MIDDLE
ALBANY ADULT,ALBANY,CA,603 KEY ROUTE BLVD.,MIDDLE
ALBANY AREA SCHOOLS EARLY CHILDHOOD,AVON,MN,212 1ST ST SW,MIDDLE
AUGUSTA MENNONITE SCHOOL,AUGUSTA,WI,E19280 COUNTY ROAD GG,MIDDLE
ALBANY CHRISTIAN SCHOOL,ALBANY,OR,420 3RD AVE SE,MIDDLE
AUGUSTA PREPARATORY DAY SCHOOL,MARTINEZ,GA,285 FLOWING WELLS RD,MIDDLE
ANTHONY ELEMENTARY,MONDOVI,WI,S12115 STATE HWY 37,MIDDLE
123 YOU N ME PRESCHOOL,PEORIA,IL,809 W DETWEILLER DR STE A,MIDDLE
138TH STREET,HAWTHORNE,CA,5403 WEST 138TH ST.,MIDDLE
ANTHONY J. INFANTE SCHOOL,JERSEY CITY,NJ,3055 KENNEDY BLVD,MIDDLE
1408 S. GOLIAD ST.,ROCKWALL,TX,1408 S GOLIAD ST,MIDDLE
1ST BAPTIST CHURCH PRESCHOOL,WARREN,AR,310 S MAIN ST,MIDDLE
1ST CEREBRAL PALSY OF NJ,BELLEVILLE,NJ,7 SANFORD AVE,MIDDLE
1ST CLASS MONTESSORI,CORDOVA,TN,1725 APPLING RD,MIDDLE
1ST UNITED METHODIST PRESCHOOL & KINDERGARTEN,ROCKY MOUNT,NC,100 S CHURCH ST,MIDDLE
21 CENTURY STEM ACADEMY,DECATUR,GA,1549 CLAIRMONT RD STE 103,MIDDLE
21ST CENTURY ACADEMY,HOPKINSVILLE,KY,210 GLASS AVE,MIDDLE
ANTIOCH ADULT,ANTIOCH,CA,820 WEST SECOND ST.,MIDDLE
ANTIOCH BAPTIST CHRISTIAN ACADEMY,KNOXVILLE,TN,5709 N BROADWAY ST,MIDDLE
ANTIOCH CHRISTIAN ACADEMY,ANTIOCH,CA,1509 MONTEREY DR,MIDDLE
ANTIOCH CHRISTIAN ACADEMY,OKLAHOMA CITY,OK,3616 SW 119TH ST,MIDDLE
2450 CHILDCARE INC DBA HAPPY DAYS CHILDCARE,HIGHLAND,IN,2645 MAIN ST,MIDDLE
247 LEARNING ACADEMY,ORLANDO,FL,7015 OAKMORE LN,MIDDLE
ANTIOCH SCHOOL,FALL RIVER,MA,618 ROCK ST,MIDDLE
2ND NATURE ACADEMY,NASHUA,NH,10 GROTON RD,MIDDLE
3 R COMMUNITY DAY,NEVADA CITY,CA,13061 NEVADA CITY HWY.,MIDDLE
ANTON P E P,MORTON,TX,500 CHAMPION DR,MIDDLE
3088 E 800 N,BRYANT,IN,9585 S 150 E,MIDDLE
3RD H S,WYLIE,TX,951 S BALLARD,MIDDLE
4 OUR KIDS LEARNING ACADEMY,BAYTOWN,TX,7625 GARTH RD,MIDDLE
40 SYLVAN PETERSHEIM,ELIZABETHVILLE,PA,451 RAKERS MILL RD,MIDDLE
4POINTS ACADEMY,AUSTIN,TX,"5145 RANCH RD 620 NORTH, STE G-130",MIDDLE
565 ACADEMY,TOLEDO,OH,3700 DORR ST,MIDDLE
601 SCHOOL,SAN BERNARDINO,CA,1472 E SIXTH ST.,MIDDLE
63RD ST MULTICULTURAL ACAD OF ACADEMIC EXCELLENCE,PHILADELPHIA,PA,5828 MARKET ST,MIDDLE
ANTONIA SAEZ,HUMACAO,PR,CALLE FONT MARTELO ESQUINA ROOSEVELT,MIDDLE
72 E W 7,ORLANDO,FL,445 W AMELIA ST,MIDDLE
ANTONIO PAGAN,LAJAS,PR,CARR 316 KM 1 HM 4 BO CANDELARIA,MIDDLE
ANTONIO RIVERA,COROZAL,PR,CARR 802 KM O HM 5 BO PALMARITO,MIDDLE
ANTONIO S PAOLI (MUSICA),CAGUAS,PR,AVE JOSE VILLARES ESQ RAFAEL CORDERO,MIDDLE
ANTRIM MENNONITE SCHOOL,FREEPORT,OH,20360 CADIZ RD,MIDDLE
7TH H S - NORTHEAST,ROUND ROCK,TX,1311 ROUND ROCK AVE,MIDDLE
9 FRUITS LEARNING CENTER,MOUNTAIN VIEW,CA,2484 OLD MIDDLE FIELD WAY,MIDDLE
ANZA ELEMENTARY,SAN FRANCISCO,CA,40 VEGA ST.,MIDDLE
ANZA VALLEY CHRISTIAN SCHOOL,ANZA,CA,39200 ROLLING HILLS RD,MIDDLE
AOC-GRAHAM COUNTY JUVENILE DETENTION CENTER,SAFFORD,AZ,919 THATCHER,MIDDLE
91ST PSALM CHRISTIAN SCHOOL,PHOENIX,AZ,2020 E BASELINE RD,MIDDLE
9THBRIDGE SCHOOL,LAS VEGAS,NV,310 S 9TH ST,MIDDLE
A B C LITTLE SCHOOL,VAN NUYS,CA,6447 WOODMAN AVE,MIDDLE
A BETTER CHANCE SCHOOL/CAL AUTISM FOUNDATION,RICHMOND,CA,4138 LAKESIDE DR,MIDDLE
A BOOKS CHRISTIAN ACADEMY,APOPKA,FL,1001 ROGER WILLIAMS RD,MIDDLE
A CARING TOUCH CHRISTIAN FAMILY CENTER,PALMDALE,CA,3035 E AVE S,MIDDLE
A CHILD S PLACE,BALTIMORE,MD,4701 N CHARLES ST,MIDDLE
A CHILD S PLACE SCHOOL,LINCROFT,NJ,1409 W FRONT ST,MIDDLE
A CHILD'S CHOICE MONTESSORI SCHOOL,BETHLEHEM,PA,402 3RD AVE,MIDDLE
A CHILD'S CHOICE MONTESSORI SCHOOL,MERIDIAN,ID,1797 S MILLENIUM WAY,MIDDLE
APEX FRIENDSHIP MIDDLE,APEX,NC,7801 HUMIE OLIVE RD,MIDDLE
A CHILD'S GARDEN,BEND,OR,2150 NE STUDIO RD STE 1,MIDDLE
A CHILD'S PLACE DAY SCHOOL,EAST ELMHURST,NY,32-20 108TH ST,MIDDLE
A CHILD'S TOUCH,THORNTON,CO,9141 POZE BLVD,MIDDLE
APHASIC CLASSES,CAPITOLA,CA,504 MONTEREY AVE.,MIDDLE
APHASIC/BROOK KNOLL,SCOTTS VALLEY,CA,150 TREE TOP DR.,MIDDLE
A CHILDREN'S HABITAT MONTESSORI SCHOOL,INDIANAPOLIS,IN,801 W 73RD ST,MIDDLE
A CHILDRENS PLACE LEARNING CENTER,ALLENTOWN,PA,719 ROBLE RD,MIDDLE
A CHILDS GARDEN MONTESSORI SCHOOL,CARROLLTON,TX,1935 OLD DENTON RD,MIDDLE
A CHILDS PLACE TOO,EAST ELMHURST,NY,3220 108TH ST,MIDDLE
A CHILDS UNIVERSITY,CRANSTON,RI,695 PARK AVE,MIDDLE
A CHILDS WORLD,DOYLESTOWN,PA,2001 S EASTON RD,MIDDLE
A CHILDS WORLD,NEWTOWN,PA,2147 S EAGLE RD,MIDDLE
APOLLO,CHANNELVIEW,TX,1019 DELL DALE,MIDDLE
A COUNTRY GARDEN MONTESSORI,ENUMCLAW,WA,38722 264TH AVE SE,MIDDLE
A DARE TO CARE LEARNING CENTER,CULVER CITY,CA,4356 OVERLAND AVE,MIDDLE
A DIFFERENT WORLD ACADEMY,GRETNA,LA,141 BELLEMEADE BLVD,MIDDLE
A ENGLISH LANGUAGE SCHOOL,EAST LANSING,MI,1120 S HARRISON RD,MIDDLE
A G DAY CARE LEARNING CENTER,MIAMI,FL,2123 W FLAGLER ST,MIDDLE
APOLLO JUNIOR HIGH,ANAHEIM,CA,1301 SOUTH KNOTT AVE.,MIDDLE
A GROWING PLACE MONTESSORI,SAINT LOUIS,MO,7001 FORSYTH BLVD,MIDDLE
A HABITAT FOR LEARNING,ABILENE,TX,3242 BELTWAY S,MIDDLE
APOLONIA VALENTIN (FELICIA),SANTA ISABEL,PR,CALLE LUIS MU?OZ RIVERA,MIDDLE
APOPKA CHRISTIAN ACADEMY,APOPKA,FL,509 S PARK AVE,MIDDLE
APOSTLES LUTHERAN SCHOOL,SAN JOSE,CA,5828 SANTA TERESA BLVD,MIDDLE
A KID'S PLACE,LEESBURG,VA,248 LOUDOUN ST SW,MIDDLE
APOSTOLIC BIBLE INSTITUTE CHRISTIAN ACADEMY,OAKDALE,MN,6944 HUDSON BLVD,MIDDLE
APOSTOLIC CHRISTIAN ACADEMY,MARYVILLE,TN,1723 WILLIAM BLOUNT DR,MIDDLE
A L HAGEN JUNIOR HIGH SCHOOL,DICKINSON,ND,402 4TH ST W,MIDDLE
APOSTOLIC CHRISTIAN ACADEMY,NORTH VERNON,IN,710 E COUNTY ROAD 160 N,MIDDLE
APOSTOLIC CHRISTIAN ACADEMY,OPELOUSAS,LA,637 MELANCON ST,MIDDLE
APOSTOLIC CHRISTIAN ACADEMY,SOMERSET,PA,141 FORWARD BLVD,MIDDLE
APOSTOLIC CHRISTIAN SCHOOL,KNOXVILLE,TN,5020 PLEASANT RIDGE RD,MIDDLE
APOSTOLIC CHRISTIAN SCHOOL,SHELBYVILLE,IN,1500 MILLER AVE,MIDDLE
APOSTOLIC INSTIT OF MISSOURI,DIGGINS,MO,3710 NORMANDY RD,MIDDLE
APOSTOLIC LIGHTHOUSE CHRISTIAN SCHOOL,SILER CITY,NC,701 N 2ND AVE,MIDDLE
APOSTOLIC PRAISE CHRISTIAN ACADEMY,DIXON,NM,JCT 75 CTY RD 0063 #8,MIDDLE
APOSTOLIC REVIVAL CENTER CHRISTIAN SCHOOL,FORT MYERS,FL,2100 BARDEN ST,MIDDLE
"APOSTOLIC WORSHOP CHILD DEVELOPMENT, INC.",ORLANDO,FL,8001 SILVER STAR RD,MIDDLE
APPALACHIA ELEMENTARY,APPALACHIA,VA,3965 KENT JUNCTION ROAD,MIDDLE
A LEARNING DAY CARE CENTER,HOMESTEAD,FL,17 NE 1ST RD,MIDDLE
APPALACHIAN  SCHOOL,ONEONTA,AL,350 COUNTY HIGHWAY 12,MIDDLE
APPALACHIAN CHRISTIAN ACADEMY,MANCHESTER,KY,168 SDA SCHOOL RD,MIDDLE
A MOTHER'S TOUCH CREATIVE LEARNING CENTER,ARLINGTON HEIGHTS,IL,125 N DRYDEN AVE,MIDDLE
A MOTHERS TOUCH LEARNING ACADEMY,DES PLAINES,IL,1666 RAND RD,MIDDLE
A NEW WORLD OF MONTESSORI,DANVILLE,CA,101 SONORA AVE,MIDDLE
A PERFECT PLACE 4 KIDZ,MIAMI GARDENS,FL,18441 NW 2ND AVE STE 112,MIDDLE
A PHILIP RANDOLPH TECHNICAL HIGH SCHOOL,DETROIT,MI,17101 HUBBELL ST,MIDDLE
APPLE ACADEMY CHARTER PUBLIC,LOS ANGELES,CA,4920 S. W.ERN AVE.,MIDDLE
A PLACE TO GROW,OJAI,CA,414 E. OJAI AVE.,MIDDLE
A PLUS LEARNING ACADEMY,LAKE CITY,FL,810 SW FAITH RD,MIDDLE
A PLUS PREPARATORY LEARNING ACADEMY,ELLENWOOD,GA,100 DUDLEY DR,MIDDLE
APPLE BLOSSOMS CHILD CENTER,MANCHESTER,NH,1 SUNDIAL AVE STE 117,MIDDLE
A RAINBOW OF FRIENDS PRESCHOOL,COLORADO SPRINGS,CO,9355 PEACEFUL VALLEY RD,MIDDLE
A STEP AHEAD,FERNLEY,NV,945 N CLOVER LN,MIDDLE
A STEP AHEAD LEARNING CENTER,REX,GA,340 WILKERSON RD,MIDDLE
A STEP UP @ IMMOKALEE,IMMOKALEE,FL,701 IMMOKALEE DR,MIDDLE
A STEP UP ACADEMY,JENKINTOWN,PA,520 MEETINGHOUSE RD,MIDDLE
A STEP UP INC.,EAST GREENWICH,RI,88 CROMPTON RD,MIDDLE
A UNIQUE LEARNING ACADEMY,LITHONIA,GA,7290 COVINGTON HWY,MIDDLE
APPLE GROVE,ORRVILLE,OH,12899 HACKETT RD,MIDDLE
APPLE GROVE SCHOOL,DOVER,DE,2391 HAZLETTVILLE RD,MIDDLE
APPLE HILL,DUNDEE,OH,8164 TR 662,MIDDLE
APPLE MONTESSORI OF HOBOKEN,HOBOKEN,NJ,1055 MAXWELL LN,MIDDLE
APPLE MONTESSORI OF METUCHEN,METUCHEN,NJ,12 CENTER ST,MIDDLE
APPLE MONTESSORI OF WAYNE,WAYNE,NJ,25 NEVINS RD,MIDDLE
APPLE MONTESSORI SCHOOL,BETHESDA,MD,7210 HIDDEN CREEK RD,MIDDLE
APPLE MONTESSORI SCHOOL OF EDGEWATER,EDGEWATER,NJ,8 ADELAIDE PL,MIDDLE
APPLE MONTESSORI SCHOOL OF MORRIS PLAINS,MORRIS PLAINS,NJ,1339 LITTLETON RD,MIDDLE
APPLE MONTESSORI SCHOOL OF OAKLAND,OAKLAND,NJ,192 RAMAPO VALLEY RD,MIDDLE
APPLE MONTESSORI SCHOOL OF RANDOLPH,RANDOLPH,NJ,470 MILLBROOK AVE,MIDDLE
A VILLAGE GREEN MONTESSORI,LIBERTYVILLE,IL,125 W CHURCH ST,MIDDLE
APPLE MONTESSORI SCHOOLS - HOBOKEN,HOBOKEN,NJ,220 SINATRA DR,MIDDLE
APPLE MONTESSORISCHOOL OF MAHWAH,MAHWAH,NJ,75 E RAMAPO AVE,MIDDLE
APPLE ORCHARD SCHOOL,BROOKLINE,MA,282D NEWTON ST,MIDDLE
APPLE PIE PRESCHOOL,BIG SUR,CA,HWY. 1,MIDDLE
APPLE RIDGE MONTESSORI SCHOOL,CATONSVILLE,MD,200 INGLESIDE AVE,MIDDLE
A WORLD DISCOVERY MONTESSORI SCHOOL,EVERETT,WA,10814 7TH AVE SE,MIDDLE
A WORLD OF KNOWLEDGE PRESCHOOL AND LEARNING CENTER,PEMBROKE PINES,FL,750 NW 180TH TER,MIDDLE
APPLE TREE FAITH COMM CHRISTIAN ACAD-DC CENTER,SAINT CLAIR SHORES,MI,19800 FRAZHO ST,MIDDLE
APPLE TREE LEARNING CENTER,CHESAPEAKE,VA,1101 VOLVO PKWY,MIDDLE
A. B. MORRIS INTERMEDIATE,CASTRO VALLEY,CA,3310 BARLOW DR.,MIDDLE
APPLE TREE MONTESSORI SCHOOL,SOUTHWEST RANCHES,FL,6301 SW 160TH AVE,MIDDLE
APPLE TREE SCHOOL,HOUSTON,TX,17127 RED OAK DR,MIDDLE
APPLE VALLEY ADULT EDUCATION,APPLE VALLEY,CA,13063 PAWNEE RD.,MIDDLE
APPLE VALLEY CHRISTIAN SCHOOL,APPLE VALLEY,CA,22230 OTTAWA RD,MIDDLE
APPLE VALLEY JUNIOR HIGH,APPLE VALLEY,CA,12555 NAVAJO RD.,MIDDLE
APPLE VALLEY MIDDLE,APPLE VALLEY,CA,12555 NAVAJO RD.,MIDDLE
APPLE VALLEY SCHOOL,SANTAQUIN,UT,105 E 770 N,MIDDLE
APPLE VALLEY UNIFIED PRESCHOOL SPECIAL EDUCATION,APPLE VALLEY,CA,12555 NAVAJO RD.,MIDDLE
APPLEGATE ADVENTIST JR ACADEMY,ROUND ROCK,TX,4 APPLEGATE CIR,MIDDLE
APPLES & BOOKS LEARNING CENTER,BRANCHBURG,NJ,1036 US HIGHWAY 202 S,MIDDLE
APPLES OF GOLD EDUCATIONAL CENTER,FRESNO,CA,7272 W SHAW AVE,MIDDLE
APPLESEED ACADEMY,MESQUITE,TX,4346 N GALLOWAY AVE,MIDDLE
APPLESEED ALMADEN MONTESSORI SCHOOL,SAN JOSE,CA,5200 DENT AVE,MIDDLE
APPLESEED MONTESSORI SCHOOL,NORTH BROOKFIELD,MA,331 N MAIN ST STE 4,MIDDLE
APPLESEED MONTESSORI SCHOOL - WARNER,SUNNYVALE,CA,1302 WARNER AVE,MIDDLE
A. LINWOOD HOLTON GOVERNOR'S SCHOOL,ABINGDON,VA,SOUTHWEST VA HIGHER ED CENTER,MIDDLE
APPLETREE CHRISTIAN PRESCHOOL & KINDERGARTEN,BROOMFIELD,CO,545 W 10TH AVE,MIDDLE
A. WARREN MCCLASKEY ADULT CENTER,SACRAMENTO,CA,5241 J ST.,MIDDLE
A.B. COMBS ELEMENTARY SCHOOL,COMBS,KY,641 HWY 80 W,MIDDLE
APPLETREE MONTESSORI,MISSION VIEJO,CA,25542 JERONIMO RD,MIDDLE
A.C.E. ADULT,FALLBROOK,CA,2400 SOUTH STAGE COACH LN.,MIDDLE
APPLETREE SCHOOL,FAIRFAX,VA,9655 BLAKE LN,MIDDLE
APPLETREE SCHOOL II,VIENNA,VA,712 TAPAWINGO RD SW,MIDDLE
APPLEWILD SCHOOL,FITCHBURG,MA,120 PROSPECT ST,MIDDLE
APPLEWOOD CHRISTIAN SCHOOL,SEDALIA,MO,25396 HWY O,MIDDLE
APPLICATIONS AND RESEARCH LABORATORY,ELLICOTT CITY,MD,10920 CLARKSVILLE PIKE,MIDDLE
APPLING CHRISTIAN ACADEMY,BAXLEY,GA,1479 HATCH PKWY S,MIDDLE
AAA ACADEMY,BLUE ISLAND,IL,13801 CHATHAM ST,MIDDLE
APPOMATTOX CHRISTIAN ACADEMY,APPOMATTOX,VA,1916 REDFIELDS RD,MIDDLE
AARDVARK CHILD CARE & LEARNING CENTER,GLEN MILLS,PA,335 CHEYNEY RD,MIDDLE
APPOMATTOX REGIONAL GOVERNOR'S SCHOOL,PETERSBURG,VA,512 W WASHINGTON ST,MIDDLE
APPRENDE PRIVATE SCHOOL,VALLEY PARK,MO,436B VALLEY SCHOOL DR,MIDDLE
APPRENTICE ACADEMY HS OF NC,WAXHAW,NC,8201 WILLOW BRANCH DRIVE,MIDDLE
APS PRESCHOOL,AKRON,OH,1160 WINHURST DR,MIDDLE
AARON SCHOOL,NEW YORK,NY,309 E 45TH ST REAR 1,MIDDLE
ABA ACADEMY,ST PETERSBURG,FL,4301 16TH ST N,MIDDLE
AQUIDNECK ISLAND CHRISTIAN ACADEMY,PORTSMOUTH,RI,321 E MAIN RD,MIDDLE
ABACUS MONTESSORI ACADEMY,CHALFONT,PA,180 E BUTLER AVE,MIDDLE
ABACUS SCHOOL OF AUSTIN,AUSTIN,TX,14115 AVERY RANCH BLVD,MIDDLE
ABBA INDEPENDENT LEARNING CENTER,PASADENA,TX,1035 FAIRMONT PKWY,MIDDLE
ABBEVILLE CHRISTIAN ACADEMY,ABBEVILLE,AL,258 ML TILLIS DR,MIDDLE
AQUIN CATHOLIC ELEMENTARY SCHOOL,CASCADE,IA,608 3RD AVE NW,MIDDLE
ABBOTSFORD CHRISTIAN ACADEMY,ABBOTSFORD,WI,4868 CEMETARY AVE,MIDDLE
AQUIN CATHOLIC JR SR HIGH SCHOOL,FREEPORT,IL,1419 S GALENA AVE,MIDDLE
AQUIN ELEMENTARY SCHOOL,FREEPORT,IL,202 W PLEASANT ST,MIDDLE
AQUINAS ACADEMY,BEAR,DE,2370 RED LION RD,MIDDLE
AQUINAS ACADEMY,GREENSBURG,PA,340 N MAIN ST,MIDDLE
AQUINAS ACADEMY,LIVINGSTON,NJ,388 S LIVINGSTON AVE,MIDDLE
AQUINAS ACADEMY,MENOMONEE FALLS,WI,N72W15935 GOOD HOPE RD,MIDDLE
AQUINAS CATHOLIC COMMUNITY SCHOOL,MERRILLVILLE,IN,801 W 73RD AVE,MIDDLE
AQUINAS CATHOLIC SCHOOLS,LA CROSSE,WI,315 S 11TH ST,MIDDLE
AQUINAS HIGH SCHOOL,AUGUSTA,GA,1920 HIGHLAND AVE,MIDDLE
AQUINAS HIGH SCHOOL,BRONX,NY,685 E 182ND ST,MIDDLE
ABBOTT SCHOOL,IRVINGTON,NY,100 N BROADWAY,MIDDLE
AQUINAS HIGH SCHOOL,LA CROSSE,WI,315 11TH ST S,MIDDLE
AQUINAS INSTITUTE,ROCHESTER,NY,1127 DEWEY AVE,MIDDLE
AQUINAS MIDDLE HIGH SCHOOL,DAVID CITY,NE,3420 MN RD # 149,MIDDLE
ABC / TORRINGFORD,TORRINGTON,CT,837 CHARLES ST,MIDDLE
ABC ACADEMY,CHICAGO,IL,2714 W PRATT BLVD,MIDDLE
ABC ADULT,CERRITOS,CA,12254 CUESTA DR.,MIDDLE
ABC CHARTER MIDDLE,LOS ANGELES,CA,1501 WILSHIRE BLVD.,MIDDLE
ABC CHILDCARE CENTER,TEMECULA,CA,29705 SOLANA WAY,MIDDLE
ABC DAYCARE AND PRESCHOOL,HIALEAH,FL,990 W 22ND ST,MIDDLE
ABC INTERNATIONAL MONTESSORI ACADEMY,BLOOMINGTON,MN,10801 NORMANDALE BLVD,MIDDLE
ARANSAS PASS JJAEP,ARANSAS PASS,TX,244 W HARRISON BLVD,MIDDLE
"ABC LEARNING CENTRE, INC (DBA ABC-STEWART SCHOOL)",COLUMBUS,IN,6691 W STATE ROAD 46,MIDDLE
ABC LEARNING PREP,PEMBROKE PINES,FL,18239 PINES BLVD,MIDDLE
ABC LITTLE SCHOOL,STUDIO CITY,CA,11728 MOORPARK ST,MIDDLE
ABC LITTLE SCHOOLS - WEST HOLLYWOOD,WEST HOLLYWOOD,CA,927 N FAIRFAX AVE,MIDDLE
ABC MONTESSORI ACADEMY FOR THE BRILLIANT CHILD,MCDONOUGH,GA,483 WALKER DR,MIDDLE
ABC OF NC CHILD DEVELOPMENT CENTER,WINSTON SALEM,NC,905 FRIEDBERG CHURCH RD,MIDDLE
ABC PLAYHOUSE,TORRANCE,CA,18213 PRAIRIE AVE,MIDDLE
ABC SCHOOL,SACRAMENTO,CA,4540 HARLIN DR,MIDDLE
ABC'S OF LEARNING,TOWACO,NJ,74 JACKSONVILLE RD,MIDDLE
ABC'S OF LEARNING AND GROWING INC,FORT LAUDERDALE,FL,7720 KIMBERLY BLVD,MIDDLE
ABCD DAYCARE CENTER,COEUR D ALENE,ID,1124 N C ST,MIDDLE
ARBOR BAY SCHOOL,SAN CARLOS,CA,1017 CEDAR ST,MIDDLE
ARBOR MONTISORRI SCHOOL,DECATUR,GA,2998 LAVISTA RD,MIDDLE
ABELS ACADEMY,CLERMONT,FL,355 CITRUS TOWER BLVD STE 116,MIDDLE
ARBOR SCHOOL OF ARTS & SCIENCES,TUALATIN,OR,4201 SW BORLAND RD,MIDDLE
ABERCROMBIE ACADEMY,SPRING,TX,17102 THEISS MAIL ROUTE RD,MIDDLE
ABERDEEN CATHOLIC SCHOOLS,ABERDEEN,SD,419 1ST AVE NE,MIDDLE
ARBOR SCHOOL OF CENTA,WINTER SPRINGS,FL,1010 SPRING VILLAS PT,MIDDLE
ARBOR SCHOOLS,SAMMAMISH,WA,1107 228TH AVE SE,MIDDLE
"ABERDEEN CHRISTIAN SCHOOL, INC",ABERDEEN,SD,1500 N HWY 281,MIDDLE
ARBOR VIEW MONTESSORI,ROSEVILLE,CA,7441 FOOTHILLS BLVD # 140,MIDDLE
ARBORBROOK CHRISTIAN ACADEMY,MATTHEWS,NC,4823 WAXHAW INDIAN TRL RD,MIDDLE
ARBORCREEK MONTESSORI SCHOOL,FARMERS BRANCH,TX,2713 COOKSCREEK PL,MIDDLE
ABF LEARNING CENTER,HOMESTEAD,FL,12767 SW 280TH ST,MIDDLE
ABI CHRISTIAN ACADEMY,SAINT PAUL,MN,6944 HUDSON BLVD N,MIDDLE
ABIDING HOPE PRESCHOOL,LITTLETON,CO,6337 S ROBB WAY,MIDDLE
ABIDING PEACE ACADEMY,SIMPSONVILLE,SC,401 BATESVILLE RD,MIDDLE
ABIDING SAVIOR ACADEMY,SIOUX FALLS,SD,4100 S BAHNSON AVE,MIDDLE
ABIDING SAVIOR LUTHERAN CHURCH,LAKE FOREST,CA,23262 EL TORO RD,MIDDLE
ABIDING SAVIOR LUTHERAN SCHOOL,SAINT LOUIS,MO,4353 BUTLER HILL RD,MIDDLE
ABIDING WORD LUTHERAN SCHOOL,HOUSTON,TX,17123 RED OAK DR,MIDDLE
ABILENE BAPTIST ACADEMY,ABILENE,KS,409 N VAN BUREN ST,MIDDLE
ABILITY SCHOOL,ENGLEWOOD,NJ,75 KNICKERBOCKER RD,MIDDLE
ARC ORANGE COUNTY CHAPTER,MIDDLETOWN,NY,28 INGRASSIA RD,MIDDLE
ARCADIA ADULT,ARCADIA,CA,150 SOUTH THIRD AVE.,MIDDLE
ARCADIA ADULT EVENING SCHOOL,ARCADIA,CA,180 CAMPUS DR.,MIDDLE
ARCADIA CHILDREN'S EDUCATIONAL CENTER,ARCADIA,CA,9845 E LEMON AVE,MIDDLE
ABINGTON FRIENDS SCHOOL,JENKINTOWN,PA,575 WASHINGTON LN,MIDDLE
ABINTRA MONTESSORI SCHOOL,NASHVILLE,TN,914 DAVIDSON DR,MIDDLE
ABIS PLACE,CORAL SPRINGS,FL,1710 N UNIVERSITY DR,MIDDLE
ARCADIA FIRST BAPTIST CHRISTIAN SCHOOL,SANTA FE,TX,14828 HWY 6,MIDDLE
ABLE ACADEMY,NAPLES,FL,5860 GOLDEN GATE PKWY,MIDDLE
ABLE CENTER,ORLANDO,FL,1530 S PRIMROSE DR,MIDDLE
ABLE CHARTER SCHOOL 6TH-8TH,OKLAHOMA CITY,OK,4500 N CLASSEN BLVD STE 2015,MIDDLE
ABLE CHARTER SCHOOL 9TH-12TH,OKLAHOMA CITY,OK,4500 N CLASSEN BLVD STE 2015,MIDDLE
ABM MINISTRIES-LIGHTHOUSE CHRISTIAN ACADEMY,PIEDMONT,MO,PO BOX 100,MIDDLE
ABM VIETNAMESE SCHOOL,ATLANTA,GA,4300 BUFORD HWY NE STE 104,MIDDLE
ARCADIA LEARNING CENTER,TACOMA,WA,6312 N 30TH ST,MIDDLE
ABNER MONTESSORI SCHOOL,CHAPIN,SC,432 E BOUNDARY ST,MIDDLE
ABOITE CHRISTIAN SCHOOL,ROANOKE,IN,14615 WINTERS RD,MIDDLE
ARCADIA MONTESSORI SCHOOL,PHOENIX,AZ,5115 E VIRGINIA AVE,MIDDLE
ABOUT FACE JJAEP,EL PASO,TX,4500 LAWRENCE AVE,MIDDLE
ARCANE ELEMENTARY,SIMI VALLEY,CA,1717 ARCANE ST.,MIDDLE
ARCANUM EARLY LEARNING CENTER,ARCANUM,OH,310 N MAIN ST,MIDDLE
ARCH BISHOP MOELLER HIGH SCHOOL,CINCINNATI,OH,9001 MONTGOMERY RD,MIDDLE
ARCHBISHOP ALTER HIGH SCHOOL,KETTERING,OH,940 E DAVID RD,MIDDLE
ABRAHAM JOSHUA HESCHEL SCHOOL,NEW YORK,NY,30 W END AVE,MIDDLE
ARCHBISHOP BERGAN CATHOLIC SCHOOL,FREMONT,NE,545 E 4TH ST,MIDDLE
ABRAHAM KAZEN MIDDLE,SAN ANTONIO,TX,1520 GILLETTE BLVD,MIDDLE
ARCHBISHOP BORDERS SCHOOL,BALTIMORE,MD,3500 FOSTER AVE,MIDDLE
ARCHBISHOP CHAPELLE HIGH SCHOOL,METAIRIE,LA,8800 VETERANS MEMORIAL BLVD,MIDDLE
ARCHBISHOP CURLEY HIGH SCHOOL,BALTIMORE,MD,3701 SINCLAIR LN,MIDDLE
ARCHBISHOP HANNAN HIGH SCHOOL,COVINGTON,LA,71324 HWY 1077,MIDDLE
ARCHBISHOP HOBAN HIGH SCHOOL,AKRON,OH,1 HOLY CROSS BLVD,MIDDLE
ARCHBISHOP LYKE-ST TIMOTHY CAMPUS,GARFIELD HEIGHTS,OH,4351 E 131ST ST,MIDDLE
ARCHBISHOP MCCARTHY HIGH SCHOOL,SOUTHWEST RANCHES,FL,5451 S FLAMINGO RD,MIDDLE
ARCHBISHOP MCNICHOLAS HIGH SCHOOL,CINCINNATI,OH,6536 BEECHMONT AVE,MIDDLE
ARCHBISHOP MITTY HIGH SCHOOL,SAN JOSE,CA,5000 MITTY WAY,MIDDLE
ARCHBISHOP MOLLOY HIGH SCHOOL,BRIARWOOD,NY,8353 MANTON ST,MIDDLE
ARCHBISHOP MURPHY HIGH SCHOOL,EVERETT,WA,12911 39TH AVE SE,MIDDLE
ARCHBISHOP NEALE SCHOOL,LA PLATA,MD,104 PORT TOBACCO RD,MIDDLE
ARCHBISHOP RUMMEL HIGH SCHOOL,METAIRIE,LA,1901 SEVERN AVE,MIDDLE
ARCHBISHOP RYAN ACADEMY FOR THE DEAF,PHILADELPHIA,PA,4251 L ST,MIDDLE
ARCHBISHOP RYAN HIGH SCHOOL,PHILADELPHIA,PA,11201 ACADEMY RD,MIDDLE
ARCHBISHOP SHAW HIGH SCHOOL,MARRERO,LA,1000 BARATARIA BLVD,MIDDLE
ABRAHAM LINCOLN ELEMENTARY,DALY CITY,CA,101 LAKE MERCED BLVD.,MIDDLE
ARCHBISHOP SPALDING HIGH SCHOOL,SEVERN,MD,8080 NEW CT RD,MIDDLE
ARCHBISHOP STEPINAC HIGH SCHOOL,WHITE PLAINS,NY,950 MAMARONECK AVE,MIDDLE
ARCHBISHOP WILLIAMS HIGH SCHOOL,BRAINTREE,MA,80 INDEPENDENCE AVE,MIDDLE
ARCHBISHOP WOOD HIGH SCHOOL,WARMINSTER,PA,655 YORK RD,MIDDLE
ARCHER SCHOOL FOR GIRLS,LOS ANGELES,CA,11725 W SUNSET BLVD,MIDDLE
ARCHES ACADEMY,OREM,UT,280 S 400 E,MIDDLE
ARCHWAY,LEICESTER,MA,77 MULBERRY ST,MIDDLE
ARCHWAYS COMMUNITY DAY,AMERICAN CANYON,CA,300 BENTON WAY,MIDDLE
ARDEN CAHILL ACADEMY,GRETNA,LA,3101 WALL BLVD,MIDDLE
ARDEN CHRISTIAN SCHOOL,ARDEN,NC,2568 HENDERSONVILLE RD,MIDDLE
ARDMORE ADVENTIST ACADEMY,ARDMORE,OK,154 BEAVER ACADEMY RD,MIDDLE
ABRAM FRIEDMAN OCCUPATIONAL,LOS ANGELES,CA,1646 SOUTH OLIVE ST.,MIDDLE
ABRAXAS ACADEMY,MORGANTOWN,PA,1000 ACADEMY DR,MIDDLE
ABRAXAS I ARLENE LISSNER HIGH SCHOOL,MARIENVILLE,PA,165 ABRAXAS RD,MIDDLE
ABRAXAS LEADERSHIP DEVELOPMENT PROGRAM,SOUTH MOUNTAIN,PA,"10058 S MOUNTAIN ROAD,BLDG. #6",MIDDLE
ABRAXAS YOUTH CENTER,SOUTH MOUNTAIN,PA,10058 S MOUNTAIN RD BLDG 3,MIDDLE
ABUNDANT LIFE ACADEMY,BELLEVUE,PA,10 N FREMONT AVE,MIDDLE
ABUNDANT LIFE ACADEMY,KINGSTON,NY,389 BROADWAY,MIDDLE
ABUNDANT LIFE ACADEMY,NUTLEX,NJ,390 WASHINGTON AVE,MIDDLE
AREA 7 ALTERNATIVE SCHOOL,LOS ANGELES,CA,4805 PASADENA AVE. TR.,MIDDLE
ABUNDANT LIFE CHRISTIAN ACADEMY,INDIAN TRAIL,NC,4224 BLANCHARD CIR,MIDDLE
ABUNDANT LIFE CHRISTIAN ACADEMY,LAS VEGAS,NV,1720 J ST,MIDDLE
ABUNDANT LIFE CHRISTIAN ACADEMY,MARGATE,FL,1494 BANKS RD,MIDDLE
ABUNDANT LIFE CHRISTIAN ACADEMY,THORP,WI,105 E HILL ST,MIDDLE
ABUNDANT LIFE CHRISTIAN LRNG CENTER /NEW JERUSALEM,MIAMI,FL,777 NW 85TH ST,MIDDLE
ABUNDANT LIFE CHRISTIAN SCHOOL,ALBUQUERQUE,NM,2851 ARENAL RD SW,MIDDLE
ABUNDANT LIFE CHRISTIAN SCHOOL,GREENVILLE,SC,630 FARRS BRIDGE RD,MIDDLE
ABUNDANT LIFE CHRISTIAN SCHOOL,LA MARQUE,TX,5130 HALLAM RD,MIDDLE
ABUNDANT LIFE CHRISTIAN SCHOOL,MADISON,WI,4901 E BUCKEYE RD,MIDDLE
ABUNDANT LIFE CHRISTIAN SCHOOL,TRIADELPHIA,WV,976 CHAPEL HILL RD,MIDDLE
ABUNDANT LIFE CHRISTIAN SCHOOL,WILMINGTON,MA,173 CHURCH ST,MIDDLE
ABUNDANT LIFE MINISTRIES,VIRGINIA BEACH,VA,6037 PROVIDENCE RD STE 1,MIDDLE
ABUNDANT LIFE SCHOOL,SHERWOOD,AR,9200 HWY 107,MIDDLE
ABUNDANTCRESCENT CITY CHRISTIAN ACADEMY,CRESCENT CITY,FL,2701 S US HIGHWAY 17,MIDDLE
ACACIA ACADEMY,KOKOMO,IN,830 S MAIN ST,MIDDLE
ACACIA ACADEMY,LA GRANGE,IL,6425 WILLOW SPRINGS RD,MIDDLE
ACACIA ELEMENTARY CHARTER,STOCKTON,CA,1016 E. BIANCHI RD.,MIDDLE
ARENAC EASTERN ELEMENTARYMIDDLE SCHOOL,TWINING,MI,200 SMALLEY ST,MIDDLE
ARENAC EASTERN HIGH SCHOOL,TWINING,MI,200 SMALLEY ST,MIDDLE
ARENDELL PARROTT ACADEMY,KINSTON,NC,1901 DOBBS FARM RD,MIDDLE
ACACIA LEARNING CENTER,LOS ANGELES,CA,2900 W VERNON AVE,MIDDLE
ACACIA MIDDLE CHARTER,STOCKTON,CA,1016 E. BIANCHI RD.,MIDDLE
ARETE PREPATORY SCHOOL,LITHONIA,GA,3072 EVANS MILL RD,MIDDLE
ACACIAWOOD SCHOOL,ANAHEIM,CA,2530 W LA PALMA AVE,MIDDLE
ACADEME OF THE OAKS,DECATUR,GA,146 NEW ST,MIDDLE
ARGONAUT ELEMENTARY,HAYWARD,CA,1481 FRY LN.,MIDDLE
ACADEMIA DE LA RECTA PORTA ICDS,WASHINGTON,DC,7614 GEORGIA AVE NW,MIDDLE
ACADEMIA PRIVATE SCHOOL,WINDERM,FL,6506 OLD BRICK RD STE 110,MIDDLE
ARGONNE ELEMENTARY,SAN LEANDRO,CA,15550 ARGONNE ST.,MIDDLE
ACADEMIC ALTERNATIVE EDUCATION,BOCA RATON,FL,23123 STATE ROAD 7,MIDDLE
ACADEMIC BEHAVIOR SCHOOL EAST,HOUSTON,TX,7703 S LOOP E,MIDDLE
ACADEMIC BEHAVIOR SCHOOL WEST,HOUSTON,TX,7800 WESTGLEN,MIDDLE
ACADEMIC HIGH SCHOOL,BOCA RATON,FL,23123 STATE ROAD 7 STE 107,MIDDLE
ACADEMIC MASTERY ACADEMY,SOUTH HOLLAND,IL,16341 S PARK AVE,MIDDLE
ACADEMICS PLUS,EVANS,GA,717 INDUSTRIAL PARK RD,MIDDLE
ACADEMIE DE MONTESSORI,JACKSONVILLE,FL,1216 LASALLE ST,MIDDLE
ACADEMY 360,MIDLOTHIAN,VA,13900 HULL STREET ROAD,MIDDLE
ACADEMY ADVENTURES MID-TOWN,TUCSON,AZ,825 E. FT. LOWELL RD.,MIDDLE
ACADEMY AT DOUBLE H RANCH,FAIRMOUNT,GA,9906 HENDERSON MOUNTAIN RD,MIDDLE
ACADEMY AT NEW LIFE,FAYETTEVILLE,NC,6501 CAMDEN RD,MIDDLE
ACADEMY AT ST. SABINA,FLORISSANT,MO,1625 SWALLOW LN,MIDDLE
ACADEMY AT THE BEACH,PALM HARBOR,FL,1961 E LAKE RD,MIDDLE
ACADEMY AT VIRGINIA RANDOLPH,GLEN ALLEN,VA,2204 MOUNTAIN RD,MIDDLE
ARI GUIRAGOS MINASSIAN ARMENIAN SCHOOL,SANTA ANA,CA,5311 W MCFADDEN AVE,MIDDLE
ACADEMY FOR ACADEMIC EXCELLENCE,CLARKSVILLE,TN,2134 OLD ASHLAND CITY RD,MIDDLE
ACADEMY FOR ACADEMICS  ARTS,HUNTSVILLE,AL,2800 POPLAR ST NW,MIDDLE
ACADEMY FOR ADVANCEMENT OF CHILDREN WITH AUTISM,CHATSWORTH,CA,10824 TOPANGA CANYON BLVD,MIDDLE
ACADEMY FOR ADVANCEMENT OF CHILDREN WITH AUTISM,LANCASTER,CA,6742 E AVE H,MIDDLE
ARISE ACADEMY CHARTER HIGH SCHOOL,PHILADELPHIA,PA,2116 E. HAINES STREET,MIDDLE
ACADEMY FOR AUTISM,ORLANDO,FL,11 E LANCASTER RD,MIDDLE
ARISTA PREP NURSERY SCHOOL,BROOKLYN,NY,275 KINGSTON AVE,MIDDLE
ARISTOTLE ACADEMY,AMERICAN FORK,UT,704 S 600 E,MIDDLE
ARIZONA AGRIBUSINESS & EQUINE CENTER  INC. - MESA,MESA,AZ,1833 W. SOUTHERN AVE,MIDDLE
ARIZONA AGRIBUSINESS & EQUINE CENTER  INC. - PRESCOTT VALLEY,PRESCOTT VALLEY,AZ,7500 CIVIC CIRCLE DR.,MIDDLE
ARIZONA AGRIBUSINESS & EQUINE CENTER  INC. - RED MOUNTAIN,MESA,AZ,2165 N. POWER ROAD,MIDDLE
ARIZONA AGRIBUSINESS & EQUINE CENTER INC. - MESA,MESA,AZ,1833 W. SOUTHERN AVE,MIDDLE
ARIZONA AUTISM CHARTER SCHOOL  UPPER SCHOOL CAMPUS,PHOENIX,AZ,1445 E. INDIAN SCHOOL RD.,MIDDLE
ARIZONA CULTURAL ACADEMY & COLLEGE PREP,PHOENIX,AZ,7810 S 42ND PL,MIDDLE
ARIZONA INTERNATIONAL ACADEMY,SCOTTSDALE,AZ,12430 N SCOTTSDALE RD,MIDDLE
ARIZONA LUTHERAN ACADEMY,PHOENIX,AZ,6036 S 27TH AVE,MIDDLE
ACADEMY FOR INDIVIDUAL EXCELLENCE,LOUISVILLE,KY,3101 BLUEBIRD LN,MIDDLE
ACADEMY FOR INDIVIDUALIZED STUDY/INDEPENDENT STUDY/HOME SCHO,LAS VEGAS,NV,4601 W. BONANZA RD,MIDDLE
ARIZONA WORLD SCHOOL,ELOY,AZ,900 N. MAIN STREET,MIDDLE
ARK CHRISTIAN ACADEMY,BROOKLYN,NY,1710 EASTERN PKWY,MIDDLE
ACADEMY FOR KIDS,CLACKAMAS,OR,13698 SE 147TH AVE,MIDDLE
ARK CHRISTIAN ACADEMY,ST AUGUSTINE,FL,307 ANASTASIA BLVD,MIDDLE
ARK OF SAFETY CHRISTIAN ACADEMY,WAIANAE,HI,"86-120 FARRINGTON HWY, STE 110",MIDDLE
ACADEMY FOR LEARNING,LAS VEGAS,NV,1018 E SAHARA AVE STE D,MIDDLE
ARKANSAS CONNECTIONS ACADEMY ELEMENTARY,BENTONVILLE,AR,609 SW 8TH ST,MIDDLE
ARKANSAS CONSOLIDATED HIGH SCHOOL - DERMOTT #3,DERMOTT,AR,878 E GAINES ST,MIDDLE
ACADEMY FOR PRECISION LEARNING,SEATTLE,WA,"5031 UNIVERSITY WAY NE, #105",MIDDLE
ACADEMY FOR SCIENCE  FOREIGN LANGUAGE,HUNTSVILLE,AL,3221 MASTIN LAKE RD,MIDDLE
ACADEMY FOR YOUNG LEARNERS INC,HIALEAH,FL,18191 NW 68TH AVE STE 101,MIDDLE
ACADEMY HILL SCHOOL,SPRINGFIELD,MA,1190 LIBERTY ST,MIDDLE
ACADEMY INNOVATION,GAINESVILLE,GA,1399 THOMPSON BRIDGE RD,MIDDLE
ACADEMY JJAEP,LITTLE RIVER,TX,704 E MAIN ST,MIDDLE
ACADEMY MONTESSORI INTERNATIONALE,KANSAS CITY,MO,12501 STATE LINE RD,MIDDLE
ACADEMY MONTESSORI PRESCHOOL,ALBUQUERQUE,NM,11216 PHOENIX AVE NE,MIDDLE
ACADEMY NORTHWEST,MARYSVILLE,WA,514 STATE AVE STE 108,MIDDLE
ACADEMY OF ART  CAREERS AND TECHNOLOGY,RENO,NV,380 EDISON WAY,MIDDLE
ARLINGTON ACADEMY OF MIAMI LLC,HIALEAH,FL,4814 NW 167TH ST,MIDDLE
ARLINGTON BAPTIST SCHOOL,BALTIMORE,MD,3030 N ROLLING RD,MIDDLE
ARLINGTON CATHOLIC HIGH SCHOOL,ARLINGTON,MA,16 MEDFORD ST,MIDDLE
ARLINGTON CHRISTIAN ACADEMY,AKRON,OH,539 S ARLINGTON ST,MIDDLE
ARLINGTON CHRISTIAN SCHOOL,ARLINGTON,WA,2425 200TH ST NE,MIDDLE
ACADEMY OF ARTS AND SCIENCES: SONOMA,THOUSAND OAKS,CA,850 HAMPSHIRE RD. STE. P,MIDDLE
ACADEMY OF ARTS AND SCIENCES: THOUSAND OAKS & SIMI VALLEY,WESTLAKE VILLAGE,CA,850 HAMPSHIRE RD. STE. P,MIDDLE
ARLINGTON COMMUNITY MIDDLE SCHOOL,INDIANAPOLIS,IN,120 E WALNUT ST,MIDDLE
ACADEMY OF CHRISTIAN EDUCATION,RESTON,VA,10800 PARKRIDGE BLVD # 150,MIDDLE
ACADEMY OF COASTAL CAROLINA,SHALLOTTE,NC,623 VILLAGE RD SW,MIDDLE
ACADEMY OF CONSTRUCTION/ENGINEERING,MINNEAPOLIS,MN,4001 HARRIET AVE S,MIDDLE
ARLINGTON FAITH ACADEMY,ARLINGTON,TX,5100 US HIGHWAY 287,MIDDLE
ARLINGTON HEIGHTS CHRISTIAN SCHOOL,CORPUS CHRISTI,TX,9550 LEOPARD ST,MIDDLE
ACADEMY OF EARLY LEARNING,HYANNIS,MA,465 FALMOUTH RD,MIDDLE
ACADEMY OF ENGINEERING AND TECHNOLOGY,LEESBURG,VA,801 N KING STREET,MIDDLE
"ARLINGTON KINDERGARTEN OF JACKSONVILLE, INC",JACKSONVILLE,FL,1210 MARCHECK ST,MIDDLE
ACADEMY OF EXCELLENCE,EUREKA SPRINGS,AR,157 HUNTSVILLE RD,MIDDLE
ACADEMY OF EXCELLENCE,MILWAUKEE,WI,633 S 12TH ST,MIDDLE
ACADEMY OF EXCELLENCE,STATESVILLE,NC,612 S RACE ST,MIDDLE
ACADEMY OF GREATNESS AND EXCELLENCE,TEANECK,NJ,441 N ST,MIDDLE
ARLINGTON MONTESSORI HOUSE,ARLINGTON,VA,3809 WASHINGTON BLVD,MIDDLE
ARLINGTON MONTESSORI SCHOOL,ARLINGTON HEIGHTS,IL,2025 S GOEBBERT RD,MIDDLE
ARLINGTON OAKS ELEMENTARY,WEST SACRAMENTO,CA,1800 DEVON AVE.,MIDDLE
ARLINGTON SCHOOL,BELMONT,MA,115 MILL ST,MIDDLE
ARLINGTON SCHOOL,BIRMINGHAM,AL,1312 22ND ST S,MIDDLE
ARLYN DAY SCHOOL,HIGHLAND PARK,IL,2789 OAK ST,MIDDLE
ARMA DEI ACADEMY,HIGHLANDS RANCH,CO,345 E WILDCAT RESERVE PKWY,MIDDLE
ACADEMY OF INTERNATIONAL STUDIES,HAMTRAMCK,MI,3056 HANLEY ST,MIDDLE
ARMAND BAYOU MONTESSORI,HOUSTON,TX,16204 HICKORY KNOLL DR,MIDDLE
ARMBRUST CHRISTIAN ACADEMY,HUNKER,PA,7786 ROUTE 819,MIDDLE
ARMENIAN SISTERS ACADEMY,MONTROSE,CA,2361 FLORENCITA AVE,MIDDLE
ARMENIAN SISTERS ACADEMY,RADNOR,PA,440 UPPER GULPH RD,MIDDLE
ACADEMY OF MEDIA ARTS,LOS ANGELES,CA,2009 WEST MARTIN LUTHER KING BLVD.,MIDDLE
ACADEMY OF MONTESSORI INTERNATIONAL,THONOTOSASSA,FL,15421 MORRIS BRIDGE RD,MIDDLE
ACADEMY OF MOUNT ST URSULA,BRONX,NY,330 BEDFORD PARK BLVD,MIDDLE
ACADEMY OF NOTRE DAME,TYNGSBORO,MA,180 MIDDLESEX RD,MIDDLE
ACADEMY OF OUR LADY,MARRERO,LA,5501 WESTBANK EXPY,MIDDLE
ACADEMY OF OUR LADY OF GRACE,FAIRVIEW,NJ,400 KAMENA ST,MIDDLE
"ACADEMY OF OUR LADY OF MERCY, LAURALTON HALL",MILFORD,CT,200 HIGH ST,MIDDLE
ACADEMY OF OUR LADY OF MT CARMEL,TENAFLY,NJ,10 COUNTY ROAD,MIDDLE
ACADEMY OF OUR LADY OF PEACE,NEW PROVIDENCE,NJ,99 S ST,MIDDLE
ACADEMY OF PERSONALIZED EXCELLENCE,MINNEAPOLIS,MN,2620 RUSSELL AVE N,MIDDLE
ACADEMY OF SAINT ELIZABETH,MORRISTOWN,NJ,2 CONVENT RD,MIDDLE
ACADEMY OF SAINT LOUIS,CHESTERFIELD,MO,1633 KEHRS MILL RD BLDG B,MIDDLE
ACADEMY OF SAINT PAUL,RAMSEY,NJ,187 WYCKOFF AVE,MIDDLE
ARMSTRONG MS,FAIRLESS HILLS,PA,475 WISTAR RD,MIDDLE
ACADEMY OF SCHOLASTIC ACHIEVEMENT,CHICAGO,IL,4651 W MADISON ST,MIDDLE
ACADEMY OF SCIENCE AND ENGINEERING,LOS ANGELES,CA,5753 RODEO RD.,MIDDLE
ARMSTRONG VALLEY CHRISTIAN SCHOOL,HALIFAX,PA,943 ENDERS RD,MIDDLE
ACADEMY OF ST ADALBERT,BEREA,OH,56 ADELBERT ST,MIDDLE
ACADEMY OF ST BENEDICT THE AFRICAN,CHICAGO,IL,6020 S LAFLIN ST,MIDDLE
ACADEMY OF ST JAMES OF THE MARCHES,TOTOWA,NJ,400 TOTOWA RD,MIDDLE
ARMY & NAVY ACADEMY,CARLSBAD,CA,2605 CARLSBAD BLVD,MIDDLE
ACADEMY OF ST JOSEPH,NEW YORK,NY,111 WASHINGTON PL,MIDDLE
ACADEMY OF THE ARTS (THE),BRONX,NY,888 REV J A POLITE AVE,MIDDLE
ARNOLD CHRISTIAN ACADEMY,ARNOLD,MD,365 JONES STATION RD,MIDDLE
ACADEMY OF THE HOLY ANGELS,DEMAREST,NJ,315 HILLSIDE AVE,MIDDLE
ACADEMY OF THE HOLY CROSS,KENSINGTON,MD,4920 STRATHMORE AVE,MIDDLE
ACADEMY OF THE HOLY FAMILY,BALTIC,CT,54 W MAIN ST # 691,MIDDLE
ACADEMY OF THE HOLY NAMES,TAMPA,FL,3319 BAYSHORE BLVD,MIDDLE
ACADEMY OF THE IMMACULATE HEART OF MARY,AKRON,OH,2935 CHENOWETH RD,MIDDLE
ACADEMY OF THE MOST BLESSED SACRAMENT,FRANKLIN LAKES,NJ,785 FRANKLIN LAKE RD,MIDDLE
ACADEMY OF THE NEW CHURCH BOYS SCHOOL,BRYN ATHYN,PA,2815 BENADE CIR,MIDDLE
ACADEMY OF THE NEW CHURCH GIRLS SCHOOL,BRYN ATHYN,PA,2815 BENADE CIR,MIDDLE
ACADEMY OF THE SACRED HEART,NEW ORLEANS,LA,4521 ST CHARLES AVE,MIDDLE
ACADEMY OF THE SACRED HEART,SAINT CHARLES,MO,619 N 2ND ST,MIDDLE
AROUND THE WORLD CHILDREN CENTER,DOWNEY,CA,10441 LAKEWOOD BLVD,MIDDLE
ACADEMY OF WHOLE LEARNING,MINNETONKA,MN,3500 WILLISTON RD,MIDDLE
ACADEMY ON THE HILL,ALISO VIEJO,CA,10 MAREBLU,MIDDLE
ACADEMY PERFORMING PRESCHOOL,VICTORVILLE,CA,12219 SECOND AVE.,MIDDLE
ACADEMY PREP CENTER OF ST PETERSBURG,ST PETERSBURG,FL,2301 22ND AVE S,MIDDLE
ACADEMY PREP CENTER OF TAMPA,TAMPA,FL,1407 E COLUMBUS DR,MIDDLE
ACADEMY PRIMARY SCHOOL & CHILD DEVELOPMENT CENTER,ROCKVILLE,MD,10107 DARNESTOWN RD,MIDDLE
ACADEMY SCHOOLS,TUKWILA,WA,14601 INTERURBAN AVE S,MIDDLE
ARRIS MONTESSORI,ASHBURN,VA,44675 CAPE CT STE 189,MIDDLE
ACADEMY-NOTRE DAME DE NAMUR,VILLANOVA,PA,560 SPROUL RD,MIDDLE
ARROW ACADEMY,WHIPPANY,NJ,90 WHIPPANY RD,MIDDLE
ACADEMY/FULL-TIME PROGRAMS,TRENTON,NJ,1085 OLD TRENTON RD,MIDDLE
ACADEMY360 UPPER SCHOOL,LIVINGSTON,NJ,6 REGENT ST,MIDDLE
ARROW CENTER FOR EDUCATION TANGRAM,BALTIMORE,MD,8830 ORCHARD TREE LN,MIDDLE
ARROWHEAD CHRISTIAN ACADEMY,REDLANDS,CA,105 TENNESSEE ST,MIDDLE
ACALANES ADULT EDUCATION CENTER,WALNUT CREEK,CA,1963 TICE VALLEY BLVD.,MIDDLE
ACARATH MONTESSORI CENTER,SCHAUMBURG,IL,22 KRISTIN DR,MIDDLE
ACCEL,PHOENIX,AZ,10251 N 35TH AVE,MIDDLE
ARROWHEAD MONTESSORI,PEORIA,AZ,14801 N 83RD AVE,MIDDLE
ACCELERATED INT CHARTER SCHOOL,HOUSTON,TX,12825 SUMMIT RDG DR,MIDDLE
ACCELERATED SCHOOLS,DENVER,CO,2160 S COOK ST,MIDDLE
ACCELERATED SCHOOLS OF OVERLAND PARK,OVERLAND PARK,KS,10713 BARKLEY ST,MIDDLE
ACCELERATION ACADEMIES LLC,MIAMI BEACH,FL,1001 N MIAMI BEACH BLVD,MIDDLE
ACCELERATIONS LEARNING CENTER,HONOLULU,HI,1012 PIIKOI ST FL 2,MIDDLE
ACCELERE,OMAHA,NE,2606 HAMILTON ST,MIDDLE
ACCESS FUTURES CHILD CARE CENTER,WORCESTER,MA,799 W BOYLSTON ST STE 3,MIDDLE
ACCOTINK ACADEMY,SPRINGFIELD,VA,8519 TUTTLE RD,MIDDLE
ACE ACADEMY  JEFFERSON SITE,DETROIT,MI,13330 E JEFFERSON AVENUE,MIDDLE
ACE ACADEMY SOUTH,FLORIDA CITY,FL,303 W PALM DR,MIDDLE
ACE DAY & NIGHT SCHOOL  - CLOSED,PHOENIX,AZ,735 E FILLMORE ST.,MIDDLE
ACE DAY & NIGHT SCHOOL - CLOSED,PHOENIX,AZ,735 E FILLMORE ST.,MIDDLE
ARROYO GARFIELD ELEM.,PASADENA,CA,540 S. PASADENA AVE.,MIDDLE
ARROYO GRANDE MONTESSORI SCHOOL,ARROYO GRANDE,CA,216 OAK ST,MIDDLE
ARROYO HIGH (APHASIA),EL MONTE,CA,4921 N. CEDAR AVE.,MIDDLE
ACERA SCHOOL,WINCHESTER,MA,5 LOWELL AVE,MIDDLE
ACERO CHTR  ROBERTO CLEMENTE CMPS,CHICAGO,IL,2050 N NATCHEZ AVE,MIDDLE
ACERO CHTR  SOR JUANA INES DE LA,CHICAGO,IL,7416 N RIDGE BLVD,MIDDLE
ARROYO PASEO CHARTER HIGH,SAN DIEGO,CA,3773 EL CAJON BLVD.,MIDDLE
ACERO CHTR NETRK -  MAJOR GARCIA,CHICAGO,IL,4248 W 47TH ST,MIDDLE
ARRUPE JESUIT HIGH SCHOOL,DENVER,CO,4343 UTICA ST,MIDDLE
ART'S LEARNING ACADEMY,CHIPLEY,FL,739 7TH ST,MIDDLE
ARTE I RPTCS (REGIONAL PROFESSIONAL TECHNICAL CHARTER SCHOOL,TWIN FALLS,ID,COLLEGE OF SOUTHERN IDAHO EVER,MIDDLE
ACHIEVE KIDS,SAN JOSE,CA,1212 MCGINNESS AVE,MIDDLE
ARTHUR B. INGHAM CENTER,SALINAS,CA,47 SAN BANACIO CANYON RD.,MIDDLE
ACHIEVEMENT CENTER OF SARASOTA THE,SARASOTA,FL,1201 N BENEVA RD,MIDDLE
ARTHUR E. WRIGHT ELEMENTARY,CALABASAS,CA,4029 N. LAS VIRGENES RD.,MIDDLE
ARTHUR I MEYER JEWISH ACADEMY,PALM BEACH GARDENS,FL,5225 HOOD RD,MIDDLE
ACHIEVEMENT INTEGRITY AND MATURITY,ALEXANDRIA,VA,C/O KATHRYN SALERNO,MIDDLE
ARTHUR MORGAN SCHOOL,BURNSVILLE,NC,60 AMS CIR,MIDDLE
ACHIEVER CHRISTIAN SCHOOL,SAN JOSE,CA,540 SANDS DR,MIDDLE
ACHIEVER'S CHRISTIAN ACADEMY,JENNINGS,FL,1424 HAMILTON AVE,MIDDLE
ACHIEVERS CENTER FOR EDUCATION,SAN ANTONIO,TX,5084 DEZAVLA RD,MIDDLE
ACHIEVING STARS ACADEMY,MILPITAS,CA,301 S ABBOTT AVE,MIDDLE
ARTHUR ROBERT ASHE CENTER,FORT LAUDERDALE,FL,1701 NW 23RD AVE,MIDDLE
ACLD SCHOOL,YOUNGSTOWN,OH,118 E WOOD ST,MIDDLE
ACLD TILLOTSON SCHOOL,PITTSBURGH,PA,4900 GIRARD RD,MIDDLE
ACORN HILL WALDORF KINDERGARTEN & NURSERY,SILVER SPRING,MD,9504 BRUNETT AVE,MIDDLE
ACORN LEARNING CENTER,TWIN FALLS,ID,493 EASTLAND DR,MIDDLE
ACORN MONTESSORI,MINNEAPOLIS,MN,310 - 38TH ST. S SUITE 133,MIDDLE
ACORN MONTESSORI CHARTER SCHOOL  INC. - WEST,PRESCOTT VALLEY,AZ,7555 E. LONG LOOK DRIVE,MIDDLE
ARTOIS ELEMENTARY,ARTOIS,CA,PO BOX H,MIDDLE
ACORN MONTESSORI SCHOOL,LEBANON,NJ,1222 STATE ROUTE 31,MIDDLE
ARTS  COMMUNICATIONS ACADEMY AT FAIR PLAIN,BENTON HARBOR,MI,120 E NAPIER AVE,MIDDLE
ACORN SCHOOL,STRATHAM,NH,136 WINNICUTT RD,MIDDLE
ARTS & HUMANITIES FOCUS PRGM,LINCOLN,NE,643 S 25TH STE 9,MIDDLE
ARTS & IDEAS SUDBURY SCHOOL,BALTIMORE,MD,4915 HOLDER AVE,MIDDLE
ACRES OF FUN CHILD CARE CENTER INC.,PINELLAS PARK,FL,6262 62ND AVE N,MIDDLE
ACS EDUCATIONAL RESOURCES AND CONSULTANT LLC,ORMOND BEACH,FL,53 N OLD KINGS RD STE D,MIDDLE
ACT,STONE MOUNTAIN,GA,1170 N HAIRSTON RD,MIDDLE
ARTS AND MEDIA PREPARATORY ACADEMY,BROOKLYN,NY,905 WINTHROP ST,MIDDLE
ACTION BASED ENTERPRISES SCHOOL,WOONSOCKET,RI,141 MAIN ST,MIDDLE
ACTION DAY PRIMARY PLUS ALLEN SCHOOL,SAN JOSE,CA,5845 ALLEN AVE,MIDDLE
ACTIS (O. J.) JUNIOR HIGH,BAKERSFIELD,CA,2400 WESTHOLME BLVD.,MIDDLE
ACTIVE LEARNING CENTER,ALLENTOWN,PA,7200B WINDSOR DR,MIDDLE
ACTIVE LEARNING CENTER,BREINIGSVILLE,PA,9999 HAMILTON BLVD BLDG 10,MIDDLE
ARTS SCHOOL,OAKLAND,CA,5263 BROADWAY TER.,MIDDLE
ARTS THEREAFTER CHRISTIAN SCHOOL,ST CLOUD,FL,2745 CANOE CREEK RD,MIDDLE
ARTSTECH,KANSAS CITY,MO,1522 HOLMES ST,MIDDLE
ARTURO SOMOHANO,BAYAMON,PR,URB VILLA ESPA?A CALLE LOS PIRINEOS,MIDDLE
ARUNDEL CHRISTIAN SCHOOL,HANOVER,MD,"7459 CANDLEWOOD ROAD, SUITES A-F",MIDDLE
ARVIN CONTINUATION HIGH,BAKERSFIELD,CA,2000 24TH ST.,MIDDLE
ARVIN-LAMONT ADULT SCHOOL,ARVIN,CA,PO BOX 518,MIDDLE
ACTON (EH),ACTON,CA,32248 NORTH CROWN VALLEY RD.,MIDDLE
ACTON ACADEMY,AUSTIN,TX,1404 E RIVERSIDE DR,MIDDLE
ACTON ACADEMY ALBUQUERQUE,ALBUQUERQUE,MN,6901 SAN ANTONIO DR NE,MIDDLE
AS YOU ARE PRESCHOOL,RESEDA,CA,7855 LINDLEY AVE,MIDDLE
AS-SABEEL ACADEMY,GREER,SC,1601 CLEMENT RD,MIDDLE
ACTON ACADEMY VENICE BEACH,VENICE,CA,2210 LINCOLN BLVD STE 13,MIDDLE
AS-SAFA INSTITUTE/AS-SAFA ACADEMY,SAN JOSE,CA,801 HIBISCUS LN,MIDDLE
ACTS ACADEMY,VALLEY,AL,316 FOB JAMES DR,MIDDLE
ACTS CHRISTIAN ACADEMY,FARMINGTON,NM,2600 SULLIVAN AVE,MIDDLE
ACU ARKANSAS CHILDREN'S UNIVERSITY,HARRISON,AR,400 HWY 43 E,MIDDLE
AD ASTRA SCHOOL,HAWTHORNE,CA,3715 JACK NORTHROP AVE,MIDDLE
ADA CHRISTIAN SCHOOL,ADA,MI,6206 ADA DR SE,MIDDLE
ASBURY CHILD DEVELOPMENT CENTER,SALISBURY,MD,1401 CAMDEN AVE,MIDDLE
ADAIR COMMUNITY DAY,SUNNYVALE,CA,819 WEST IOWA AVE.,MIDDLE
ADAIR ELEMENTARY,SUNNYVALE,CA,830 W. MCKINLEY,MIDDLE
ASBURY KINDERGARTEN & PRESCHOOL,COLUMBIA,SC,1005 ASBURY DR,MIDDLE
ADALINE E. KENT ELEMENTARY,KENTFIELD,CA,250 STADIUM WAY,MIDDLE
ASCEND LEADERSHIP ACADEMY: LEE COUNTY,DURHAM,NC,315 RONDELAY DRIVE,MIDDLE
ADAMS (JOHN) ADULT HIGH,SAN FRANCISCO,CA,1860 HAYES ST.,MIDDLE
ASCENSION ACADEMY,AMARILLO,TX,9300 ASCENSION PKWY,MIDDLE
ADAMS (JOHN)(APHASIA),TORRANCE,CA,2121 W. 238TH ST.,MIDDLE
ASCENSION CATHOLIC DIOCESAN REGIONAL SCHOOL,DONALDSONVILLE,LA,311 SAINT VINCENT ST,MIDDLE
ASCENSION CATHOLIC SCHOOL,MELBOURNE,FL,3000 N HARBOR CITY BLVD,MIDDLE
ASCENSION ELEMENTARY SCHOOL,OAK PARK,IL,601 VAN BUREN ST,MIDDLE
ASCENSION EPISCOPAL KINDERGARTEN,VESTAVIA,AL,1912 CANYON RD,MIDDLE
ASCENSION EPISCOPAL SCHOOL,HOUSTON,TX,2525 SEAGLER,MIDDLE
ASCENSION EPISCOPAL SCHOOL,YOUNGSVILLE,LA,1800 CHEMIN METAIRIE PKWY,MIDDLE
ASCENSION LUTHERAN SCHOOL,FORT WAYNE,IN,8811 SAINT JOE RD,MIDDLE
ASCENSION LUTHERAN SCHOOL,SARASOTA,FL,800 MCINTOSH RD,MIDDLE
ASCENSION LUTHERAN SCHOOL,THOUSAND OAKS,CA,1600 E HILLCREST DR,MIDDLE
ASCENSION LUTHERAN SCHOOL,TORRANCE,CA,17910 PRAIRIE AVE,MIDDLE
ASCENSION LUTHERAN SCHOOL,TUCSON,AZ,1220 W MAGEE RD,MIDDLE
ASCENSION OF OUR LORD CATHOLIC SCHOOL,LA PLACE,LA,1809 GREENWOOD DR,MIDDLE
ASCENSION SCHOOL,CHESTERFIELD,MO,238 SANTA MARIA DR,MIDDLE
ASCENSION SCHOOL,KETTERING,OH,2001 WOODMAN DR,MIDDLE
ASCENSION SCHOOL,NEW YORK,NY,220 W 108TH ST,MIDDLE
ASCENSION SCHOOL,OVERLAND PARK,KS,9510 W 127TH ST,MIDDLE
ASCENSON,LOUISVILLE,KY,4600 LYNNBROOK DR,MIDDLE
ADAMS COUNTY CHRISTIAN ACADEMY,GETTYSBURG,PA,1865 BIGLERVILLE RD,MIDDLE
ASCENT ACADEMIES OF UTAH - WEST VALLEY,WEST VALLEY CITY,UT,3830 SOUTH 5600 WEST,MIDDLE
ADAMS COUNTY CHRISTIAN SCHOOL,WEST UNION,OH,187 WILLOW DR,MIDDLE
ASCENT SCHOOL FOR INDIVIDUALS WITH AUTISM,DEER PARK,NY,819 GRAND BLVD STE 2,MIDDLE
ASHBROOK INDEPENDENT SCHOOL,CORVALLIS,OR,4045 SW RESEARCH WAY,MIDDLE
ASHCREEK RANCH ACADEMY,TOQUERVILLE,UT,652 SHADY LN,MIDDLE
ADAMS INTERNATIONAL SCHOOL,MAIDENS,VA,1655 BROAD ST RD,MIDDLE
ASHE COUNTY EARLY COLLEGE HIGH,WEST JEFFERSON,NC,363 CAMPUS DR,MIDDLE
ADAMS MIDDLE,RICHMOND,CA,5000 PATTERSON CIR.,MIDDLE
ADAMS MONTESSORI SCHOOL,QUINCY,MA,310 ADAMS ST,MIDDLE
ADAMS PROTESTANT REFORMED CHRISTIAN SCHOOL,WYOMING,MI,5539 BYRON CENTER AVE SW,MIDDLE
ADAMS SCHOOL,REDONDO BEACH,CA,2600 RIPLEY AVE.,MIDDLE
ADAMS SCHOOL,ROCKVILLE,IN,600 N ADAMS RD,MIDDLE
ASHERTON EL,ASHERTON,TX,1295 MAY AVE,MIDDLE
ASHERY,FREDERICKSBURG,OH,9135 TR # 652,MIDDLE
ASHEVILLE CATHOLIC SCHOOL,ASHEVILLE,NC,12 CULVERN ST,MIDDLE
ASHEVILLE CHRISTIAN ACADEMY,SWANNANOA,NC,74 RIVERWOOD RD,MIDDLE
ADAMSVILLE PRIMARY SCHOOL,ATLANTA,GA,286 WILSON MILL RD SW,MIDDLE
ASHEVILLE MONTESSORI SCHOOL,ASHEVILLE,NC,15 JULIA ST,MIDDLE
ASHEVILLE SCHOOL,ASHEVILLE,NC,360 ASHEVILLE SCHOOL RD,MIDDLE
ASHEVILLE-PISGAH CHRISTIAN SCHOOL,CANDLER,NC,90 ACADEMY DR,MIDDLE
ADDAMS JUNIOR HIGH,FRESNO,CA,2117 W. MCKINLEY AVE.,MIDDLE
ADDICOTT (IRWIN O.) (TMR),FRESNO,CA,4784 E. DAYTON AVE.,MIDDLE
ASHLAND ELEMENTARY,SAN LEANDRO,CA,15510 USHER ST.,MIDDLE
ADDLESTONE HEBREW ACADEMY,CHARLESTON,SC,1675 RAOUL WALLENBERG BLVD,MIDDLE
ADELAIDE EDUCATIONAL CENTER,PHILADELPHIA,PA,6100 N 21ST ST,MIDDLE
ADELANTO CHARTER ACADEMY,VICTORVILLE,CA,18000 MCCOY CIR.,MIDDLE
ADELANTO MIDDLE,ADELANTO,CA,18295 RACCOON AVE.,MIDDLE
ADELBROOK-THE LEARNING CENTER OF MANCHESTER,MANCHESTER,CT,42 PROSPECT ST,MIDDLE
ASHLAND MONTESSORI SCHOOL,ASHLAND,OH,1515 MIFFLIN AVE,MIDDLE
ADELPHIAN JR. ACADEMY,HOLLY,MI,740 ACADEMY RD,MIDDLE
ASHLAND TECHNICAL COLLEGE,ASHLAND,KY,4818 ROBERTS DRIVE,MIDDLE
ADELPHOI ACADEMY AT HARTFORD HEIGHTS,NORTH HUNTINGDON,PA,15020 ARDARA RD,MIDDLE
ADELPHOI EDUCATION AT ALTOONA,ALTOONA,PA,900 S JAGGARD ST,MIDDLE
ADELPHOI EDUCATION AT BUTLER,BUTLER,PA,120 W CUNNINGHAM ST,MIDDLE
ADELPHOI EDUCATION AT MILLVALE,PITTSBURGH,PA,608 FARRAGUT ST,MIDDLE
ADELPHOI EDUCATION PARTIAL HOSPITALIZATION,LATROBE,PA,310 LIGONIER ST,MIDDLE
ASHLEY ACADEMY,JOHNSON CITY,TN,1502 KNOB CREEK RD,MIDDLE
ADIRONDACK CHRISTIAN SCHOOL,WILMINGTON,NY,6065 NYS ROUTE 86,MIDDLE
ASHLEY HALL SCHOOL,CHARLESTON,SC,172 RUTLEDGE AVE,MIDDLE
ADMINISTRATOR,KITTANNING,PA,215 AURTHER ST,MIDDLE
ADMIRAL FARRAGUT ACADEMY,ST PETERSBURG,FL,501 PARK ST N,MIDDLE
ASHTON ELEMENTARY,SALINAS,CA,112 S. WOOD ST.,MIDDLE
ADOLESCENT DAY TREATMENT CENTER,SAN JOSE,CA,650 S. BASCOM AVE.,MIDDLE
ADOLFO EGUEN,FLORIDA,PR,CARR 641 KM 1 HM 1 BO PAJONAL,MIDDLE
ADOLPH SCHREIBER HEBREW ACADEMY,NEW CITY,NY,360 NEW HEMPSTEAD RD,MIDDLE
ADONAI ACADEMY,CHATTANOOGA,TN,2809 13TH AVE,MIDDLE
ASHVILLE SCHOOL,OXFORD,PA,272 ASHVILLE RD,MIDDLE
ADRIAN MARTINEZ GANDIA,HATILLO,PR,CALLE MANUEL LA COMBA SECT MARINA,MIDDLE
ASHWOOD WALDORF SCHOOL,ROCKPORT,ME,180 PARK ST,MIDDLE
ADRIAN MEDINA,HUMACAO,PR,CARR 921 INTERSECCI?N 914 BO. TEJAS,MIDDLE
ADRIAN MIDDLE SCHOOL 56 BUILDING,ADRIAN,MI,340 EAST CHURCH ST,MIDDLE
ASIA PACIFIC LANGUAGE SCHOOL,BELLEVUE,WA,14040 NE 8TH ST STE 302,MIDDLE
ADULLAM HOUSE CHRISTIAN ACADEMY,WETUMPKA,AL,7469 GEORGIA RD,MIDDLE
ADULT & CAREER EDUCATION CENTER,DANVILLE,VA,141 GOODE STREET,MIDDLE
ADULT ALTERNATIVE EDUCATION,JURUPA VALLEY,CA,4041 PACIFIC AVE.,MIDDLE
ADULT AND CAREER EDUCATION,POMONA,CA,1515 WEST MISSION BLVD.,MIDDLE
ASP - FLORENCE WEST/A.C.I.,FLORENCE,AZ,915 E. DIVERSION DAM RD.,MIDDLE
ASP - MARANA O.C.T.F./A.C.I.,MARANA,AZ,12610 W. SILVERBELL RD.,MIDDLE
ADULT BASIC ED,PLANO,TX,1300 19TH ST,MIDDLE
ASP - PHOENIX WEST/A.C.I.,PHOENIX,AZ,3402 WEST COCOPAH,MIDDLE
ADULT DIAGNOSTIC AND TREATMENT CENTER,AVENEL,NJ,8 PRODUCTION WAY,MIDDLE
ASPC - DOUGLAS/A.C.I.,DOUGLAS,AZ,6911 NORTH B.D.I. BLVD,MIDDLE
ADULT DIVISION CENTER,WHITTIER,CA,9401 SOUTH PAINTER AVE.,MIDDLE
ASPC - SAFFORD/FT. GRANT/A.C.I.,SAFFORD,AZ,896 S. COOK RD.,MIDDLE
ADULT ED,FORT WORTH,TX,1066 W MAGNOLIA,MIDDLE
ADULT ED,POTTERVILLE,MI,420 N HIGH ST,MIDDLE
ADULT ED DEPARTMENT,DEARBORN HEIGHTS,MI,22586 ANN ARBOR TRL,MIDDLE
ASPEN ACADEMY,GREENWOOD VILLAGE,CO,5859 S UNIVERSITY BLVD,MIDDLE
ADULT EDUCATION,CERES,CA,2491 LAWRENCE ST.,MIDDLE
ADULT EDUCATION,FORT MYERS,FL,2855 COLONIAL BLVD,MIDDLE
ADULT EDUCATION,GARDEN GROVE,CA,11262 GARDEN GROVE BLVD.,MIDDLE
ADULT EDUCATION,HILLSDALE,MI,30 SOUTH NORWOOD AVE,MIDDLE
ADULT EDUCATION,MAYO,FL,363 NE CRAWFORD ST,MIDDLE
ADULT EDUCATION,MISSION VIEJO,CA,25598 PETER A. HARTMAN WAY,MIDDLE
ADULT EDUCATION,MOUNTAIN VIEW,CA,333 MOFFETT BLVD.,MIDDLE
ADULT EDUCATION,RED BLUFF,CA,1050 KIMBALL RD.,MIDDLE
ADULT EDUCATION,SAN RAFAEL,CA,PO BOX 390,MIDDLE
ADULT EDUCATION,THOUSAND OAKS,CA,1025 OLD FARM RD.,MIDDLE
ADULT EDUCATION,UPLAND,CA,565 WEST 11TH ST.,MIDDLE
ADULT EDUCATION,VACAVILLE,CA,188-B BELLA VISTA RD.,MIDDLE
ADULT EDUCATION - INDIANTOWN,INDIANTOWN,FL,15255 SW JACKSON AVE,MIDDLE
ADULT EDUCATION CENTER,HIGHLAND SPRINGS,VA,201 EAST NINE MILE ROAD,MIDDLE
ADULT EDUCATION CENTER,SANTA ROSA,CA,2230 LOMITAS AVE.,MIDDLE
ADULT EDUCATION CENTER OF PALM BEACH,WEST PALM BEACH,FL,2161 N MILITARY TRL,MIDDLE
ADULT EDUCATION EASTSIDE UNION,SAN JOSE,CA,625 EDUCATION PARK DR.,MIDDLE
ADULT EDUCATION EVENING PROGRAM,CARMICHAEL,CA,PO BOX 477,MIDDLE
ADULT EDUCATION PROGRAM,GAINESVILLE,FL,620 E UNIVERSITY AVE,MIDDLE
ADULT EDUCATION PROGRAM,SAN JOSE,CA,625 EDUCATIONAL PARK DR.,MIDDLE
ADULT EDUCATION-MARTIN CO HIGH,STUART,FL,2801 S KANNER HWY,MIDDLE
ADULT EVENING,OAKLAND,CA,2455 CHURCH ST.,MIDDLE
ADULT LEARNING CENTER OSCEOLA,KISSIMMEE,FL,2320 NEW BEGINNINGS RD,MIDDLE
ADULT LEARNING CTR.,VIRGINIA BEACH,VA,4160 VIRGINIA BEACH BLVD,MIDDLE
ADULT SATELLITE EAST,DADE CITY,FL,38301 MARTIN LUTHER KING BLVD,MIDDLE
ADULT SATELLITE WEST,NEW PORT RICHEY,FL,7825 CAMPUS DR,MIDDLE
ADULT TRANSITION PROGRAM,MADERA,CA,955 WEST PECAN AVE.,MIDDLE
ADULT VIRTUAL ACADEMY,PALM SPRINGS,FL,4200 PURDY LN BLDG 50-104,MIDDLE
ADULT/COMMUNITY EDUCATION,CRAWFORDVILLE,FL,126 HIGH DR,MIDDLE
ADULT/COMMUNITY EDUCATION,WAUCHULA,FL,901 W MAIN ST,MIDDLE
ASPIRA CHARTER SCHOOLS,CHICAGO,IL,1711 N CALIFORNIA,MIDDLE
ADULT/VOCATIONAL/COMMUNITY EDUCATION,KEY WEST,FL,5901 COLLEGE RD,MIDDLE
ADVANCE ACADEMY AT MATTHEW REARDON CTR FOR AUTISM,SAVANNAH,GA,"6602 ABERCORN ST., STE 200",MIDDLE
ASPIRATIONS SCHOOL OF LEARNING,CARLSBAD,CA,6286 EL CAMINO REAL,MIDDLE
ASPIRE  HIGH SCHOOL,PRESCOTT,AZ,2970 CENTERPOINTE EAST,MIDDLE
ASPIRE ACADEMY,RICHMOND,VA,2020 WESTWOOD AVE,MIDDLE
ADVANCE CHRISTIAN ACADEMY,MIAMI,FL,14420 NW 7TH AVE,MIDDLE
ADVANCE LEARNING ACADEMY,MAITLAND,FL,140 ADVANCE PT,MIDDLE
ADVANCE LEARNING CENTER,SAINT MARYS,GA,3451 CHARLIE SMITH STATE ROAD HWY,MIDDLE
ASPIRE BENJAMIN HOLT MIDDLE,STOCKTON,CA,3293 EAST MORADA LN.,MIDDLE
ADVANCED CAREER EDUCATION CENTER AT HERMITAGE,RICHMOND,VA,8301 HUNGARY SPRING RD,MIDDLE
ADVANCED CAREER EDUCATION CENTER AT HIGHLAND SPRINGS,HIGHLAND SPRINGS,VA,100 TECH DRIVE,MIDDLE
ADVANCED CHRISTIAN ACADEMY,GRESHAM,OR,2500 SE PALMBLAD RD,MIDDLE
ADVANCED PREPARATORY INTERNATIONAL,DALLAS,TX,5787 S HAMPTON RD STE 115,MIDDLE
ADVANCED TECHNOLOGY CENTER,VIRGINIA BEACH,VA,1800 COLLEGE CRESCENT,MIDDLE
ASPIRE OF WNY/CTR FOR LEARNING,CHEEKTOWAGA,NY,4635 UNION RD,MIDDLE
ADVANCED VIRTUAL ACADEMY,HOUSTON,TX,1102 TELEPHONE RD,MIDDLE
ASSEMBLY CHRISTIAN SCHOOL,NEW IBERIA,LA,4219 E ADMIRAL DOYLE DR,MIDDLE
ASSEMBLY OF FAITH CHR. SCHOOL,DALLAS,NC,1030 LOWER DALLAS HWY,MIDDLE
ASSETS SCHOOL,HONOLULU,HI,1 OHANA NUI WAY,MIDDLE
ADVANTAGE ARTS ACADEMY,FARMINGTON,UT,454 S. 500 E.,MIDDLE
ASSUMPTION ACADEMY,BROADVIEW HEIGHTS,OH,9183 BROADVIEW RD,MIDDLE
ADVENT EPISCOPAL DAY SCHOOL,BIRMINGHAM,AL,2019 6TH AVE N,MIDDLE
ADVENT LUTHERAN PRESCHOOL,ZIONSVILLE,IN,11250 N MICHIGAN RD,MIDDLE
ADVENT LUTHERAN SCHOOL,BOCA RATON,FL,300 E YAMATO RD,MIDDLE
ASSUMPTION ACADEMY,STRAFFORD,PA,135 FAIRFIELD LN,MIDDLE
ASSUMPTION BVM ELEMENTARY SCHOOL,PULASKI,WI,109 E PULASKI ST,MIDDLE
ADVENTIST ACADEMY OF SANTA FE,SANTA FE,NM,702 BISHOPS LODGE RD,MIDDLE
ASSUMPTION BVM SCHOOL,BELMONT,MI,6393 BELMONT AVE NE,MIDDLE
ADVENTIST CHRISTIAN ACADEMY,CHARLOTTE,NC,4601 EMORY LN,MIDDLE
ASSUMPTION BVM SCHOOL,POTTSVILLE,PA,112 S 7TH ST,MIDDLE
ADVENTIST CHRISTIAN ACADEMY,NEW PORT RICHEY,FL,4416 THYS RD,MIDDLE
ASSUMPTION BVM SCHOOL,WEST GROVE,PA,290 STATE ROAD,MIDDLE
ADVENTIST CHRISTIAN ACADEMY,PANAMA CITY,FL,2700 LISENBY AVE,MIDDLE
ASSUMPTION CATHOLIC SCHOOL,BELLINGHAM,WA,2116 CORNWALL AVE,MIDDLE
ADVENTIST CHRISTIAN ACADEMY,RALEIGH,NC,4805 DILLARD DR,MIDDLE
ASSUMPTION CATHOLIC SCHOOL,DENVER,CO,2341 E 78TH AVE,MIDDLE
ADVENTIST CHRISTIAN ELEMENTARY,BLOOMINGTON,IN,2230 N MARTHA ST,MIDDLE
ASSUMPTION CATHOLIC SCHOOL,DURAND,WI,901 W PROSPECT ST,MIDDLE
ASSUMPTION CATHOLIC SCHOOL,HIBBING,MN,2310 7TH AVE E,MIDDLE
ASSUMPTION CATHOLIC SCHOOL,HOUSTON,TX,801 ROSELANE ST,MIDDLE
ASSUMPTION CATHOLIC SCHOOL,JACKSONVILLE,FL,2431 ATLANTIC BLVD,MIDDLE
ADVENTIST CHRISTIAN SCHOOL,DETROIT LAKES,MN,404 RICHWOOD RD,MIDDLE
ASSUMPTION CATHOLIC SCHOOL,PERTH AMBOY,NJ,380 MEREDITH ST,MIDDLE
ADVENTIST CHRISTIAN SCHOOL,KLAMATH FALLS,OR,2499 MAIN ST,MIDDLE
ASSUMPTION EARLY CHILDHOOD CENTER,EMERSON,NJ,35 JEFFERSON AVE,MIDDLE
ADVENTIST CHRISTIAN SCHOOL,RIDGECREST,CA,555 W LAS FLORES AVE,MIDDLE
ADVENTIST CHRISTIAN SCHOOL,WILLITS,CA,22751 BRAY RD,MIDDLE
ADVENTIST CHRISTIAN SCHOOL OF MARYVILLE,MARYVILLE,TN,2925 SEVIERVILLE RD,MIDDLE
ADVENTIST MALAMA ELEMENTARY SCHOOL,WAIANAE,HI,86-072 FARRINGTON HWY,MIDDLE
ASSUMPTION HIGH SCHOOL,LOUISVILLE,KY,2170 TYLER LN,MIDDLE
ASSUMPTION HIGH SCHOOL,WISCONSIN RAPIDS,WI,445 CHESTNUT ST,MIDDLE
ASSUMPTION MIDDLE SCHOOL,WISCONSIN RAPIDS,WI,440 MEAD ST,MIDDLE
ASSUMPTION OF THE BVM ELEMENTARY SCHOOL,PASADENA,CA,2660 E ORANGE GROVE BLVD,MIDDLE
ASSUMPTION OF THE BVM SCHOOL,MORRISTOWN,NJ,63 MACCULLOCH AVE,MIDDLE
ASSUMPTION PARISH SCHOOL,SAINT LOUIS,MO,4709 MATTIS RD,MIDDLE
ASSUMPTION PARISH SCHOOL,SPOKANE,WA,3618 W INDIAN TRL RD,MIDDLE
ASSUMPTION SCHOOL,ANSONIA,CT,51 N CLIFF ST,MIDDLE
ASSUMPTION SCHOOL,LOS ANGELES,CA,3016 WINTER ST,MIDDLE
ASSUMPTION SCHOOL,SAN LEANDRO,CA,1851 136TH AVE,MIDDLE
ASSUMPTION SCHOOL,WALLA WALLA,WA,2066 E ALDER ST,MIDDLE
ASSUMPTION-ST BRIDGET SCHOOL,SEATTLE,WA,6220 32ND AVE NE,MIDDLE
ASSURANCE ACADEMY CHRISTIAN SCHOOL,ROCKLEDGE,FL,1009 S FISKE BLVD,MIDDLE
ADVENTURE CHRISTIAN ACADEMY,TAVARES,FL,3800 STATE ROAD 19,MIDDLE
ADVENTURE ISLAND CHRISTIAN SCHOOL,MURRIETA,CA,40515 CALIFORNIA OAKS RD,MIDDLE
ADVENTURE MONTESSORI LEARNING CENTER,LAFAYETTE,CO,250 S CHERRYWOOD DR,MIDDLE
ADVENTURES IN LEARNING,SATELLITE BEACH,FL,590 CASSIA BLVD,MIDDLE
AEF - WESTHAM ACADEMY,DAVIE,FL,5725 ORANGE DR,MIDDLE
AEF SCHOOLS,DAVIE,FL,4650 SW 61ST AVE,MIDDLE
ASTORIA LUTHERAN SCHOOL,ASTORIA,NY,3120 21ST AVE,MIDDLE
AEP CAMPUS,HOWE,TX,105 W TUTT ST,MIDDLE
ASTRA NOVA SCHOOL,LOS ANGELES,CA,574 HILGARD AVE,MIDDLE
ASU ACADEMY AT MIDDLE FORK,WALKERTOWN,NC,3125 WILLISTON ROAD,MIDDLE
AESA PREP ACADEMY,AUSTIN,TX,14101 CANONADE,MIDDLE
AFA ACADEMY/HOWARD PARK CENTER,WILDWOOD,MO,16375 PIERSIDE LN,MIDDLE
AFRICA-CARE ACADEMY,DALLAS,TX,724 W 10TH ST,MIDDLE
AFTERNOON GROUP LEARNING CENTERS,TOWSON,MD,105 W. CHESAPEAKE AVENUE,MIDDLE
AFTON CHRISTIAN SCHOOL,AFTON,VA,9357 CRITZERS SHOP RD,MIDDLE
AG MONTESSORI SCHOOL,UNIONTOWN,PA,199 EDISON ST,MIDDLE
AGAPE ACADEMY & CHILD DEVELOPMENT CENTER,SAINT LOUIS,MO,7400 OLIVE BLVD,MIDDLE
AGAPE CHRISTIAN ACADEMY,CORSICANA,TX,3116 W STATE HIGHWAY 22,MIDDLE
ATASCOCITA MONTESSORI SCHOOL,HUMBLE,TX,19120 W LAKE HOUSTON PKWY,MIDDLE
AGAPE CHRISTIAN ACADEMY,LOBECO,SC,42 KEANS NECK RD,MIDDLE
AGAPE CHRISTIAN ACADEMY,MOORE HAVEN,FL,24068 US HIGHWAY 27,MIDDLE
ATASCOSA CO ALTER,JOURDANTON,TX,1508 CAMPBELL ST,MIDDLE
AGAPE CHRISTIAN ACADEMY,ORLANDO,FL,2425 N HIAWASSEE RD,MIDDLE
AGAPE CHRISTIAN HIGH SCHOOL,MARION,IL,5208 MEADOWLAND PKWY # A,MIDDLE
ATASCOSA COUNTY JJAEP,JOURDANTON,TX,1508 CAMPBELL ST,MIDDLE
AGAPE CHRISTIAN SCHOOL,MISSION,TX,1401 E 24TH ST,MIDDLE
AGAPE CHRISTIAN SCHOOL OF SARASOTA,SARASOTA,FL,150 N SHADE AVE,MIDDLE
ATASCOSA JUVENILE DETENTION CTR,JOURDANTON,TX,711 BROADWAY ST,MIDDLE
AGAPE GARDEN MONTESSORI SCHOOL,KOKOMO,IN,804 S PURDUM ST,MIDDLE
AGAPE JR ACADEMY,LAWRENCEVILLE,GA,186 NEW HOPE RD,MIDDLE
AGAPE LEARNING CENTER,NEW CASTLE,IN,3200 S 14TH ST,MIDDLE
AGAPE MONTESSORI SCHOOL,EL MONTE,CA,9537 TELSTAR AVE STE 129,MIDDLE
ATCHISON HIGH  SCHOOL,ATCHISON,KS,1500 W. RILEY ST,MIDDLE
AGAPE MONTESSORI SCHOOL,OLATHE,KS,16550 W 129TH ST,MIDDLE
AGAPE SCHOOL FOR GIRLS,WALWORTH,WI,215 S MAIN ST,MIDDLE
AGAPELAND CHRISTIAN ACADEMY,BAKERSFIELD,CA,1030 4TH ST,MIDDLE
AGATHOS CLASSICAL SCHOOL,COLUMBIA,TN,1201 MAPLEASH AVE,MIDDLE
ATERES BAIS YAAKOV,LAKEWOOD,NJ,360 OAK ST,MIDDLE
ATERES BAIS YAAKOV ACADEMY OF ROCKLAND,AIRMONT,NY,236 CHERRY LN,MIDDLE
ATERES TZIPORA,LAKEWOOD,NJ,150 OBERLIN AVE N STE 7,MIDDLE
ATHENA DAY SCHOOL,PLYMOUTH,MA,123 S ST,MIDDLE
AGBU MANOOGIAN-DEMIRDJIAN SCHOOL,CANOGA PARK,CA,6844 OAKDALE AVE,MIDDLE
AGBU VATCHE AND TAMAR MANOUKIAN HIGH SCHOOL,PASADENA,CA,2495 E MOUNTAIN ST,MIDDLE
ATHENA MONTESSORI ACADEMY,AUSTIN,TX,1503 MORGAN LN,MIDDLE
AGETS,FLUSHING,NY,13030 31ST AVE,MIDDLE
AGGIELAND COUNTRY SCHOOL,COLLEGE STATION,TX,1500 QUAIL RUN,MIDDLE
AGIA SOPHIA ACADEMY,BEAVERTON,OR,14485 SW WALKER RD,MIDDLE
ATHENIAN ACADEMY CHARTER SCHOOL,CLEARWATER,FL,2289 N HERCULES AVE,MIDDLE
ATHENOUR EARLY CHILDHOOD EDUCATION CENTER,SAN JOSE,CA,5200 DENT AVE,MIDDLE
ATHENS ACADEMY,ATHENS,GA,1281 SPARTAN LN,MIDDLE
AGNES J. JOHNSON  ELEMENTARY,WEOTT,CA,73 SCH RD.,MIDDLE
ATHENS BIBLE SCHOOL,ATHENS,AL,507 S HOFFMAN ST,MIDDLE
ATHENS CHRISTIAN ACADEMY,ATHENS,TX,105 S CARROLL ST,MIDDLE
ATHENS CHRISTIAN PREPARATORY ACADEMY,ATHENS,TX,2621 US HIGHWAY 175 E,MIDDLE
ATHENS EL,SAN ANTONIO,TX,2707 W GERALD AVE,MIDDLE
