name,city,state,address,website
ESL TEEN LITERACY PROGRAM,OMAHA,NE,3230 BURT ST,"https://district.ops.org/DEPARTMENTS/Curriculum-and-Instruction-Support/English-Learners/EL-Programs/Secondary-EL"
BERRIEN COUNTY TRUANCY ACADEMY,BERRIEN SPRINGS,MI,1 SYLVESTER AVE,"https://projects.propublica.org/miseducation/school/260543008402"
ESL TEEN LITERACY PROGRAM,OMAHA,NE,3230 BURT ST,"https://district.ops.org/DEPARTMENTS/Curriculum-and-Instruction-Support/English-Learners/EL-Programs/Secondary-EL"
BERRIEN COUNTY TRUANCY ACADEMY,BERRIEN SPRINGS,MI,1 SYLVESTER AVE,"https://projects.propublica.org/miseducation/school/260543008402"
DILLON MIDDLE,DILLON,SC,1803 JOAN DRIVE,"http://www.dillon.k12.sc.us/schools/dillon_middle_school_school"
CENTER FOR ADVANCED TECHNICAL STUDIES,CHAPIN,SC,916 MOUNT VERNON CHURCH ROAD,"https://www.lexrich5.org/CATS"
MCCORMICK ELEMENTARY,MULLINS,SC,1123 SANDY BLUFF ROAD,"https://sc01001536.schoolwires.net/Domain/8"
BIRTH TO THREE,TACOMA,WA,303 159TH STREET E,"https://www.birthtothree.org/"
MABTON JR. SR. HIGH,MABTON,WA,500 B ST.,"https://www.msd120.org/apps/pages/index.jsp?uREC_ID=1385452&type=d&pREC_ID=1960144"
SEATTLE SKILLS CENTER,SEATTLE,WA,2445 3RD AVE S,"https://skillscenter.seattleschools.org/"
SPOKANE COUNTY JAIL,SPOKANE,WA,PUBLIC SAFETY BUILDING,"https://www.spokanecounty.org/352/Inmate-Roster"
WAHITIS ELEMENTARY SCHOOL,OTHELLO,WA,905 SOUTH 14TH AVENUE,"https://www.othelloschools.org/wahitis"
NW ALLPREP,VANCOUVER,WA,237 CHKALOV STE 108,"https://www.nwallprep.com/"
MCKEE PREK CENTER,MONTGOMERY,AL,4015 MCINNIS RD,"https://www.mps.k12.al.us/Domain/53"
NEW KENT HIGH,NEW KENT,VA,7365 EGYPT RD,"http://nkhs.newkentschools.org/"
CHIEF KANIM MIDDLE SCHOOL,FALL CITY,WA,32627 SE REDMOND FALL CITY R,"https://www.svsd410.org/chiefkanim"
MARYSVILLE MIDDLE SCHOOL,MARYSVILLE,WA,4923 67TH ST NE,"https://www.msd25.org/o/marysville-middle-school"
EVERGREEN MIDDLE SCHOOL,EVERETT,WA,7621 BEVERLY LN.,"https://ems.lwsd.org/"
GEORGE WASHINGTON BUSH MIDDLE SCH,TUMWATER,WA,2120 83RD AVENUE SW,"https://www.tumwater.k12.wa.us/bms"
MISSION COLLEGIATE H S,ALTON,TX,605 S LOS EBANOS RD,"https://mchs.mcisd.net/"
GRAVITY HIGH SCHOOL,TUMWATER,WA,6005 TYEE DR. SW,"https://www.gravitycenters.org/"
HERNANDEZ LEARNING CENTER,SAN ANTONIO,TX,8634 LARKIA LN,"https://childcarecenter.us/provider_detail/pci_hernandez_learning_center_san_antonio_tx"
CLINCH RIVER COMMUNITY SCHOOL,CLINTON,TN,160 MAVERICK CIR,"https://www.acs.ac/CRCS"
ANDERSON FIVE CAREER CAMPUS,ANDERSON,SC,1225 SOUTH MCDUFFIE STREET,"https://mysceducation.org/public-school/career/405995/basics/"
RICHARD CARROLL ELEMENTARY,BAMBERG,SC,1980 MAIN HIGHWAY,"https://rces.bamberg1.net/"
CLAY HILL ELEMENTARY,RIDGEVILLE,SC,387 SOUTH RAILROAD AVENUE,"https://clayhill.dorchester4.k12.sc.us/"
DOVER AREA EL SCH,DOVER,PA,109 E CANAL ST,"https://www.doversd.org/schools/dover-elementary/"
LANDIS RUN INTERMEDIATE SCHOOL,LANCASTER,PA,25 BLUE STREAK BOULEVARD,"https://www.mtwp.net/landis-run/"
DAVIS SCH,YORK,PA,300 S OGONTZ ST,"https://health.ucdavis.edu/nursing/admissions/programs/mhs-pa.html"
SHILOH HILLS EL SCH,SINKING SPRING,PA,301 SAGE DRIVE,"https://www.wilsonsd.org/shiloh-hills-elementary/"
CASTLE BRIDGE SCHOOL,NEW YORK,NY,560 W 169TH ST,"https://www.schools.nyc.gov/schools/M513"
LIGHTHOUSE ACADEMY NORTH CAMPUS,GRAND RAPIDS,MI,1260 EKHART ST NE,"https://www.lighthouseacademyschool.org/campus-locations/lighthouse-north/"
KLOEFKORN ELEMENTARY,LINCOLN,NE,6601 GLASS RIDGE DRIVE,"https://kloefkorn.lps.org/"
PRIEST RIVER JR HIGH SCHOOL,PRIEST RIVER,ID,1020 W ALBENI HIGHWAY,"http://jrh.sd83.org/"
POTTS CAMP MIDDLE SCHOOL (4-8),POTTS CAMP,MS,7050 CHURCH AVENUE,"https://pcs.marshallcountysd.org/en-US"
LAKE HIGH SCHOOL,LAKE,MS,24442 HWY 80,"https://lhs.scott.k12.ms.us/"
WALKER-HACKENSACK-AKELEY ALC,WALKER,MN,301 4TH ST,"https://www.wha.k12.mn.us/en-US"
I.J. HOLTON INTERMEDIATE SCHOOL,AUSTIN,MN,1800 4TH AVE SE,"https://holton.austin.k12.mn.us/"
CARROLL MIDDLE SCHOOL,FORT WAYNE,IN,4027 HATHAWAY RD,"https://cm.nacs.k12.in.us/"
BAY CITY ACADEMY FARRAGUT CAMPUS,BAY CITY,MI,301 N FARRAGUT ST,"https://www.baycityacademy.com/"
LINCOLNKING ACADEMY,DETROIT,MI,13436 GROVE ST,"https://www.cornerstoneschools.org/school/lincoln-king-academy/"
LIGHTHOUSE ACADEMY THE HAVEN,GRAND RAPIDS,MI,1565 CEDAR ST NE,"https://www.lighthouseacademyschool.org/campus-locations/"
W G MALLETT SCHOOL,FARMINGTON,ME,113 QUEBEC ST,"https://www.mtbluersd.org/mallett"
FOSTER REGIONAL APPLIED TECH CTR,FARMINGTON,ME,129 SEAMON RD,"http://foster.mainecte.org/"
J. S. CLARK ELEMENTARY SCHOOL,SHREVEPORT,LA,351 HEARNE AVENUE,"https://clark.mcschools.net/"
ROLLINS PLACE ELEMENTARY,ZACHARY,LA,4488 ROLLINS ROAD,"https://rollinsplaceelementary.org/"
EMMERICH MANUAL HIGH SCHOOL,INDIANAPOLIS,IN,2405 MADISON AVE,"https://www.chschools.org/our-schools/manual-high-school/"
LETCHER MIDDLE SCHOOL,LETCHER,KY,162 LHS DR,"https://www.letcher.kyschools.us/3/home"
EXCEL CENTER - ANDERSON,ANDERSON,IN,630 NICHOLS AVE,"https://excelcenter.org/locations/"
SMITH ACADEMY FOR EXCELLENCE,FORT WAYNE,IN,725 W WASHINGTON BLVD,"https://www.fwsafe.com/"
THEODORE ROOSEVELT CAR & TECH ACAD,GARY,IN,730 W 25TH AVE,"https://inview.doe.in.gov/schools/1046904033/profile"
OAK BROOK PARK DISTRICT,OAK BROOK,IL,1450 FOREST GATE RD,"https://www.obparks.org/"
BEVERLY HILLS MS,UPPER DARBY,PA,1400 GARRETT RD,"https://www.upperdarbysd.org/bhms"
HENRY M. JACKSON HIGH SCHOOL,MILL CREEK,WA,1508 136TH ST. SE,"https://www.everettsd.org/jacksonhigh"
TENINO HIGH SCHOOL,TENINO,WA,500 WEST SECOND AVE,"https://www.teninosd.org/o/high-school"
GARFIELD ELEMENTARY SCHOOL,OLYMPIA,WA,325 PLYMOUTH ST NW,"https://www.everettsd.org/garfieldes"
FRANCISCO G. PACHIN MARIN,ARECIBO,PR,URB VISTA AZUL CALLE 17,"https://www.manta.com/c/mhhx7rc/francisco-g-pachin-marin"
PLEASANT VALLEY ELEM SCHOOL,PEORIA,IL,4623 W RED BUD DR,"https://www.pv62.com/"
BEVERLY MANOR ELEMENTARY SCHOOL,WASHINGTON,IL,1014 SCHOOL ST,"https://www.d50schools.com/"
P L BOLIN ELEM SCHOOL,EAST PEORIA,IL,428 ARNOLD RD,"https://www.epd86.org/index.php/bolin-home"
WINCHESTER COMMUNITY HIGH SCHOOL,WINCHESTER,IN,700 UNION ST,"https://www.rc.k12.in.us/o/winchester-community-high-school"
WAINWRIGHT MIDDLE SCHOOL,LAFAYETTE,IN,7501 E 700 S,"https://wms.tsc.k12.in.us/"
FOUST ELEMENTARY SCHOOL,OWENSBORO,KY,601 FOUST AVE,"https://owensboro.kyschools.us/foust"
ALDEN-CONGER SECONDARY,ALDEN,MN,215 N BROADWAY,"https://www.alden-conger.org/"
FAIRMOUNT,HACKENSACK,NJ,105 GRAND AVENUE,"https://www.city-data.com/neighborhood/Fairmount-Newark-NJ.html"
LARCHMONT ELEMENTARY SCHOOL,MOUNT LAUREL,NJ,301 LARCHMONT BLVD,"http://lm.mtlaurelschools.org/"
JAMES W. LILLEY JR. ELEMENTARY SCHOOL,ERIAL,NJ,1275 WILLIAMSTOWN ROAD,"https://www.gloucestertownshipschools.org/schools/lilley.jsp"
MCKINLEY HIGH SCHOOL,NILES,OH,616 DRAGON DR,"https://www.ccsdistrict.org/mckinley"
SU DR ARTURO MORALES CARRION,SAN JUAN,PR,CARR 1 RM 19.3 BO TORTUGO,"https://www.waze.com/live-map/directions/escuela-su-dr.-arturo-morales-carrion-pr-873-san-juan?to=place.w.192610487.1926170411.6900238"
ACADEMY OF MATHEMATICS AND SCIENCE SOUTH,PHOENIX,AZ,3335 W. FLOWER ST.,"https://www.amsschools.org/"
PETERSBURG ELEM SCHOOL,PETERSBURG,IL,514 W MONROE ST,"https://www.porta202.org/"
VALESKA HINTON EARLY CH ED CTR,PEORIA,IL,800 W RB GARRETT AVE,"https://www.peoriapublicschools.org/valeskahinton"
TENTH STREET SCHOOL,JASPER,IN,328 W 10TH ST,"https://www.rsd.k12.pa.us/tenthstreetelementary_home.aspx"
VILLE PLATTE HIGH SCHOOL,VILLE PLATTE,LA,210 WEST COTTON STREET,"https://vphs.epsb.com/"
SADDLE RIDGE ELEMENTARY AND MIDDLE SCHOOL,ROCK SPRING,GA,9858 N HIGHWAY 27,"https://sre.walkerschools.org/"
PIKE LAKE ELEMENTARY,DULUTH,MN,5682 MARTIN RD,"https://pl.proctor.k12.mn.us/"
BIG LAKE MIDDLE SCHOOL,BIG LAKE,MN,601 MINNESOTA AVE,"https://www.biglakeschools.org/domain/60"
NORTHWEST VALLEY SCH.,HOUSE SPRINGS,MO,4300 GRAVOIS RD,"https://www.northwestschools.net/Domain/15"
WOOD RIVER RURAL MIDDLE SCHOOL,WOOD RIVER,NE,13800 W WOOD RIVER RD,"https://www.woodrivereagles.org/"
ROPER ELEMENTARY SCHOOL,LINCOLN,NE,2323 S CODDINGTON ST,"https://roper.lps.org/"
BASIC ACADEMY OF INT'L STUDIES HS,HENDERSON,NV,400 PALO VERDE DR.,"https://www.basicacademy.org/"
LEWIS F. COLE MIDDLE SCHOOL,FORT LEE,NJ,467 STILLWELL AVENUE,"http://flms.flboe.com/"
WALLACE ELEMENTARY SCHOOL,HOBOKEN,NJ,1100 WILLOW AVENUE,"http://www.hoboken.k12.nj.us/schools/wallace_elementary_school"
MANCHESTER TOWNSHIP HIGH SCHOOL,MANCHESTER,NJ,101 S COLONIAL DR,"https://www.manchestertwp.org/mths"
CHICAGO COLLEGIATE CHARTER SCHOOL,CHICAGO,IL,11816 S INDIANA AVE,"https://chicagocollegiate.org/"
INTRINSIC CHARTER HIGH SCHOOL,CHICAGO,IL,4540 W BELMONT AVE,"https://intrinsicschools.org/"
BROWNSBURG EARLY CHILDHOOD CENTER,BROWNSBURG,IN,111 EASTERN AVE,"https://www.brownsburg.k12.in.us/BECC"
FORT DODGE MIDDLE SCHOOL,FORT DODGE,IA,800 NORTH 32ND STREET,"https://www.fdschools.org/schools/fort-dodge-middle-school"
COLO-NESCO ELEMENTARY SCHOOL,ZEARING,IA,407 N CENTER,"https://www.colonesco.org/"
LESLIE COUNTY AREA TECHNOLOGY CENTER,HYDEN,KY,175 EAGLE LANE,"http://lcatc.leslie.kyschools.us/"
PULASKI COUNTY AREA TECHNOLOGY CENTER,SOMERSET,KY,3865 S HWY 27,"http://pulaskiatc.com/"
FRANKFORT EARLY LEARNING ACADEMY,FRANKFORT,KY,959 LEESTOWN LN,"https://www.frankfort.kyschools.us/ela.aspx"
CALLOWAY COUNTY ALTERNATIVE PROGRAM,MURRAY,KY,2003 COLLEGE FARM RD,"https://www.calloway.kyschools.us/userfiles/199/my%20files/aec%20brochure2016%20pdf.pdf?id=251"
CALLOWAY COUNTY DAY TREATMENT,MURRAY,KY,2003 COLLEGE FARM RD,"https://www.calloway.kyschools.us/userfiles/199/my%20files/dtc%20brochure2016%20pdf.pdf?id=252"
CORBIN SCHOOL OF INNOVATION,CORBIN,KY,222 CORBIN CENTER DRIVE,"https://corbininnovate.org/"
METCALFE COUNTY ELEMENTARY SCHOOL,EDMONTON,KY,701 W. STOCKTON STREET,"https://www.metcalfe.kyschools.us/"
RIVER OAKS HOSPITAL,HARAHAN,LA,1525 RIVER OAKS ROAD WEST,"https://riveroakshospital.com/"
EXCELLENCE ACADEMY CHARTER SCHOOL,MONROE,LA,811 WASHINGTON STREET,"https://www.realtor.com/local/schools/Excellence-Academy-Charter-School-0731503861"
HOMER A. PLESSY COMMUNITY SCHOOL,NEW ORLEANS,LA,2021 PAUGER STREET,"http://www.plessyschool.org/"
MOMENTUM ACADEMY,HAZEL PARK,MI,99 E WOODWARD HEIGHTS BLVD,"http://www.momentumacademy.org/"
MIDDLE SCHOOL MATHEMATICS SCIENCE TECHNOLOGY CENTER,WARREN,MI,27500 COSGROVE DR,"http://www.wcs.k12.mi.us/mmstc/students/"
DEFIANCE MIDDLE SCHOOL,DEFIANCE,OH,629 ARABELLA ST,"https://www.defiancecityschools.org/juniorhigh_home.aspx"
GROVEPORT MADISON HIGH SCHOOL,GROVEPORT,OH,4475 S HAMILTON RD,"https://www.gocruisers.org/highschool_home.aspx"
GLOBAL TECH ACADEMY,YPSILANTI,MI,1715 E FOREST AVE,"https://globaltech.geeacademies.net/"
BROWNELL STEM ACADEMY,FLINT,MI,6302 OXLEY DR,"https://brownell.flintschools.org/"
UPPER MISSISSIPPI HIGH ACADEMY,SAINT PAUL,MN,426 OSCEOLA AVE S,"https://umissacademy.org/"
HILLCREST COLONY ELEMENTARY,POWER,MT,1124 WILSON ROAD,"https://www.areavibes.com/vaughn-mt/schools/hillcrest+colony+elementary-300585001109/"
PATERSON ARTS AND SCIENCE CHARTER SCHOOL,PATERSON,NJ,764 11THE AVE,"https://ilearnschools.org/paterson-arts-science-charter-school/"
CAMDEN COMMUNITY CHARTER SCHOOL,CAMDEN,NJ,9TH & LINDEN STREETS,"https://www.inquirer.com/philly/news/politics/nj/NJ-directs-Camden-Community-Charter-School-to-close-by-June-30.html"
PHILLIP'S ACADEMY CHARTER SCHOOL,NEWARK,NJ,342 CENTRAL AVENUE,"https://www.pacsnewark.org/"
BRIGHTON AVENUE SCHOOL,ATLANTIC CITY,NJ,30 N. BRIGHTON AVENUE,"https://www.acboe.org/Domain/9"
FAIRMONT NEIGHBORHOOD SCHOOL,BRONX,NY,1550 VYSE AVE,"https://www.schools.nyc.gov/schools/X314"
WALTON AVENUE SCHOOL (THE),BRONX,NY,1425 WALTON AVE,"https://www.schools.nyc.gov/schools/X294"
WOODSIDE ELEMENTARY,BOTHELL,WA,17000 23RD AVE. SE,"https://www.everettsd.org/woodsidees"
GREEN PARK ELEMENTARY SCHOOL,WALLA WALLA,WA,1105 E ISAACS AVE,"https://www.greenparkelementary.org/"
NICOLAS AGUAYO ALDEA,CAGUAS,PR,13 CALLE RAFAEL CORDERO URB. BORINQUEN,"https://thebiography.us/en/aguayo-y-aldea-nicolas"
BUCKINGHAM CO ELEMENTARY,DILLWYN,VA,40 FRANK HARRIS RAOD,"http://www.bcpschools.org/"
HARBOR VIEW SCHOOL (THE),STATEN ISLAND,NY,300 RICHMOND TERR,"http://www.theharborviewschool.org/"
ALVARADO ELEMENTARY,UNION CITY,CA,31100 FREDI ST.,"https://aes.mynhusd.org/"
PRAIRIE HARBOR ALTERNATIVE SCHOOL,WALLIS,TX,7146 HWY 60,"https://schools.texastribune.org/districts/brazos-isd/prairie-harbor-alternative-school/"
YVONNE B. MILLER HIGH SCHOOL,RICHMOND,VA,600 E. MAIN STREET,"http://www.djj.virginia.gov/pages/admin/education.htm"
DISCOVERY HIGH SCHOOL,LONGVIEW,WA,2742 HARDING BLVD,"https://camas.wednet.edu/schools/dhs/"
HELA HIGH SCHOOL,VANCOUVER,WA,9105 NE 9TH STREET,"https://www.columbian.com/news/2019/oct/19/clark-asks-how-did-vancouver-come-to-have-a-henrietta-lacks-high-school/"
SKILL SOURCE LEARNING CENTER,MOSES LAKE,WA,309 E. 5TH AVE.,"https://www.skillsource.org/"
VALLEY VIEW ELEMENTARY SCHOOL,BONNERS FERRY,ID,6750 AUGUSTA STREET,"https://valleyview.boiseschools.org/"
HERITAGE JH AND ELEM SCH,HOMER,IL,512 W 1ST ST,"https://www.heritage8.org/"
WOLF RIDGE JUNIOR HIGH SCHOOL,BUNKER HILL,IL,700 W ORANGE ST,"https://www.bhschools.org/o/wolf-ridge"
AMERICAN LEADERSHIP ACADEMY ANTHEM SOUTH CAMPUS,FLORENCE,AZ,4380 N. HUNT HWY,"https://www.alaschools.org/anthem-south-k-6"
RICHWOODS HIGH SCHOOL,PEORIA,IL,6301 N UNIVERSITY ST,"https://www.peoriapublicschools.org/richwoods"
COULTERVILLE ELEMENTARY SCHOOL,COULTERVILLE,IL,PO BOX 396,"https://www.cvillecusd1.com/"
MARIE SCHAEFER ELEM SCHOOL,O FALLON,IL,505 S CHERRY ST,"https://www.of90.net/schaefer"
DELAVAN JR HIGH SCHOOL,DELAVAN,IL,907 LOCUST ST,"https://www.delavanschools.com/"
NEW HAVEN MIDDLE SCHOOL,NEW HAVEN,IN,900 PROSPECT AVE,"http://nhj.eacs.k12.in.us/"
COLUMBIA ELEMENTARY SCHOOL,LOGANSPORT,IN,20 E COLUMBIA ST,"http://www.columbiaes.dekalb.k12.ga.us/"
NORTH VIEW ELEMENTARY SCHOOL,MUNCIE,IN,807 W YALE AVE,"http://northview.muncie.k12.in.us/"
SUSSEX CENTRAL ELEMENTARY,STONY CREEK,VA,21392 SUSSEX DRIVE,"https://www.sussex.k12.va.us/Domain/10"
INFINITY EARLY COLLEGE H S,NEW CANEY,TX,21500 EAGLE DR,"https://www.newcaneyisd.org/domain/23"
GROSENBACHER EL,SAN ANTONIO,TX,5900 EVERS RD,"https://schoolsparrow.com/TX/san-antonio/grosenbacher-el"
VIRIDIAN EL,ARLINGTON,TX,4001 CASCADE SKY DR,"https://www.hebisd.edu/Viridian"
LULING PRI,LULING,TX,118 BOWIE,"https://ps.luling.txed.net/"
INTERNATIONAL LEADERSHIP OF TEXAS - GARLAND MIDDLE,GARLAND,TX,3301 N SHILOH RD,"https://www.iltexasges.com/"
INTERNATIONAL LEADERSHIP OF TEXAS - GARLAND H S,GARLAND,TX,4413 N SHILOH RD,"https://www.iltexasghs.com/"
MEMPHIS VIRTUAL SCHOOL,MEMPHIS,TN,3772 JACKSON AVE,"https://schools.scsk12.org/memphisvirtualschool"
C L JONES MIDDLE SCHOOL,MINDEN,NE,520 W 3RD,"https://www.mindenwhippets.org/o/cl-jones-middle"
BERTRAND F GIBBS ELEMENTARY SCHOOL,NEW MILFORD,NJ,195 SUTTON PLACE,"https://www.newmilfordschools.org/gibbs"
MARLTON MIDDLE,MARLTON,NJ,150 TOMLINSON MILL ROAD,"https://eveshammms.ss10.sharpschool.com/"
TWIN RIVERS INTRMD SCH,MC KEESPORT,PA,1602 CORNELL STREET,"https://www.mckasd.net/domain/305"
PS 180 HUGO NEWMAN,NEW YORK,NY,370 W 120TH ST,"https://www.hugonewmanprep.org/"
DOVE SCIENCE ACADEMY ES (OKC),OKLAHOMA CITY,OK,4901 N LINCOLN BLVD,"https://www.dsaelementary.org/"
TREBEIN ELEMENTARY SCHOOL,XENIA,OH,1728 DAYTON XENIA RD,"https://www.gocreek.org/page/trebein-elementary"
INDIAN CREEK MIDDLE SCHOOL GRADES 5 & 6,MINGO JUNCTION,OH,2379 WILSON AVE,"https://icms.newtoncountyschools.org/"
TROTWOOD-MADISON MIDDLE SCHOOL,TROTWOOD,OH,4420 N UNION RD,"https://www.trotwood.k12.oh.us/trotwood-madisonmiddle_home.aspx"
SPENCERVILLE HIGH SCHOOL,SPENCERVILLE,OH,2500 WISHER DR,"https://www.spencervillebearcats.com/"
COLLEGE AND CAREER HIGH SCHOOL,ALBUQUERQUE,NM,900 UNIVERSITY BLVD SE,"https://cchs-aps-nm.schoolloop.com/"
BRIAR MIDDLE SCHOOL,SANDUSKY,OH,3700 SOUTH AVE,"http://www.briarmiddle.org/home"
LAKE PARK SCHOOL,WILLMAR,MN,1804 CIVIC CENTER DR NE,"https://www.lakeparkaudubon.com/"
PRAIRIE LAKES EDUCATION CENTER,WILLMAR,MN,1804 CIVIC CENTER DR,"https://www.willmar.k12.mn.us/domain/469"
WORTHINGTON 518 (VIRTUAL INSTRUCT,WORTHINGTON,MN,117 11TH AVENUE STE 2,"https://www.isd518.net/schools/vibe/"
JACKSON PREPARATORY EARLY COLLEGE,JACKSON,MI,2111 EMMONS RD,"https://www.jacksonpec.org/"
SOUTH SCRANTON INTRMD SCH,SCRANTON,PA,355 MAPLE ST,"https://southis.scrsd.org/"
GEORGE B WEATHERBEE SCHOOL,HAMPDEN,ME,22 MAIN ROAD NORTH,"https://weatherbee.rsu22.us/"
FIDDLEHEAD SCHOOL OF ARTS & SCIENCE,GRAY,ME,25 SHAKER RD,"https://fiddleheadschool.org/"
CAMPBELL COUNTY AREA TECHNOLOGY CENTER,ALEXANDRIA,KY,909 CAMEL CROSSING,"https://www.campbellcountyschools.org/12/home"
CHRISTOPHER HOUSE CHRT ES,CHICAGO,IL,5235 W BELDEN ST,"https://www.christopherhouse.org/"
COLORADO STEM ACADEMY,WESTMINSTER,CO,7281 IRVING STREET,"https://www.westminsterpublicschools.org/costemacademy"
GENESEE STEM ACADEMY,FLINT,MI,5240 CALKINS ROAD,"https://geneseestem.com/"
SUGARLAND ELEMENTARY,STERLING,VA,65 SUGARLAND RUN DR,"https://www.lcps.org/SUGARLAND"
ARIZONA CITY ELEMENTARY SCHOOL,ARIZONA CITY,AZ,12115 W BENITO DR,"https://www.toltecsd.org/arizonacityelementaryschool_home.aspx"
SADDLEBACK PRESCHOOL,MARICOPA,AZ,18600 N. PORTER RD.,"https://www.musd20.org/ses"
CIRCLE CENTER GRADE SCHOOL,YORKVILLE,IL,901 MILL ST,"https://www.y115.org/Domain/12"
PLAINFIELD SOUTH HIGH SCHOOL,PLAINFIELD,IL,7800 CATON FARM RD,"https://pshs.psd202.org/"
PARKSIDE ELEMENTARY SCHOOL,GOSHEN,IN,1202 S 7TH ST,"https://www.atlantapublicschools.us/parkside"
PRINCETON COMMUNITY HIGH SCHOOL,PRINCETON,IN,1101 N MAIN ST,"https://www.ngsc.k12.in.us/pchs-home"
BLUE ACADEMY,INDIANAPOLIS,IN,5650 MANN RD,"https://www.decaturproud.org/blue-academy"
SOUTH VIENNA ELEMENTARY SCHOOL,SOUTH VIENNA,OH,140 W MAIN ST,"https://www.nelsd.org/southviennaelementaryschool_home.aspx"
CHESTNUT HILL EL SCH,ERIE,PA,1001 W 54TH ST,"https://www.mtsd.org/schools/chestnut-hill/main"
FRANK BORMAN SCHOOL,PHOENIX,AZ,3637 N. 55TH AVE.,"http://cartwrightborman.ss12.sharpschool.com/"
ANDALUCIA MIDDLE SCHOOL,PHOENIX,AZ,4730 W. CAMPBELL,"https://www.spellingcity.com/andalucia-middle-school-phoenix-az.html"
SC GOVERNOR'S SCHOOL FOR ARTS AND HUMANITIES,GREENVILLE,SC,15 UNIVERSITY STREET,"https://www.scgsah.org/"
DESERT MIRAGE PREPARATORY ACADEMY,YOUNGTOWN,AZ,13226 NORTH 113TH AVENUE,"https://www.ade.az.gov/edd/NewDetails.asp?EntityID=92224&RefTypeID=1035"
EVOLUTION ACADEMY HOUSTON,SPRING,TX,2414 SPRING CYPRESS RD,"http://www.evolutionacademy.org/"
SLAUSON INTERMEDIATE,AZUSA,CA,340 W. FIFTH ST.,"https://www.cde.ca.gov/schooldirectory/details?cdscode=19642796011324"
THOMAS RILEY HIGH,LOS ANGELES,CA,1524 E. 103RD ST.,"https://rileyhs-lausd-ca.schoolloop.com/"
CONNECTICUT RIVER ACADEMY,EAST HARTFORD,CT,ONE RIVERSIDE DRIVE,"https://www.ctriveracademy.org/"
ELLIJAY PRIMARY SCHOOL,ELLIJAY,GA,196 MCCUTCHEN ST,"http://gilmerschoolsees.ss19.sharpschool.com/"
RISLEY MIDDLE SCHOOL,BRUNSWICK,GA,707 SOUTHPORT PKWY,"https://risley.glynn.k12.ga.us/"
WESTSIDE ACHIEVEMENT MIDDLE SCHOOL,MEMPHIS,TN,3389 DAWN DR,"https://fraysercs.org/westside-middle-school/"
THE INCUBATOR,LOS ANGELES,CA,7400 W. MANCHESTER BLDG K,"https://laincubator.org/"
DOTY MIDDLE,DOWNEY,CA,10301 S. WOODRUFF AVE.,"http://www.dusd.net/doty"
KEWANEE HIGH SCHOOL,KEWANEE,IL,1101 E 3RD ST,"https://www.kcud229.org/high-school"
RAVINIA ELEM SCHOOL,HIGHLAND PARK,IL,763 DEAN AVE,"https://www.nssd112.org/ravinia"
SARAH A RAYMOND SCH OF EARLY EDUC,BLOOMINGTON,IL,1402 W OLIVE ST,"https://www.district87.org/raymond"
WELLS ELEM SCHOOL,EAST MOLINE,IL,490 AVE OF CITIES,"https://www.emsd37.org/o/wes"
MACARTHUR ELEMENTARY,LAKEWOOD,CA,6011 CENTRALIA ST.,"https://macarthur-lbusd-ca.schoolloop.com/"
DEE-MACK HIGH SCHOOL,MACKINAW,IL,401 E FIFTH ST,"https://www.deemack.org/"
CAMPUS HIGH HAYSVILLE,WICHITA,KS,2100 W 55TH ST SOUTH,"http://www.usd261.com/Campus/index.php"
JAMES T ALTON MIDDLE SCHOOL,VINE GROVE,KY,100 COUNTRY CLUB RD,"https://www.hardin.k12.ky.us/jta"
SLOVER MOUNTAIN HIGH (CONTINUATION),COLTON,CA,325 HERMOSA ST.,"https://www.cde.ca.gov/schooldirectory/details?cdscode=36676863636131"
EMERSON/BANDINI ELEMENTARY,SAN DIEGO,CA,3510 NEWTON AVE.,"https://emersonbandini.sandiegounified.org/"
HAMILTON ELEMENTARY,HAMILTON,VA,54 S KERR ST,"https://www.lcps.org/HAMILTON"
SILVER FIRS ELEMENTARY,EVERETT,WA,5909 146TH PL. SE,"https://www.everettsd.org/silverfirs"
ALEJANDRO TAPIA Y RIVERA,SAN JUAN,PR,VILLA PALMERA 369 CALLE BELEVUE,"https://www.amazon.com/Books-Alejandro-Tapia-y-rivera/s?rh=n%3A283155%2Cp_27%3AAlejandro+Tapia+y+rivera"
PAT BUTLER ELEMENTARY,PASO ROBLES,CA,700 NICKLAUS ST.,"https://www.pasoschools.org/patbutler"
BURLINGAME INTERMEDIATE,BURLINGAME,CA,1715 QUESADA WAY,"https://bi-bsd-ca.schoolloop.com/"
GARNET J. ROBERTSON INTERMEDIATE,DALY CITY,CA,1 MARTIN ST.,"https://www.cde.ca.gov/schooldirectory/details?cdscode=41688586043400"
CORTE MADERA,PORTOLA VALLEY,CA,4575 ALPINE RD.,"https://www.townofcortemadera.org/"
RANCHO MILPITAS MIDDLE,MILPITAS,CA,1915 YELLOWSTONE AVE.,"https://rancho.musd.org/"
CLYDE L. FISCHER MIDDLE,SAN JOSE,CA,1720 HOPKINS DR.,"https://fischer.arusd.org/"
JOLIET CENTRAL HIGH SCHOOL,JOLIET,IL,201 E JEFFERSON ST,"https://www.jths.org/joliet-central-high-school"
HIGHLAND EL SCH,EPHRATA,PA,99 HIGHLAND AVE,"https://www.wssd.k12.pa.us/highland.aspx"
SUNRISE ELEMENTARY SCHOOL,AURORA,CO,4050 SOUTH GENOA WAY,"https://www.cherrycreekschools.org/sunrise"
FORT LOGAN NORTHGATE,ENGLEWOOD,CO,4107 SOUTH FEDERAL BOULEVARD,"https://www.ssd2.org/FortLogan.aspx"
CAMPUS MIDDLE SCHOOL,GREENWOOD VILLAGE,CO,4785 SOUTH DAYTON STREET,"https://www.cherrycreekschools.org/campus"
TRAILS WEST ELEMENTARY SCHOOL,CENTENNIAL,CO,5400 SOUTH WACO STREET,"https://www.cherrycreekschools.org/trailswest"
EAGLECREST HIGH SCHOOL,CENTENNIAL,CO,5100 SOUTH PICADILLY STREET,"https://www.cherrycreekschools.org/eaglecrest"
LIVERMORE ELEMENTARY SCHOOL,LIVERMORE,CO,360 RED FEATHER LAKES ROAD,"http://www.psdschools.org/school/livermore-elementary-school"
ADAIRSVILLE ELEMENTARY SCHOOL,ADAIRSVILLE,GA,122 KING ST,"https://schoolgrades.georgia.gov/adairsville-elementary-school"
FITZGERALD HIGH SCHOOL,FITZGERALD,GA,601 W CYPRESS ST,"https://www.ben-hill.k12.ga.us/Domain/12"
WAYNESBORO PRIMARY SCHOOL,WAYNESBORO,GA,352 SOUTHSIDE DR,"https://wps.burke.k12.ga.us/"
GRAYSVILLE ELEMENTARY SCHOOL,RINGGOLD,GA,944 GRAYSVILLE RD,"https://ges.catoosa.k12.ga.us/"
SOUTH EFFINGHAM MIDDLE SCHOOL,GUYTON,GA,1200 NOEL C CONAWAY RD,"https://www.effinghamschools.com/Domain/1251"
SOUTH EFFINGHAM HIGH SCHOOL,GUYTON,GA,1220 NOEL C CONAWAY RD,"https://www.effinghamschools.com/sehs"
SWAINSBORO MIDDLE SCHOOL,SWAINSBORO,GA,200 TIGER TRL,"https://www.emanuel.k12.ga.us/3/home"
CLAXTON ELEMENTARY SCHOOL,CLAXTON,GA,6463 US HIGHWAY 301,"https://www.evans.k12.ga.us/page/ces"
CLAXTON HIGH SCHOOL,CLAXTON,GA,102 N CLARK ST,"https://www.evans.k12.ga.us/"
SWAINSBORO ELEMENTARY SCHOOL,SWAINSBORO,GA,258 TIGER TRL,"https://www.emanuel.k12.ga.us/4/home"
MODEL ELEMENTARY SCHOOL,ROME,GA,3200 CALHOUN RD NE,"https://www.floydboe.net/ModelElementary"
BUCHANAN ELEMENTARY SCHOOL,BUCHANAN,GA,215 COLLEGE CIR,"https://www.haralson.k12.ga.us/buchananelementaryschool_home.aspx"
JEFF DAVIS HIGH SCHOOL,HAZLEHURST,GA,156 COLLINS ST,"https://www.jeff-davis.k12.ga.us/"
JONES COUNTY HIGH SCHOOL,GRAY,GA,339 RAILROAD ST,"https://www.jonescntysd.ga.schools.bz/1/home"
JOSEPH MARTIN ELEMENTARY SCHOOL,HINESVILLE,GA,1000 JOSEPH MARTIN RD,"https://www.josephmartines.org/"
LUMPKIN COUNTY MIDDLE SCHOOL,DAHLONEGA,GA,152 SCHOOL DR,"https://www.lumpkinschools.com/o/lumpkin-middle"
SOUTH PAULDING MIDDLE SCHOOL,DALLAS,GA,592 NEBO RD,"https://www.paulding.k12.ga.us/Domain/35"
OGLETHORPE COUNTY HIGH SCHOOL,LEXINGTON,GA,749 ATHENS RD,"https://ochs.oglethorpe.k12.ga.us/"
KONAWAENA HIGH SCHOOL,KEALAKEKUA,HI,81-1043 KONAWAENA SCHOOL RD,"http://www.konawaenahs.org/"
HOLUALOA ELEMENTARY SCHOOL,HOLUALOA,HI,76-5957 MAMALAHOA HWY,"https://www.holualoa.school/"
HAWAII SCHOOL FOR THE DEAF AND BLIND,HONOLULU,HI,3440 LEAHI AVE,"http://hsdb.k12.hi.us/"
MOMILANI ELEMENTARY SCHOOL,PEARL CITY,HI,2130 HOOKIEKIE ST,"https://www.momilani.k12.hi.us/"
MOANALUA MIDDLE SCHOOL,HONOLULU,HI,1289 MAHIOLE ST,"https://www.moanaluamiddle.org/"
KAEWAI ELEMENTARY SCHOOL,HONOLULU,HI,1929 KAMEHAMEHA IV RD,"https://www.kaewaielementary.org/"
KAULUWELA ELEMENTARY SCHOOL,HONOLULU,HI,1486 AALA ST,"https://www.kauluwela.k12.hi.us/"
DURANT HIGH SCHOOL,DURANT,IA,408 7TH ST,"https://www.durant.k12.ia.us/"
SOUTH LOOP ELEM SCHOOL,CHICAGO,IL,1212 S PLYMOUTH CT,"https://southloopschool.org/"
FRANK C WHITELEY ELEM SCHOOL,HOFFMAN ESTATES,IL,4335 HAMAN AVE,"https://www.ccsd15.net/FCW"
GEORGETOWN-RIDGE FARM HIGH SCHOOL,GEORGETOWN,IL,500 W MULBERRY ST,"https://www.grf.k12.il.us/"
HAINES ELEM SCHOOL,NEW LENOX,IL,155 HAINES AVE,"https://haines.cps.edu/"
BEECHER HIGH SCHOOL,BEECHER,IL,PO BOX 338,"https://www.beecher200u.org/"
BEECHER ELEM SCHOOL,BEECHER,IL,PO BOX 308,"https://www.beecher200u.org/"
ADAMS CENTRAL HIGH SCHOOL,MONROE,IN,222 W WASHINGTON ST,"https://www.accs.k12.in.us/"
NORTHCREST ELEMENTARY SCHOOL,FORT WAYNE,IN,5301 ARCHWOOD LN,"https://fortwayneschools.org/northcrest"
SOUTH WAYNE ELEMENTARY SCHOOL,FORT WAYNE,IN,810 COTTAGE AVE,"https://fortwayneschools.org/southwayne"
OAK VIEW ELEMENTARY SCHOOL,FORT WAYNE,IN,13123 COLDWATER RD,"http://oakviewes.dekalb.k12.ga.us/"
WAYNEDALE ELEMENTARY SCHOOL,FORT WAYNE,IN,7201 ELZEY,"https://fortwayneschools.org/waynedale"
MARSH ELEMENTARY SCHOOL,MICHIGAN CITY,IN,400 E HOMER ST,"https://www.mcas.k12.in.us/marsh"
PEABODY-BURNS JR/SR HIGH SCHOOL,PEABODY,KS,810 SYCAMORE STREET,"https://www.usd398.net/"
WELLINGTON HIGH SCHOOL,WELLINGTON,KS,1700 EAST 16TH STREET,"https://www.usd353.com/apps/pages/index.jsp?pREC_ID=1952765&type=d&uREC_ID=1746975"
CLAYS MILL ELEMENTARY SCHOOL,LEXINGTON,KY,2319 CLAYS MILL RD,"https://www.fcps.net/ClaysMill"
OLD KENTUCKY HOME MIDDLE SCHOOL,BARDSTOWN,KY,301 WILDCAT LN,"https://www.nelson.kyschools.us/school_home.aspx?schoolId=8"
WRIGHT ELEMENTARY,SHELBYVILLE,KY,500 ROCKET LANE,"https://www.shelby.kyschools.us/Wright"
WARREN CENTRAL HIGH SCHOOL,BOWLING GREEN,KY,559 MORGANTOWN RD,"https://www.warrencountyschools.org/3/Home"
DERIDDER JUNIOR HIGH SCHOOL,DERIDDER,LA,415 FRUSHA DRIVE,"https://djhs.beau.k12.la.us/"
PAULINA ELEMENTARY SCHOOL,PAULINA,LA,2756 HIGHWAY 44,"http://stjamespes.sharpschool.net/"
NORTHWEST HIGH SCHOOL,OPELOUSAS,LA,3746 HWY. 104,"https://northwesthigh.slpsb.org/"
KROTZ SPRINGS ELEMENTARY SCHOOL,KROTZ SPRINGS,LA,445 DIVISION STREET,"https://krotzspringselem.slpsb.org/"
EUNICE JUNIOR HIGH SCHOOL,EUNICE,LA,751 WEST OAK STREET,"https://eunicejr.slpsb.org/"
ST. MARTINVILLE SENIOR HIGH SCHOOL,ST. MARTINVILLE,LA,762 N. MAIN STREET,"https://smsh.saintmartinschools.org/"
BREAUX BRIDGE ELEMENTARY SCHOOL,BREAUX BRIDGE,LA,915 SAINT CHARLES STREET,"https://bbe.saintmartinschools.org/"
CECILIA HIGH SCHOOL,CECILIA,LA,2397 CECILIA SR. HIGH SCHOOL HWY.,"https://chs.saintmartinschools.org/"
MORGAN CITY HIGH SCHOOL,MORGAN CITY,LA,2400 TIGER DRIVE,"https://www.stmaryk12.net/MCHS"
FONTAINEBLEAU JUNIOR HIGH SCHOOL,MANDEVILLE,LA,100 HURRICANE ALLEY,"http://fontainebleaujunior.stpsb.org/"
BAYOU LACOMBE MIDDLE SCHOOL,LACOMBE,LA,27527 ST. JOSEPH,"http://bayoulacombemiddle.stpsb.org/"
JESSE OWENS ELEMENTARY SCHOOL,GUEYDAN,LA,203 THIRTEENTH STREET,"https://joes.vpsb.net/"
EDMUND HATCH BENNETT,TAUNTON,MA,47 NORTH WALKER STREET,"https://bennett.tauntonschools.org/"
ALDEN SCHOOL,DUXBURY,MA,75 ALDEN STREET,"https://www.duxbury.k12.ma.us/alden"
CONNERS-EMERSON SCHOOL,BAR HARBOR,ME,11 EAGLE LAKE ROAD,"http://www.mdirss.org/home/school-directory"
WELLS ELEMENTARY SCHOOL,WELLS,ME,276 SANFORD RD,"https://www.jonescntysd.ga.schools.bz/7/home"
WELLS JUNIOR HIGH SCHOOL,WELLS,ME,1470 POST RD,"http://wjhs.k12wocsd.net/"
COLOMA JUNIOR HIGH SCHOOL,COLOMA,MI,302 WEST SAINT JOSEPH ST,"https://cjh.coloma.org/"
EAST JACKSON HIGH SCHOOL,JACKSON,MI,1566 NORTH SUTTON RD,"https://eastjacksonschools.org/"
E F DUVALL 7-8,DEER LODGE,MT,444 MONTANA AVENUE,"https://www.deerlodgeschools.org/District/Department/3-E-F-Duvall-Jr-High"
PARAMUS HIGH SCHOOL,PARAMUS,NJ,99 EAST CENTURY ROAD,"https://phs.paramus.k12.nj.us/"
ABBOTT SCHOOL,IRVINGTON,NY,100 N BROADWAY,"http://www.newyorkschools.com/schools/abbott-school.html"
NORTH OLMSTED HIGH SCHOOL,NORTH OLMSTED,OH,5755 BURNS RD,"http://www.northolmstedschools.org/northolmstedhighschool_home.aspx"
STRONGSVILLE HIGH SCHOOL,STRONGSVILLE,OH,20025 LUNN RD,"https://www.strongnet.org/"
NORTH ROYALTON MIDDLE SCHOOL,NORTH ROYALTON,OH,14709 RIDGE RD,"https://www.northroyaltonsd.org/northroyaltonmiddleschool_home.aspx"
VERSAILLES HIGH SCHOOL,VERSAILLES,OH,280 MARKER RD,"https://www.versailles.k12.oh.us/"
TALLMADGE ELEMENTARY SCHOOL,LANCASTER,OH,694 TALMADGE AVE,"https://www.tallmadgeschools.org/tallmadgeelementaryschool_home.aspx"
THOMAS EWING JUNIOR HIGH SCHOOL,LANCASTER,OH,825 E FAIR AVE,"https://www.lancaster.k12.oh.us/13/Home"
GENERAL SHERMAN JUNIOR HIGH SCHOOL,LANCASTER,OH,701 UNION ST,"https://www.lancaster.k12.oh.us/2/Home"
GROVEPORT ELEMENTARY SCHOOL,GROVEPORT,OH,715 MAIN ST,"https://www.gocruisers.org/groveportelementary_home.aspx"
SEDALIA ELEMENTARY,COLUMBUS,OH,5400 SEDALIA DR,"https://www.gocruisers.org/sedaliaelementary_home.aspx"
TURPIN HIGH SCHOOL,CINCINNATI,OH,2650 BARTELS RD,"https://www.foresthills.edu/turpin/"
JACKSON-MILTON ELEMENTARY SCHOOL,NORTH JACKSON,OH,14110 MAHONING AVE,"http://www.jacksonmilton.k12.oh.us/3/Home"
MEMORIAL HIGH SCHOOL,CAMPBELL,OH,280 6TH ST,"https://www.campbell.k12.oh.us/1/Home"
C H CAMPBELL ELEMENTARY SCHOOL,CANFIELD,OH,300 MORELAND DR,"https://www.canfield.access-k12.org/4/Home"
BRUNSWICK MEMORIAL ELEMENTARY SCHOOL,BRUNSWICK,OH,3845 MAGNOLIA DR,"https://www.bcsoh.org/memorial"
EDWARDS MIDDLE SCHOOL,BRUNSWICK,OH,1497 PEARL RD,"http://ems.rockdaleschools.org/"
TEAYS VALLEY HIGH SCHOOL,ASHVILLE,OH,3887 STATE ROUTE 752,"https://www.tvsd.us/highschool_home.aspx"
SCIOTO ELEMENTARY SCHOOL,COMMERCIAL POINT,OH,20 W SCIOTO ST,"https://www.tvsd.us/sciotoelementary_home.aspx"
WALKER ELEMENTARY SCHOOL,CANTON,OH,3525 SANDY AVE SE,"https://www.cantonlocal.org/3/home"
GREENWOOD EARLY LEARNING CENTER,GREEN,OH,2250 GRAYBILL RD,"https://www.greenlocalschools.org/greenwoodearlylearningcenter_home.aspx"
SOUTHINGTON ELEMENTARY SCHOOL,SOUTHINGTON,OH,2482 STATE ROUTE 534,"https://www.southingtonlocal.org/"
SOUTHINGTON MIDDLE SCHOOL,SOUTHINGTON,OH,2482 STATE ROUTE 534,"https://www.southingtonlocal.org/"
MINERAL RIDGE HIGH SCHOOL,MINERAL RIDGE,OH,1334 SEABORN ST,"https://www.weathersfield.k12.oh.us/"
COVENTRY ELEMENTARY SCHOOL,AKRON,OH,3089 MANCHESTER RD,"https://www.coventryschools.org/coventryelementary_home.aspx"
LAKEVIEW HIGH SCHOOL,CORTLAND,OH,300 HILLMAN DR,"https://www.lakeviewlocal.org/lakeviewhighschool_home.aspx"
LAKEVIEW ELEMENTARY SCHOOL,WARREN,OH,2755 BAZETTA RD NE,"https://www.lakeviewlocal.org/lakeviewelementaryschool_home.aspx"
CRESTVIEW ELEMENTARY SCHOOL,CONVOY,OH,531 E TULLY ST,"https://www.crestviewrebels.org/3/Home"
UNITED JSHS,ARMAGH,PA,10780 ROUTE 56 EAST,"https://hs.unitedsd.net/"
YORK SUBURBAN MS,YORK,PA,455 SUNDALE DR,"https://www.yssd.org/ms/"
O. P. EARLE ELEMENTARY,LANDRUM,SC,100 REDLAND ROAD,"https://www.spart1.org/opearleelementary_home.aspx"
APOLLO ELEM SCHOOL,DES PLAINES,IL,10100 DEE RD,"https://www.emsd63.org/apollo"
BEMIS JUNIOR HIGH SCHOOL,STERLING HEIGHTS,MI,12500 19 MILE RD,"http://bemis.uticak12.org/"
ROGER CORBETT ELEMENTARY SCHOOL,RENO,NV,1901 VILLANOVA DRIVE,"https://www.washoeschools.net/corbett"
NISD BEXAR COUNTY JJA,SAN ANTONIO,TX,1402 HACKBERRY,"https://schools.texastribune.org/districts/northside-isd-bexar/nisd-bexar-county-jja/"
NORTH KNOX JR-SR HIGH SCHOOL,BICKNELL,IN,10890 N SR 159,"https://www.nknox.k12.in.us/"
JAMACHA ELEMENTARY,EL CAJON,CA,2962 JAMUL DR.,"https://www.cajonvalley.net/jamacha"
BROOK HILL ELEMENTARY,SANTA ROSA,CA,1850 VALLEJO ST.,"https://www.srcschools.org/Page/2231"
BOSTON ELEMENTARY SCHOOL,WOODSTOCK,GA,105 OTHELLO DR,"https://www.cherokeek12.net/bostones"
MADISON MIDDLE SCHOOL,TALLULAH,LA,1234 MADISON HIGH DRIVE,"https://www.madisonmiddleschoolandmagnets.org/"
MCCLOSKEY JOHN F SCH,PHILADELPHIA,PA,8500 PICKERING ST,"https://mccloskey.philasd.org/"
NORTON ELEMENTARY SCHOOL,NORTON,OH,4138 CLEVELAND MASSILLON RD,"https://www.nortonschools.org/nortonelementaryschool_home.aspx"
SHERIDAN SCH,PHILADELPHIA,PA,800 E ONTARIO ST,"http://shr.allentownsd.org/"
CULLEN MIDDLE,CORPUS CHRISTI,TX,5225 GREELY,"https://www.houstonisd.org/cullen"
CAMDEN ELEMENTARY OF THE CREATIVE ARTS,CAMDEN,SC,1304 LYTTLETON STREET,"https://www.kcsdschools.net/domain/13"
DUAL IMMERSION ACADEMY SCHOOL,GRAND JUNCTION,CO,552 A WEST MAIN STREET,"https://dia.d51schools.org/"
SAVANNAH REGIONAL YOUTH DETENTION CENTER,SAVANNAH,GA,191 CARL GRIFFIN DR,"https://djj.georgia.gov/locations/savannah-rydc"
EARLY CHILDHOOD EDUCATION CENTER,WOOD DALE,IL,543 N WOOD DALE RD,"https://www.thecenterweb.org/programs/early-childhood-education/"
SOUTH IRVINE PRESCHOOL CENTER,IRVINE,KY,1000 SOUTH IRVINE RD,"https://www.estill.k12.ky.us/5/home"
KELLOGG ELEM SCHOOL,CHICAGO,IL,9241 S LEAVITT ST,"https://kellogg.cps.edu/"
TURNER SIXTH GRADE ACADEMY,KANSAS CITY,KS,6425 RIVERVIEW,"https://www.turnerusd202.org/our-schools/turner-sixth-grade-academy"
CREEK VALLEY ELEMENTARY,EDINA,MN,6401 GLEASON RD,"https://www.edinaschools.org/creekvalley"
ROBERT ANDERSON MIDDLE,ANDERSON,SC,2302 DOBBINS BRIDGE ROAD,"https://www.anderson5.net/robertanderson"
PAUL LAURENCE DUNBAR HIGH SCHOOL,LEXINGTON,KY,1600 MAN O' WAR BLVD,"https://www.fcps.net/Dunbar"
OAKLAND BEACH SCHOOL,WARWICK,RI,383 OAKLAND BEACH AVENUE,"https://oaklandbeach.warwickschools.org/"
WILSON COUNTY BOOT CAMP,FLORESVILLE,TX,335 ALTERNATIVE LN,"https://schools.texastribune.org/districts/east-central-isd/wilson-county-boot-camp/"
MARYLAND AVENUE ELEMENTARY,LA MESA,CA,5400 MARYLAND AVE.,"https://www.lmsvschools.org/marylandavenue/"
RICHMOND HILL HIGH SCHOOL,RICHMOND HILL,GA,1 WILDCAT DR,"https://www.bryan.k12.ga.us/o/RHHS"
EIGHTH STREET MIDDLE SCHOOL,TIFTON,GA,700 8TH ST W,"https://eighthstreet.tiftschools.com/"
JOSIAH HAYNES,SUDBURY,MA,169 HAYNES ROAD,"https://www.sudbury.k12.ma.us/haynes"
EAST VALLEY ACADEMY,MESA,AZ,1858 EAST BROWN ROAD,"https://www.mpsaz.org/eva"
WOODSTOCK MIDDLE SCHOOL,WOODSTOCK,GA,2000 TOWNE LAKE HILLS SOUTH DR,"https://www.cherokeek12.net/woodstockms"
DR LEWIS S LIBBY SCHOOL,MILFORD,ME,13 SCHOOL STREET,"https://www.lewislibbyschool.org/"
ABINGTON JHS,ABINGTON,PA,2056 SUSQUEHANNA ST,"https://www.abington.k12.pa.us/junior/"
LEE CENTRAL MIDDLE,BISHOPVILLE,SC,41 CHARLENE LANE,"https://leelcms.leeschooldistrictsc.org/"
WINN CORRECTIONAL CENTER,WINNFIELD,LA,HIGHWAY 560 GUM SPRINGS ROAD,"https://www.ice.gov/detain/detention-facilities/winn-correctional-center"
ROBERT BENJAMIN WILEY COMMUNITY CS,ERIE,PA,1446 EAST LAKE RD,"https://www.rbwileyccs.org/"
WINBOURNE ELEMENTARY SCHOOL,BATON ROUGE,LA,4503 WINBOURNE AVE,"http://schools.ebrschools.org/winbourneelementary/"
SCHOOL 29,PATERSON,NJ,88 DANFORTH AVENUE,"https://ps29-pps-nj.schoolloop.com/"
EDON MIDDLE SCHOOL,EDON,OH,802 W INDIANA ST,"http://www.edon.k12.oh.us/"
PORT NECHES-GROVES H S,PORT NECHES,TX,1401 MERRIMAN ST,"https://www.pngisd.org/HS"
TIMBERLINE HIGH SCHOOL,BOISE,ID,701 EAST BOISE AVENUE,"https://timberline.boiseschools.org/"
NORWOOD PUBLIC SCHOOL,NORWOOD,NJ,177 SUMMIT ST,"https://www.wearenorwood.org/"
SWANSON ELEMENTARY SCHOOL,ARVADA,CO,6055 WEST 68TH AVENUE,"https://swanson.jeffcopublicschools.org/"
RALSTON ELEMENTARY SCHOOL,GOLDEN,CO,25856 COLUMBINE GLEN,"https://ralstones.jeffcopublicschools.org/"
PRIMERO JUNIOR-SENIOR HIGH SCHOOL,WESTON,CO,20200 STATE HIGHWAY 12,"https://primeroschool.org/"
RIDGEVIEW ELEMENTARY SCHOOL,CRAIG,CO,600 WESTRIDGE ROAD,"https://www.d49.org/rves"
TAYLOR ELEMENTARY SCHOOL,PALISADE,CO,689 BRENTWOOD DR,"https://www.d11.org/Taylor"
MEEKER ELEMENTARY SCHOOL,MEEKER,CO,201 UTE ROAD,"https://www.greeleyschools.org/meeker"
POLO ROAD ELEMENTARY,COLUMBIA,SC,1250 POLO ROAD,"https://www.richland2.org/pre/"
NORTHCUTT ELEMENTARY SCHOOL,COLLEGE PARK,GA,5451 W FAYETTEVILLE RD,"https://119.clayton.k12.ga.us/"
POINTE SOUTH ELEMENTARY SCHOOL,RIVERDALE,GA,8482 THOMAS RD,"https://126.clayton.k12.ga.us/"
CALLAWAY ELEMENTARY SCHOOL,JONESBORO,GA,120 ORIOLE DR,"https://133.clayton.k12.ga.us/"
CANBY LANE ELEMENTARY SCHOOL,DECATUR,GA,4150 GREEN HAWK TRL,"http://canbylanees.dekalb.k12.ga.us/"
DOOLY COUNTY HIGH SCHOOL,VIENNA,GA,712 N 3RD ST,"https://www.dooly.k12.ga.us/"
FAIRMOUNT ELEMENTARY SCHOOL,FAIRMOUNT,GA,130 PEACHTREE ST,"https://www.gcbe.org/Domain/13"
MOUNTAIN PARK ELEMENTARY SCHOOL,LILBURN,GA,1500 POUNDS RD SW,"https://www.fultonschools.org/mountainparkes"
PARTEE ELEMENTARY SCHOOL,SNELLVILLE,GA,4350 CAMPBELL RD,"https://www.gcpsk12.org/ParteeES"
RIVERSIDE ELEMENTARY SCHOOL,SUWANEE,GA,5445 SETTLES BRIDGE RD,"https://www.gcpsk12.org/RiversideES"
SUWANEE ELEMENTARY SCHOOL,SUWANEE,GA,3875 SMITHTOWN RD,"https://www.gcpsk12.org/SuwaneeES"
CAMP CREEK ELEMENTARY SCHOOL,LILBURN,GA,958 COLE RD SW,"https://www.gcpsk12.org/CampCreekES"
PEACH COUNTY HIGH SCHOOL,FORT VALLEY,GA,900 CAMPUS DR,"https://www.peachschools.org/1/Home"
KAY ROAD ELEMENTARY,BYRON,GA,800 KAY RD,"https://www.peachschools.org/6/Home"
CEDARTOWN HIGH SCHOOL,CEDARTOWN,GA,167 FRANK LOTT DR,"https://www.polk.k12.ga.us/Domain/8"
STRATFORD ELEMENTARY,STRATFORD,IA,1000 SHAKESPEARE AVE,"https://stratfordiowa.com/schools"
FAIRFIELD MIDDLE SCHOOL,FAIRFIELD,IA,404 W FILLMORE,"https://www.fairfieldsfuture.org/vnews/display.v/SEC/Middle%20School"
HILLIS ELEMENTARY SCHOOL,DES MOINES,IA,2401 56TH ST,"https://hillis.dmschools.org/"
WILDER ELEMENTARY SCHOOL,WILDER,ID,210 A AVENUE EAST,"https://www.wilderschools.org/"
CHARLESTON MIDDLE SCHOOL,CHARLESTON,IL,920 SMITH DR,"https://www.charleston.k12.il.us/o/cms"
J STERLING MORTON FRESHMAN CNTR,CICERO,IL,1801 S 55TH AVE,"https://il01904869.schoolwires.net/mortonfreshmancenter"
DRUMMOND ELEM SCHOOL,CHICAGO,IL,1845 W CORTLAND ST,"https://www.illinoisreportcard.com/School.aspx?schoolid=150162990252172"
ERIE ELEM CHARTER SCHOOL,CHICAGO,IL,1405 N WASHTENAW AVE,"https://www.eriecharterschool.org/"
CHOPIN ELEM SCHOOL,CHICAGO,IL,2450 W RICE ST,"https://chopin.cps.edu/"
SABIN ELEM MAGNET SCHOOL,CHICAGO,IL,2216 W HIRSCH ST,"https://www.sabin.cps.edu/"
TALCOTT ELEM SCHOOL,CHICAGO,IL,1840 W OHIO ST,"https://www.talcottfama.org/"
PLEASANTDALE ELEMENTARY SCHOOL,LA GRANGE,IL,8100 SCHOOL ST,"http://es.pleasantdale.schooldesk.net/"
PLEASANTDALE MIDDLE SCH,BURR RIDGE,IL,7450 WOLF RD,"https://www.d107.org/"
WINFIELD CENTRAL SCHOOL,WINFIELD,IL,0S150 WINFIELD RD,"https://www.winfield34.org/"
SOUTH WILMINGTON GRADE SCHOOL,SOUTH WILMINGTON,IL,PO BOX 459,"https://www.illinoisreportcard.com/School.aspx?schoolid=240320740032001"
GILLESPIE HIGH SCHOOL,GILLESPIE,IL,612 BROADWAY ST,"https://www.gcusd7.org/"
WALKER SCHOOL,CLARENDON HILLS,IL,120 WALKER AVE,"https://www.d181.org/schools/walker-school"
OAK VIEW ELEM SCHOOL,BOLINGBROOK,IL,150 N SCHMIDT RD,"https://www.vvsd.org/Domain/347"
PLAINFIELD HIGH SCHOOL,PLAINFIELD,IL,24120 W FORT BEGGS,"https://pchs.psd202.org/"
SOUTH ADAMS HIGH SCHOOL,BERNE,IN,1000 PARKWAY ST,"https://www.southadams.k12.in.us/"
NORTHWEST ELEMENTARY,DECATUR,IN,1109 DAYTON ST,"https://northwest.murray.k12.ga.us/"
CLEVELAND ELEMENTARY SCHOOL,ELKHART,IN,53403 CR 1 N,"https://www.fcboe.org/Domain/10"
HARRISON HILL ELEMENTARY SCHOOL,INDIANAPOLIS,IN,7510 E 53RD ST,"https://harrisonhill.ltschools.org/"
FREDERICK DOUGLASS SCHOOL 19,INDIANAPOLIS,IN,2020 DAWSON ST,"https://www.atlantapublicschools.us/site/default.aspx?PageType=3&DomainID=3043&ModuleInstanceID=62721&ViewID=6446EE88-D30C-497E-9316-3F8874B3E108&RenderLoc=0&FlexDataID=93983&PageID=14199&GroupByField=&GroupYear=0&GroupMonth=0&Tag=&Comments=true"
THOMAS MILLER ELEMENTARY SCHOOL,LAFAYETTE,IN,700 S 4TH ST,"http://mil.lsc.k12.in.us/"
WASHINGTON MIDDLE SCHOOL,EVANSVILLE,IN,1801 WASHINGTON AVE,"https://www.sps186.org/schools/washington/"
STEPHENS ELEMENTARY SCHOOL,BURLINGTON,KY,5687 HWY 237,"https://www.boone.k12.ky.us/22/Home"
NEWPORT PRIMARY SCHOOL,NEWPORT,KY,1102 YORK ST,"https://www.newportwildcats.org/4/Home"
WATSON LANE ELEMENTARY,LOUISVILLE,KY,7201 WATSON LANE,"https://www.jefferson.kyschools.us/schools/profiles/watson-lane"
NORTH LAUREL MIDDLE SCHOOL,LONDON,KY,101 JOHNSON RD,"https://www.laurel.kyschools.us/3/Home"
WAYNESBURG ELEMENTARY SCHOOL,WAYNESBURG,KY,345 US HWY 328 W,"https://www.lincoln.kyschools.us/o/waynesburg-es"
W R MCNEILL ELEMENTARY SCHOOL,BOWLING GREEN,KY,1800 CREASON DRIVE,"https://www.b-g.k12.ky.us/7/Home"
BUNKIE ELEMENTARY SCHOOL,BUNKIE,LA,311 PERSHING AVENUE,"https://bes.avoyellespsb.com/"
CRESWELL ELEMENTARY SCHOOL,SHREVEPORT,LA,2901 CRESWELL AVENUE,"https://creswellelementary.wixsite.com/creswell-elementary"
SOUTHWOOD HIGH SCHOOL,SHREVEPORT,LA,9000 WALKER ROAD,"https://www.southwoodcowboys.org/"
SIXTH WARD MIDDLE SCHOOL,THIBODAUX,LA,1865 CHOCTAW ROAD,"https://swms.mylpsd.com/"
CENTRAL MIDDLE SCHOOL,EUNICE,LA,602 S. MARTIN LUTHER KING DRIVE,"https://centralmiddle.centralcss.org/"
TECHE ELEMENTARY SCHOOL,BREAUX BRIDGE,LA,2439 MAIN HWY.,"https://te.saintmartinschools.org/"
BROOKSIDE,MILFORD,MA,110 CONGRESS STREET,"https://www.brooksideequipment.com/"
FRANK H HARRISON MIDDLE SCHOOL,YARMOUTH,ME,220 MCCARTNEY STREET,"https://hms.yarmouthschools.org/"
WATERBORO ELEMENTARY SCHOOL,EAST WATERBORO,ME,340 SOKOKIS TRAIL,"https://www.rsu57.org/o/waterboro"
ROBERT W TRAIP ACADEMY,KITTERY,ME,12 WILLIAMS AVENUE,"https://traip.kitteryschools.com/"
HOPE ELEMENTARY SCHOOL,HOPE,ME,34 HIGHFIELD ROAD,"http://hes.fivetowns.net/"
GWINN MIDDLEHIGH SCHOOL,GWINN,MI,50 WEST STATE HIGHWAY M35,"https://ghs.gwinnschools.org/en-US"
HASTINGS ALTERNATIVE CENTER,HASTINGS,MN,213 RAMSEY STREET,"http://www.hastings.k12.mn.us/schools/hastings_area_learning_center"
AREA ADULT LEARNING COOPERATIVE,LE SUEUR,MN,706 TURRIL ST,"https://www.sibleyeast.org/page/7098/mn"
ROCK BRIDGE SR. HIGH,COLUMBIA,MO,4303 S PROVIDENCE RD,"https://www.cpsk12.org/RBHS"
RIDGEWAY ELEM.,RIDGEWAY,MO,305 MAIN ST,"https://www.cpsk12.org/rwe"
RISSLER ELEM.,TRENTON,MO,804 W 4TH TERR,"https://www.trentonr9.k12.mo.us/o/rissler-elementary"
NORTH MIDDLE SCHOOL,GREAT FALLS,MT,2601 8TH STREET NE,"https://www.gfps.k12.mt.us/NMS"
WEST ELEMENTARY,GREAT FALLS,MT,1205 1ST AVENUE NW,"http://www.laurel.k12.mt.us/5/home"
COUNTY ROAD SCHOOL,DEMAREST,NJ,130 COUNTY RD,"https://nj01001706.schoolwires.net/domain/10"
MELVIN H. KREPS MIDDLE SCHOOL,EAST WINDSOR,NJ,5 KENT LANE,"https://www.ewrsd.org/apps/pages/index.jsp?uREC_ID=1552051&type=d&pREC_ID=1681866"
PICKERINGTON ELEMENTARY SCHOOL,PICKERINGTON,OH,775 LONG RD,"https://www.pickerington.k12.oh.us/pickerington-elementary/"
BEVERLY ELEMENTARY SCHOOL,TOLEDO,OH,3548 S DETROIT AVE,"https://beverlyelementary.tps.org/"
WILLIAM HOLMES MCGUFFEY ELEMENTARY SCHOOL,YOUNGSTOWN,OH,310 S SCHENLEY AVE,"http://mcguffey.ycsd.org/"
CENTRAL ELEMENTARY SCHOOL,LEXINGTON,OH,124 FREDERICK ST,"https://www.rcs.rome.ga.us/Domain/12"
MOUNTAIN VIEW EL SCH,MERCERSBURG,PA,2311 LEMAR RD,"https://mountainviewes.glsd.us/"
KELLY EL SCH,LEWISBURG,PA,325 HOSPITAL DR,"https://www.upperdarbysd.org/charleskelly"
WOODRUFF PRIMARY,WOODRUFF,SC,200 LUCY P. EDWARDS ROAD,"http://wps.spartanburg4.org/"
TUCKERS CROSSROADS ELEMENTARY,LEBANON,TN,5905 TROUSDALE FERRY PIKE,"https://www.wcschools.com/txr"
ZUE S BALES INT,FRIENDSWOOD,TX,211 STADIUM LN,"https://bales.myfisd.com/"
BARNETT J H,ARLINGTON,TX,2101 SUBLETT RD,"https://www.aisd.net/barnett-junior-high/"
PLAZA MIDDLE,VIRGINIA BEACH,VA,3080 S LYNNHAVEN RD,"https://plazams.vbschools.com/"
MOSAIC HOME EDUCATION PARTNERSHIP,BAINBRIDGE ISLAND,WA,9530 NE HIGH SCHOOL RD,"https://www.bisd303.org/domain/818"
FLINN ELEMENTARY SCHOOL,CHARLESTON,WV,2006 MCCLURE PARKWAY,"https://flinn.kana.k12.wv.us/"
WALTON DEVELOPMENT CENTER,STOCKTON,CA,4131 N. CROWN AVE.,"https://www.cde.ca.gov/schooldirectory/details?cdscode=39686766095236"
MARTIN PETITJEAN ELEMENTARY SCHOOL,RAYNE,LA,4039 CROWLEY-RAYNE HIGHWAY,"https://www.acadia.k12.la.us/mpes/"
SORRENTO PRIMARY SCHOOL,SORRENTO,LA,42111 NORTH CITY PARC DRIVE,"https://www.apsb.org/subhome/SorrentoPrimary"
SARATOGA ELEMENTARY SCHOOL,LINCOLN,NE,2215 S 13TH ST,"https://saratoga.lps.org/"
LEONIA MIDDLE SCHOOL,LEONIA,NJ,500 BROAD AVENUE,"https://lms.leoniaschools.org/"
MOUNT OLIVE MIDDLE SCHOOL,BUDD LAKE,NJ,160 WOLFE ROAD,"https://motsd.org/moms/"
EDISTO HIGH,CORDOVA,SC,500 R.M. FOSTER DRIVE,"https://www.ocsdsc.org/Domain/34"
JOHN BECK EL SCH,LITITZ,PA,418 E LEXINGTON RD,"https://www.warwicksd.org/website/department.php?id=46"
SOMONAUK MIDDLE SCHOOL,SOMONAUK,IL,510 W LASALLE ST,"https://www.somonauk.net/o/somonauk-middle-school"
HARBOR HEIGHTS,NEW YORK,NY,306 FORT WASHINGTON AVE-RM 414,"https://www.schools.nyc.gov/schools/M349"
FOUNDATIONS COLLEGE PREP CHARTER,CHICAGO,IL,1233 W 109TH PL,"https://www.illinoisreportcard.com/School.aspx?schoolid=15016299025081C"
FLEX ACADEMY,RICHFIELD,MN,100 66TH STREET W,"https://www.nmfamn.org/"
TENNESSEE VIRTUAL LEARNING ACADEMY,JOHNSON CITY,TN,2002 INDIAN RIDGE RD,"https://tnva.k12.com/"
BLAND COUNTY ELEMENTARY,BLAND,VA,31 ROCKET DRIVE,"https://www.bland.k12.va.us/apps/pages/index.jsp?uREC_ID=307615&type=d"
LAFAYETTE EARLY CHILDHOOD CENTER,SOUTH BEND,IN,245 N LOMBARDY DR,"https://lafayettechristianschool.com/early-learning-center"
FORESTVILLE ELEMENTARY,GREAT FALLS,VA,1085 UTTERBACK STORE RD,"https://forestvillees.fcps.edu/"
MOMENCE JR HIGH SCHOOL,MOMENCE,IL,801 W 2ND ST,"https://www.mcusd1.net/"
SOUTH HAVEN ELEMENTARY SCHOOL,VALPARAISO,IN,395 W MIDWAY DR,"https://sh.portage.k12.in.us/"
DOGAN MIDDLE,TYLER,TX,2621 N BORDER AVE,"https://www.kltv.com/story/37352007/tisd-looks-to-shutdown-dogan-middle-school-replace-with-rise-program/"
ENGLEMAN ELEMENTARY SCHOOL,GRAND ISLAND,NE,1812 MANSFIELD RD,"https://www.gips.org/engleman"
OLUSTEE ES,OLUSTEE,OK,606 EAST 6TH STREET,"https://www.olustee.k12.ok.us/"
ECOFF ELEMENTARY,CHESTER,VA,5200 ECOFF AVE.,"https://mychesterfieldschools.com/eces/"
PLEASANT VALLEY MIDDLE,VANCOUVER,WA,14320 NE 50TH AVE,"https://pvm.battlegroundps.org/"
MONONGAHELA MIDDLE SCHOOL,SEWELL,NJ,890 BANKBRIDGE RD,"https://monongahela.deptfordschools.org/"
DR. RAMON MELLADO PARSONS,CAROLINA,PR,CALLE 5 FINAL URB. SABANA GARDENS,"https://www.spellingcity.com/dr-ramon-mellado-parsons-carolina-pr.html"
APPOMATTOX MIDDLE,APPOMATTOX,VA,2020 CHURCH ST,"https://www.acpsweb.net/en-US"
WILSON HIGH,LONG BEACH,CA,4400 E. TENTH ST.,"https://lbwilson.schoolloop.com/"
LAKEPORT ALTERNATIVE (HOME SCHOOL),LAKEPORT,CA,100 LANGE ST.,"https://www.cde.ca.gov/SchoolDirectory/details?cdscode=17640301730142"
YELLOW CREEK SCHOOL CENTER,MIDDLESBORO,KY,4840 WEST CUMBERLAND AVENUE,"https://www.bell.kyschools.us/YCSC"
FORT BRAGG HIGH,FORT BRAGG,CA,300 DANA ST.,"https://www.cde.ca.gov/schooldirectory/details?cdscode=23655652331361"
DAVIS ELEMENTARY,STOCKTON,CA,5224 E. MORADA LN.,"https://davis.lodiusd.net/"
APPLES PREK,STAMFORD,CT,381 HIGH RIDGE ROAD,"https://www.stamfordpublicschools.org/apples-early-childhood-educational-center"
PS 171 PATRICK HENRY,NEW YORK,NY,19 E 103RD ST,"https://www.ps171.org/"
ROBERT SMALLS INTERNATIONAL ACADEMY,BEAUFORT,SC,43 W. K. ALSTON DRIVE,"https://rsia.beaufortschools.net/"
CENTRAL VALLEY PK - GREELEY,GREELEY,NE,304 NORTH SHANNON STREET,"https://www.centralvps.org/"
DILEY MIDDLE SCHOOL,PICKERINGTON,OH,750 PRESTON TRAILS DR,"https://www.pickerington.k12.oh.us/diley-middle-school/"
CHENEY MIDDLE SCHOOL,CHENEY,WA,740 BETZ,"https://cms.cheneysd.org/"
KELLOGG MARSH ELEMENTARY SCHOOL,MARYSVILLE,WA,6325 91ST ST NE,"https://www.msd25.org/o/kellogg-marsh-elementary-school"
SALEM ELEMENTARY,FREDERICKSBURG,VA,4501 JACKSON RD,"https://www.spotsylvania.k12.va.us/salem"
SHOREWOOD HIGH SCHOOL,SHORELINE,WA,17300 FREMONT AVENUE N.,"https://www.shorelineschools.org/shorewood"
SCHOOL FOR HUMAN RIGHTS (THE),BROOKLYN,NY,600 KINGSTON AVE,"https://www.schools.nyc.gov/schools/K531"
KIPP CONNECT PRI,HOUSTON,TX,6700 BELLAIRE BLVD,"https://www.kipp.org/school/kipp-connect-houston-primary-school/"
LUMBERTON MIDDLE SCHOOL,LUMBERTON,NJ,30 DIMSDALE DRIVE,"https://www.lumberton.k12.nj.us/"
NORTHWEST ELEM SCHOOL,LINCOLN,IL,506 11TH ST,"http://lasalles.sharpschool.net/schools/northwest_elementary_school"
PALM ELEMENTARY,HACIENDA HEIGHTS,CA,14740 E. PALM AVE.,"https://pes-hlpusd-ca.schoolloop.com/"
ELDER CREEK ELEMENTARY,SACRAMENTO,CA,7934 LEMON HILL AVE.,"https://eldercreek.scusd.edu/"
EMILIO B. HUYKE,SAN JUAN,PR,CALLE SANTA ROSA URB ALTA MESA,"https://hotpads.com/emilio-b-huyke-san-juan-pr/new-apartments-for-rent"
FULTON ELEM SCHOOL,CHICAGO,IL,5300 S HERMITAGE AVE,"https://www.riverbendschools.org/vnews/display.v/SEC/Fulton%20Elementary%20School"
BOURBON COUNTY HIGH SCHOOL,PARIS,KY,3341 LEXINGTON ROAD,"https://www.bourbon.kyschools.us/1/Home"
OAK STREET ELEM SCHOOL,LAKEWOOD,NJ,75 OAK STREET,"http://bernardsboe-oakstreet.ss5.sharpschool.com/"
EDISON H S,SAN ANTONIO,TX,701 SANTA MONICA ST,"https://schools.saisd.net/page/003.homepage"
A. C. CORCORAN ELEMENTARY,NORTH CHARLESTON,SC,8585 VISTAVIA ROAD,"https://www.ccsdschools.com/Domain/8"
BLUFFTON ELEMENTARY SCHOOL,BLUFFTON,OH,102 S JACKSON ST,"https://www.blufftonschools.org/"
ORANGE AVENUE SCHOOL,CRANFORD,NJ,901 ORANGE AVENUE,"https://oas.cranfordschools.org/"
BIG LAKE SENIOR HIGH,BIG LAKE,MN,501 MINNESOTA AVE,"https://www.biglakeschools.org/"
PHOENIX PROGRAM,CARBON CLIFF,IL,PO BOX 100,"https://bhased.org/phoenix/"
PS 234,ASTORIA,NY,30-15 29TH ST,"https://www.ps234.org/"
MARINE ACADEMY OF TECHNOLOGY AND ENVIRONMENTAL SCIENCE,MANAHAWKIN,NJ,195 CEDAR BRIDGE ROAD,"http://www.ocvts.org/htm/mates/mates-academy.html"
CROSSROADS ELEMENTARY SCHOOL,COLD SPRING,KY,475 CROSSROADS BOULEVARD,"https://www.bullittschools.org/12/Home"
SANDERSVILLE ELEMENTARY,LEXINGTON,KY,3025 SANDERSVILLE RD,"https://www.fcps.net/Sandersville"
SAN LUIS PRE-SCHOOL,SAN LUIS,AZ,22751 S MAIN ST,"https://www.gesd32.org/apps/pages/index.jsp?uREC_ID=239586&type=d"
BOLTZ MIDDLE SCHOOL,FORT COLLINS,CO,720 BOLTZ DRIVE,"https://bol.psdschools.org/"
COOK-WISSAHICKON SCH,PHILADELPHIA,PA,201 E SALAIGNAC ST,"https://cookwissahickon.philasd.org/"
ALGONA MIDDLE SCHOOL,ALGONA,IA,601 S. HALE,"https://www.algona.k12.ia.us/"
CLAUDINE F BROWN ELEMENTARY SCHOOL,GREENWOOD,MS,1901 HIGHWAY 82,"https://be.glcsd.org/"
ALTERNATIVE TAMARACK SCHOOL,SPOKANE,WA,W 2901 FT GEORGE WRIGHT,"https://www.raise.me/high-school/washington/alternative-tamarack-school"
LOWERY ELEMENTARY SCHOOL,DONALDSONVILLE,LA,2389-B HWY 1 SOUTH,"https://www.apsb.org/subhome/LoweryElementary"
DETT ELEM SCHOOL,CHICAGO,IL,2131 W MONROE ST,"https://dett.cps.edu/"
CECILIA PRIMARY SCHOOL,CECILIA,LA,1021 ALCIDE BONIN ROAD,"https://cp.saintmartinschools.org/"
FROEBEL ELEM.,ST LOUIS,MO,3709 NEBRASKA AVE,"https://www.slps.org/Domain/661"
KALISPELL MIDDLE SCHOOL,KALISPELL,MT,205 NW LANE,"https://www.sd5.k12.mt.us/3/home"
KRAMER ELEMENTARY SCHOOL,OXFORD,OH,400 W SYCAMORE ST,"https://talawanda.org/kramer-elementary-school/"
PS 3 CHARRETTE SCHOOL,NEW YORK,NY,490 HUDSON ST,"https://ps3nyc.membershiptoolkit.com/"
ROSE M GAFFNEY SCHOOL,MACHIAS,ME,15 ROSE GAFFNEY RD,"http://localendar.com/public/RMGSchool"
VIBORG-HURLEY ELEMENTARY - 02,VIBORG,SD,203 W PARK AVE,"https://www.viborg-hurley.k12.sd.us/"
SU RAMON ALEJANDRO AYALA,COMERIO,PR,CARR. 779 KM. 5 HM 3 BO PALOMAS,"https://opengovbase.com/school/su-ramon-alejandro-ayala/100973"
IS 392,BROOKLYN,NY,104 SUTTER AVE,"https://www.myschools.nyc/en/schools/middle-school/11659/"
LOVES PARK ELEM SCHOOL,LOVES PARK,IL,344 GRAND AVE,"https://www.harlem122.org/"
CLARK CREEK ELEMENTARY SCHOOL,ACWORTH,GA,3219 HUNT RD,"https://www.cherokeek12.net/clarkcreekes"
COTTONWOOD ELEMENTARY,HESPERIA,CA,8850 COTTONWOOD,"https://www.cottonwoodelementary.org/"
LAUREL MEADOW ELEMENTARY,MECHANICSVILLE,VA,8248 LEE-DAVIS ROAD,"http://hanoverlmes.ss12.sharpschool.com/"
PRAIRIE ELK COLONY SCHOOL,WOLF POINT,MT,1438 HIGHWAY 528,"https://www.trueschools.com/middle-schools/montana/wolf-point/prairie-elk-colony-school/"
BURRILLVILLE HIGH SCHOOL,HARRISVILLE,RI,425 EAST AVENUE,"https://bhs.bsd-ri.net/"
ROCKRIDGE JR HIGH SCHOOL,TAYLOR RIDGE,IL,14110 134TH AVE W,"http://www.rr300.org/our-schools/rockridge-jr-sr-high-school"
PARKVIEW JR HIGH SCHOOL,LAWRENCEVILLE,IL,1802 CEDAR ST,"https://www.cusd20.com/o/pjhs"
TIMBER CREEK ELEM.,RAYMORE,MO,310 E CALICO DR,"https://www.raypec.k12.mo.us/96/Timber-Creek-Elementary"
GREENEVIEW MIDDLE SCHOOL,JAMESTOWN,OH,4990 COTTONVILLE RD,"https://www.greeneview.k12.oh.us/2/Home"
PENN CAMBRIA PRIMARY SCH,LILLY,PA,400 MAIN ST,"https://www.pcam.org/schools/primary-school/"
JAMESVILLE COLONY ELEMENTARY - 03,UTICA,SD,43582 NE JIM RIVER RD,"https://doe.sd.gov/ofm/school.aspx?districtnumber=33002&schoolsort=3300203"
WESTWOOD J H,PALESTINE,TX,1801 PANTHER BLVD,"https://schools.risd.org/WestwoodJH"
BELL MANOR EL,BEDFORD,TX,1300 WINCHESTER WAY,"https://www.hebisd.edu/bellmanor"
GARDEN VALLEY SCHOOL,GARDEN VALLEY,ID,1053 BANKS LOWMAN ROAD,"https://www.gvsd.net/"
CHURCHLAND HIGH,PORTSMOUTH,VA,4301 CEDAR LN,"http://chs.ppsk12.us/"
LAKEWOOD HIGH SCHOOL,LAKEWOOD,NJ,855 SOMERSET AVENUE,"https://www.lakewoodpiners.org/lhs"
EAST MUSKINGUM MIDDLE SCHOOL,NEW CONCORD,OH,13120 JOHN GLENN SCHOOL RD,"https://www.east-muskingum.k12.oh.us/"
SANGAMON COUNTY LEARNING ACADEMY,SPRINGFIELD,IL,2201 TORONTO STE C,"https://www.roe51.org/sangamon"
FORT HUNT ELEMENTARY,ALEXANDRIA,VA,8832 LINTON LN,"https://forthuntes.fcps.edu/"
SUGAR CREEK ELEMENTARY,FORT MILL,SC,1599 FARM HOUSE ROAD,"http://sces.fortmillschools.org/"
GEORGE L. HESS EDUCATIONAL COMPLEX,MAYS LANDING,NJ,700 BABCOCK ROAD,"http://hess.hamiltonschools.org/"
MURPHY ACADEMY,DETROIT,MI,23901 FENKELL ST,"https://www.phalenacademies.org/site/default.aspx?PageType=3&DomainID=13&ModuleInstanceID=123&ViewID=6446EE88-D30C-497E-9316-3F8874B3E108&RenderLoc=0&FlexDataID=183&PageID=19"
GALATIA ELEM SCHOOL,GALATIA,IL,200 N HICKORY ST,"https://www.galatiak12.org/"
ALICE M. ELLINGTON ELEMENTARY,COVINA,CA,5034 N. CLYDEBANK,"https://www.azusa.org/Domain/9"
WARD ELEMENTARY,DOWNEY,CA,8851 E. ADOREE ST.,"https://web.dusd.net/ward/"
SANTA SUSANA ELEMENTARY,SIMI VALLEY,CA,4300 APRICOT RD.,"https://www.santasusana.simivalleyusd.org/"
JAMES R. D. OLDHAM SCHOOL,RIVERSIDE,RI,60 BART DRIVE,"https://epschoolsri.org/oldham-school/"
SUNNYSIDE HIGH SCHOOL,SUNNYSIDE,WA,1801 E. EDISON AVENUE,"https://www.sunnysideschools.org/about_us/school_directory/sunnyside_high_school"
HOUSTON MIDDLE,HOUSTON,MO,423 W PINE,"https://www.houston.k12.mo.us/domain/24"
WYNN SEALE METROPOLITAN SCHOOL OF DESIGN,CORPUS CHRISTI,TX,1707 AYERS,"https://www.har.com/school/178904107/wynn-seale-metropolitan-school-of-design"
FANNIE LOU HAMER MIDDLE SCHOOL,BRONX,NY,1001 JENNINGS ST,"https://www.flhmsx286.org/"
WEBSTER ELEM SCHOOL,CHICAGO,IL,4055 W ARTHINGTON ST,"https://www.kahoks.org/schools/webster-elementary-school/"
ROUND LAKE MIDDLE SCHOOL,ROUND LAKE HEIGHT,IL,2000 LOTUS DR,"https://www.rlas-116.org/Domain/10"
GLEN BURNIE PARK ELEMENTARY,GLEN BURNIE,MD,500 MARLBORO RD,"https://www.aacps.org/Page/4388"
COWAN ACADEMIC CENTER,LAS VEGAS,NV,5300 E. RUSSELL RD.,"https://ccsd.net/schools/contact-information/0440"
DE PORTOLA ELEMENTARY,MISSION VIEJO,CA,27031 PRECIADOS DR.,"https://www.svusd.org/schools/elementary-a-l/de-portola"
LA JOYA PALMVIEW H S,MISSION,TX,3901 N LA HOMA RD,"https://phs.lajoyaisd.com/"
MARSHALL THURGOOD,PHILADELPHIA,PA,5120 N 6TH ST,"https://thurgoodmarshall.philasd.org/home/"
FAYETTE INSTITUTE OF TECHNOLOGY,OAK HILL,WV,300 WEST OYLER AVENUE,"https://wvde.state.wv.us/ed_directory/index.html?county_id=20&school_id=701"
INDIAN CREEK ELEMENTARY,KUNA,ID,911 WEST 4TH STREET,"http://www.indiancreekes.dekalb.k12.ga.us/"
21ST CENTURY ACADEMY,HOPKINSVILLE,KY,210 GLASS AVE,"https://education.ky.gov/federal/Pages/Kentuckys-21st-Century-Community-Learning-Centers.aspx"
ROSEBUD ELEMENTARY - 04,ROSEBUD,SD,405 SPOTTED TAIL LN,"https://doe.sd.gov/ofm/school.aspx?districtnumber=66001&schoolsort=6600104"
EAST VALLEY HIGH SCHOOL,SPOKANE VALLEY,WA,15711 E WELLESLEY AVE,"https://evhs.evsd.org/"
WESTGATE HIGH SCHOOL,NEW IBERIA,LA,2305 JEFFERSON ISLAND ROAD,"https://whs.iberiaschools.org/"
JAMES MONROE ELEMENTARY,MADERA,CA,1819 N. LAKE ST.,"https://www.madera.k12.ca.us/monroe"
MASUDA (KAZUO) MIDDLE,FOUNTAIN VALLEY,CA,17415 LOS JARDINES W.,"https://masuda.fvsd.us/"
THE CLASSICAL ACADEMY CHARTER,COLORADO SPRINGS,CO,975 STOUT ROAD,"http://tcatitans.org/"
ELBERT COUNTY HIGH SCHOOL,ELBERTON,GA,600 ABERNATHY CIR,"https://www.elbert.k12.ga.us/Domain/8"
WALLACE R. DAVIS ELEMENTARY,SANTA ANA,CA,1405 FRENCH ST.,"https://www.sausd.us/davis"
THREE RIVERS MIDDLE COLLEGE MAGNET SCHOOL,NORWICH,CT,574 NEW LONDON TURNPIKE,"http://www.threeriversmiddlecollege.org/"
NEWTON MIDDLE,HACIENDA HEIGHTS,CA,15616 NEWTON ST.,"https://nms-hlpusd-ca.schoolloop.com/"
FAIRFAX HIGH,FAIRFAX,VA,3501 REBEL RUN,"https://fairfaxhs.fcps.edu/"
PANA JR HIGH SCHOOL,PANA,IL,PO BOX 377,"https://www.panaschools.com/"
VANG PAO ELEMENTARY,FRESNO,CA,4100 E. HEATON AVE.,"https://www.fresnounified.org/schools/vangpao"
AUSTIN TRACY ELEMENTARY SCHOOL,LUCAS,KY,2477 AUSTIN TRACY RD,"https://www.barren.kyschools.us/4/home"
LAKESIDE JR HIGH SCHOOL,PLUMMER,ID,1255 E STREET,"https://www.pwsd44.com/1/home"
ROUSE H S,LEANDER,TX,1222 RAIDER WAY,"https://rhs.leanderisd.org/"
ADAMS ELEM SCHOOL,OMAHA,NE,3420 N 78TH ST,"https://adams.lps.org/"
COLUMBIAN ELEM SCHOOL,OMAHA,NE,330 S 127TH ST,"https://columbian.ops.org/"
PARK SPANISH IMMERSION ELEMENTARY,SAINT LOUIS PARK,MN,6300 WALKER ST,"https://www.slpschools.org/academics/spanish-immersion"
DICKINSON FINE ARTS ACADEMY,SOUTH BEND,IN,4404 ELWOOD,"http://dickinson.sb.school/"
MIDVALE ALTERNATIVE SCHOOL,MIDVALE,ID,45 NORTH SCHOOL ROAD,"http://www.midvaleschools.org/academics/alternative-school/"
THOMAS A HENDRICKS ELEMENTARY SCH,SHELBYVILLE,IN,1111 ST JOSEPH ST,"https://hes.shelbycs.org/"
FIRWOOD,STEILACOOM,WA,8805 STEILACOOM BLVD SW,"https://www.trulia.com/WA/Firwood/"
LYONS PARK ELEMENTARY,LYONS,KS,121 S. WORKMAN,"https://www.usd405.com/o/pes/staff"
IRON HOUSE ELEMENTARY,OAKLEY,CA,4801 FRANK HENGEL WAY,"https://ih-ouesd-ca.schoolloop.com/"
DALEY ELEM ACADEMY,CHICAGO,IL,5024 S WOLCOTT AVE,"https://rjdaley.org/"
ANTON GRDINA,CLEVELAND,OH,2955 E 71ST ST,"https://www.clevelandmetroschools.org/anton"
OCEAN ACADEMY,CAPE MAY COURT HOUSE,NJ,148 CREST HAVEN ROAD,"https://oceanmhs.org/ocean-academy-nj/"
LINDA RANKIN GIVENS ELEMENTARY SCHOOL,LAS VEGAS,NV,655 PARK VISTA DR.,"https://givenselementary.wixsite.com/givenselementary"
JHS 226 VIRGIL I GRISSON,SOUTH OZONE PARK,NY,121-10 ROCKAWAY BLVD,"https://www.schools.nyc.gov/schools/Q226"
UPTOWN SCHOOL COMPLEX,ATLANTIC CITY,NJ,323 MADISON AVENUE,"https://www.acboe.org/Domain/17"
ONEONTA ELEMENTARY,IMPERIAL BEACH,CA,1311 TENTH ST.,"https://www.cde.ca.gov/schooldirectory/details?cdscode=19650296022792"
STONE MOUNTAIN ELEMENTARY SCHOOL,STONE MOUNTAIN,GA,6720 JAMES B RIVERS DR,"http://www.stonemountaines.dekalb.k12.ga.us/"
PS 108 ASSEMBLYMAN ANGELO DEL TORO EDUCATIONAL COMPLEX,NEW YORK,NY,1615 MADISON AVE,"https://www.schools.nyc.gov/schools/M108"
EAST SIDE EL SCH,JOHNSTOWN,PA,220 MESSENGER ST,"https://eastside.gjsd.net/"
SHELDON HIGH,SACRAMENTO,CA,8333 KINGSBRIDGE DR.,"http://shs.egusd.net/"
KENNEDY ELEM SCHOOL,OMAHA,NE,2906 N 30TH ST,"https://www.barrow.k12.ga.us/kes"
MATH AND SCIENCE EXPLORATORY SCHOOL (THE),BROOKLYN,NY,345 DEAN ST,"http://ms447.org/"
WAHOO MIDDLE SCHOOL,WAHOO,NE,2201 N LOCUST,"https://www.wahooschools.org/vnews/display.v/SEC/Middle%20School"
COOK ELEM SCHOOL,CHICAGO,IL,8150 S BISHOP ST,"https://cookelementary.org/"
VERNON ELEMENTARY SCHOOL,VERNON,AZ,90 CRN 3139,"https://www.vernon.k12.az.us/"
WILLIAM A. WALTON ELEMENTARY,PRINCE GEORGE,VA,4101 COURTHOUSE RD,"https://walton.pgs.k12.va.us/"
NORTHMEAD ELEMENTARY,PATTERSON,CA,625 L ST.,"http://northmead.patterson.k12.ca.us/"
FRANKLIN ELEM FINE ARTS CENTER,CHICAGO,IL,225 W EVERGREEN AVE,"https://www.franklinfineartscenter.org/"
SCHOOL DIST 133 ANNEX,RIVERDALE,IL,150 W 137TH ST,"http://www.district133.org/"
MCKINLEY PRIMARY CENTER,SOUTH BEND,IN,228 N GREENLAWN AVE,"http://mckinley.sb.school/"
WOODGATE INT,WACO,TX,9400 CHAPEL RD,"https://www.midwayisd.org/woodgate"
CHRISTOPHER FARMS ELEMENTARY,VIRGINIA BEACH,VA,2828 PLEASANT ACRES DR,"https://christopherfarmses.vbschools.com/"
WESTPARK ELEMENTARY,ROSAMOND,CA,3600 IMPERIAL AVE.,"https://westpark.iusd.org/"
CAPE COD HILL ELEM SCHOOL,NEW SHARON,ME,516 CAPE COD HILL RD,"https://www.mtbluersd.org/cape-cod-hill"
WOODRIDGE ELEMENTARY,SPOKANE,WA,5100 W SHAWNEE AVE,"https://bsd405.org/woodridge/"
LINCOLN ELEM SCHOOL,ADDISON,IL,720 N LINCOLN AVE,"http://lincoln27.org/"
BRIDGEPOINT ELEMENTARY SCHOOL,JEFFERSONVILLE,IN,420 EWING LN,"https://bes.gcs.k12.in.us/"
SWIFT EL,ARLINGTON,TX,1101 S FIELDER RD,"https://www.swifttrans.com/terminal/el-paso-tx-terminal"
FAIRMOUNT ELEMENTARY,EVERETT,WA,11401 BEVERLY PARK RD,"https://www.mukilteoschools.org/Domain/279"
WENONAH ELEMENTARY SCHOOL,WENONAH,NJ,200 N CLINTON AVE,"https://www.wenonahsd.org/"
DE ZAVALA EL,BAYTOWN,TX,305 TRI CITY BEACH RD,"https://www.cvisd.org/dezavala"
ACADEMY OF PUBLIC RELATIONS,BRONX,NY,778 FOREST AVE,"https://www.schools.nyc.gov/schools/X298"
RAYMOND ELLIS ELEM SCHOOL,ROUND LAKE BEACH,IL,720 CENTRAL PARK DR,"https://www.rlas-116.org/ellis"
ELBERT JUNIOR-SENIOR HIGH SCHOOL,ELBERT,CO,24489 MAIN STREET,"https://www.elbertschool.org/"
HERITAGE ELEMENTARY SCHOOL,LIMA,OH,816 COLLEGE AVE,"https://www.medinabees.org/heritage"
GRANT MIDDLE SCHOOL,FAIRVIEW HEIGHTS,IL,10110 OLD LINCOLN TR,"https://www.dist110.com/"
CHESTER M. STEPHENS ELEMENTARY SCHOOL,BUDD LAKE,NJ,99 SUNSET DRIVE,"https://www.motsd.org/cms/"
MARK DELAY SCHOOL,DARIEN,IL,6801 WILMETTE AVE,"https://www.darien61.org/Domain/71"
STERLING MIDDLE SCHOOL,PEORIA,IL,2315 N STERLING AVE,"https://www.peoriapublicschools.org/sterling"
SUNMAN ELEMENTARY SCHOOL,SUNMAN,IN,925 N MERIDIAN,"https://ses.sunmandearborn.k12.in.us/"
NOLA KATHRYN WILSON EL,CRANDALL,TX,300 S MEADOWCREEK,"https://wilson.crandall-isd.net/"
ATOKA ELEMENTARY SCHOOL,ATOKA,TN,870 ROSEMARK RD,"https://ates.tipton-county.com/"
MAHATMA K. GANDHI SCHOOL,JERSEY CITY,NJ,143 ROMAINE AVE,"https://ps23.jcboe.org/"
MARLIN DAEP,MARLIN,TX,213 GREEN ST,"http://www.trueschools.com/schools/texas/marlin/marlin-daep/"
BROOKSIDE SCHOOL,GRAND RAPIDS,MI,2505 MADISON AVE SE,"https://schools.cranbrook.edu/list-detail?pk=12396"
BERNARD LONG ELEM SCH,MADISON,IL,1003 FARRISH ST,"https://www.madisoncusd12.org/"
SHALER AREA MS,GLENSHAW,PA,1810 MT ROYAL BLVD,"https://www.sasd.k12.pa.us/shalerareamiddleschool_home.aspx"
INDIAN RIFFLE ELEMENTARY SCHOOL,KETTERING,OH,3090 GLENGARRY DR,"https://www.ketteringschools.org/11/home"
NORRIS CITY ANNEX,NORRIS CITY,IL,PO BOX 246,"https://www.yellowpages.com/norris-city-il/mip/norris-city-annex-535350963"
EXETER-WEST GREENWICH REGIONAL,WEST GREENWICH,RI,930 NOOSENECK HILL ROAD,"https://www.ewgrsd.org/"
CTD - DOUGLAS HIGH SCHOOL,DOUGLAS,AZ,1500 15TH ST.,"http://www.douglasschools.org/o/douglas-high-school"
WILDWOOD ELEMENTARY,PUYALLUP,WA,1601 26TH AVE SE,"https://www.fwps.org/wildwood"
MANN ELEMENTARY,LONG BEACH,CA,257 CORONADO AVE.,"https://anaheimelementary.org/mann/"
MARLBORO ELEMENTARY SCHOOL,MARLBORO,NJ,100 SCHOOL ROAD WEST,"https://mes.mtps.org/"
LAKE ROOSEVELT ALTERNATIVE SCHOOL,COULEE DAM,WA,500 CIVIC WAY,"https://www.gcdsd.org/domain/137"
ORANGE GROVE MIDDLE,HACIENDA HEIGHTS,CA,14505 ORANGE GROVE AVE.,"https://ogms-hlpusd-ca.schoolloop.com/"
RIVERDALE HIGH SCHOOL,RIVERDALE,GA,160 ROBERTS DR,"https://005.clayton.k12.ga.us/"
SHADY LANE ELEMENTARY SCHOOL,COLUMBUS,OH,1444 SHADY LANE RD,"https://www.ccsoh.us/shadylanees"
MT VERNON MIDDLE SCHOOL,FORTVILLE,IN,1862 W SR 234,"https://mountvernonschool.org/"
GOOCHLAND MIDDLE,GOOCHLAND,VA,3250B RIVER ROAD WEST,"https://gms.goochlandschools.org/"
ROCHESTER HIGH SCHOOL,ROCHESTER,PA,540 RENO STREET,"https://www.rasd.org/"
O'HARA PARK MIDDLE,OAKLEY,CA,1100 O'HARA AVE.,"https://ops-ouesd-ca.schoolloop.com/"
MINT VALLEY ELEMENTARY,LONGVIEW,WA,2745 38TH AVENUE,"https://mintvalley.longviewschools.com/"
PRESTON SCH,LAKEWOOD,PA,1493 CROSSTOWN HIGHWAY,"https://www.whsdk12.com/schools/preston"
DIRKSEN ELEM SCHOOL,CHICAGO,IL,8601 W FOSTER AVE,"http://dirksen.cps.edu/"
GUILLERMINA ROSADO DE AYALA,LOIZA,PR,CALLE 25 URB VILLAS DE LOIZA,"https://en.infopaginas.com/b/canovanas/escuela-guillermina-rosado-ayala"
CHARLES H. KELLY ELEMENTARY SCHOOL,BURLINGTON,KY,6775 MCVILLE RD,"https://www.boone.k12.ky.us/16/Home"
JOLLIFF MIDDLE,CHESAPEAKE,VA,1021 JOLLIFF RD.,"https://cpschools.com/jms/"
CODY-KILGORE ELEMENTARY SCHOOL,KILGORE,NE,100 NTH BURLINGTON STREET,"https://www.cody-kilgore.com/"
ST JOSEPH MIDDLE SCHOOL,SAINT JOSEPH,IL,PO BOX 409,"https://www.stjoe.k12.il.us/"
JEFFERSON ELEM SCHOOL,PEKIN,IL,900 S CAPITOL ST,"https://jefferson.elmhurst205.org/"
JONATHAN ALDER HIGH SCHOOL,PLAIN CITY,OH,9200 US ROUTE 42 S,"https://www.alder.k12.oh.us/"
BATTLE CREEK ELEMENTARY SCHOOL,BATTLE CREEK,NE,305 S 4TH,"https://www.battlecreekschools.net/"
PS 105 BAY SCHOOL (THE),FAR ROCKAWAY,NY,420 BEACH 51ST ST,"https://www.schools.nyc.gov/schools/Q105"
RAHWAY HIGH SCHOOL,RAHWAY,NJ,1012 MADISON AVE,"https://www.rahway.net/Domain/13"
PS 66 SCHOOL OF HIGHER EXPECTATIONS,BRONX,NY,1001 JENNINGS ST,"https://www.schools.nyc.gov/schools/X066"
CENTRAL MIDDLE SCHOOL,CORINTH,ME,416 MAIN ST,"https://cms.carrollcountyschools.com/"
LOVEJOY ELEMENTARY SCHOOL,LOVEJOY,IL,PO BOX 250,"http://lj.altonschools.org/"
DELTA JR. HIGH SCHOOL,MER ROUGE,LA,7661 MER ROUGE/COLLINSTON ROAD,"http://morehouse_djh.campuscontact.com/"
ARNOLD ELEMENTARY SCHOOL,JONESBORO,GA,216 STOCKBRIDGE RD,"https://102.clayton.k12.ga.us/"
BRONX COLLABORATIVE HIGH SCHOOL,BRONX,NY,100 W MOSHOLU PKWY S,"http://www.bxchs.org/"
KENNEBUNK HIGH SCHOOL,KENNEBUNK,ME,89 FLETCHER STREET,"https://rsu21.net/khs"
LAKEVIEW MS,STONEBORO,PA,2482 MERCER ST,"https://www.lakeview.k12.pa.us/"
HALCYON SCHOOL (SPECIAL EDUCATION),BOULDER,CO,3100 BUCKNELL COURT,"https://hal.bvsd.org/"
ENGLISH VALLEYS JR-SR HIGH SCHOOL,NORTH ENGLISH,IA,765 WEST BROAD STREET,"https://www.evbears.com/"
GREEN VALLEY EL SCH,SINKING SPRING,PA,270 GREEN VALLEY ROAD,"https://www.wilsonsd.org/green-valley-elementary/"
ST. STEPHEN MIDDLE,ST. STEPHEN,SC,225 CAROLINA AVENUE,"https://www.bcsdschools.net/ssm"
PS 308 CLARA CARDWELL,BROOKLYN,NY,616 QUINCY ST,"https://www.schools.nyc.gov/schools/K308"
MURRAY/CALLOWAY COUNTY AREA TECH CENTER,MURRAY,KY,126 ROBERTSON RD. NORTH,"https://www.murray.kyschools.us/schools/area-technology-center/index"
EAST CANTON MIDDLE SCHOOL,EAST CANTON,OH,310 BROWNING CT N,"http://www.ecweb.sparcc.org/groups/15597/middle_school/middle_school"
TRAVIS EARLY COLLEGE H S,SAN ANTONIO,TX,1915 N MAIN AVE,"https://schools.saisd.net/page/022.homepage"
WALLACE ACCELERATED H S,COLORADO CITY,TX,312 E 12TH ST,"https://schools.texastribune.org/districts/colorado-isd/wallace-accelerated-high-school/"
MORGAN FULL SERVICE COMMUNITY SCHOOL,HOLYOKE,MA,596 SOUTH BRIDGE STREET,"https://www.hps.holyoke.ma.us/schools/morgan-full-service-community-school/"
ULLA F MULLER ELEMENTARY SCHOOL,SAINT THOMAS,VI,7B ESTATE CONTANT,"https://www.vide.vi/pbis/1024-ulla-f-muller-elementary-school.html"
NELSON ELEMENTARY SCHOOL,GRAHAM,WA,22109 108TH AVE E,"https://www.bethelsd.org/nes"
OPAL ROBINSON ELEMENTARY,MANHATTAN BEACH,CA,80 MORNINGSIDE DR.,"https://robinsonelementary.org/"
GLEN H. DYSINGER SR. ELEMENTARY,BUENA PARK,CA,7770 CAMELLIA DR.,"https://www.cde.ca.gov/schooldirectory/details?cdscode=30664726027700"
FRANCIS HOPKINSON ELEMENTARY,LOS ALAMITOS,CA,12582 KENSINGTON RD.,"https://hopkinson.losal.org/"
SHELL BEACH ELEMENTARY,PISMO BEACH,CA,2100 SHELL BEACH RD.,"https://shellbeach.luciamarschools.org/"
WILSON ELEMENTARY,MODESTO,CA,201 WILSON AVE.,"https://wilson.sgusd.k12.ca.us/"
SHAW HEIGHTS MIDDLE SCHOOL,WESTMINSTER,CO,8780 CIRCLE DRIVE,"https://www.westminsterpublicschools.org/shawheightsms"
CENTRAL ELEM SCHOOL,DES PLAINES,IL,1526 E THACKER ST,"https://cees.psd202.org/"
D.C. REEVES ELEMENTARY SCHOOL,PONCHATOULA,LA,18026 SISTERS ROAD,"https://dcr.tangischools.org/"
WAGGENER HIGH,LOUISVILLE,KY,330 S. HUBBARDS LANE,"https://www.jefferson.kyschools.us/schools/profiles/waggener"
OBERON ELEMENTARY SCHOOL,OBERON,ND,315 A ST N,"https://www.oberon.k12.nd.us/"
BUCKEYE CENTRAL HIGH SCHOOL,NEW WASHINGTON,OH,938 S KIBLER ST,"https://www.buckeye-central.k12.oh.us/"
CHIPPEWA ELEMENTARY SCHOOL,BRECKSVILLE,OH,8611 WIESE RD,"https://www.bbhcsd.org/chippewa_home.aspx"
BELLEFONTAINE HIGH SCHOOL,BELLEFONTAINE,OH,555 E LAKE AVE,"http://www.bellefontaine.k12.oh.us/"
LINCOLN ELEMENTARY,SALINAS,CA,705 CALIFORNIA ST.,"https://les.exeter.k12.ca.us/"
CENTER GROVE SCHOOL,RANDOLPH,NJ,25 SCHOOL HOUSE ROAD,"https://www.rtnj.org/our-schools/center-grove-elementary"
MARGARET NEWTON ELEMENTARY,TIPTONVILLE,TN,819 CHURCH ST,"https://mnes.lcfalcons.net/en-US"
JACOX ELEMENTARY,NORFOLK,VA,1300 MARSHALL AVE,"https://www.npsk12.com/jes"
CHANDLER ONLINE ACADEMY,CHANDLER,AZ,500 W GALVESTON ST,"https://www.cusd80.com/chandleronline"
LAURENTINO ESTRELLA COLON,CAMUY,PR,AVE MUNOZ RIVERA,"https://www.ancestry.com/genealogy/records/laurentino-estrella-y-colon-24-c2c6px"
DOYLE HIGH SCHOOL,LIVINGSTON,LA,20480 CIRCLE DRIVE,"https://www.doylehighschool.net/"
PARKVIEW MIDDLE,ARMONA,CA,11075 C ST.,"https://pvms.yucaipaschools.com/en-US"
WASHINGTON LANDS ELEMENTARY SCHOOL,MOUNDSVILLE,WV,116 SCHOOL RD,"https://washingtonlands.mars.k12.wv.us/"
ARCADIA HIGH SCHOOL,ARCADIA,NE,320 W OWENS ST,"https://www.apshuskies.org/"
MCKINLEY ELEMENTARY SCHOOL,YAKIMA,WA,621 S 13TH AVE,"https://www.ysd7.org/mckinley"
CENTRAL ARTES VISUALES (ESPECIALIZADA),SAN JUAN,PR,1415 AVE PONCE DE LEON PDA 20,"https://centraldeartesvisuales.org/"
CHALLENGE ACADEMY,WACO,TX,3805 S 3RD ST,"https://tmd.texas.gov/texas-challenge-academy"
INDIAN SPRINGS ELEMENTARY,POWELL,OH,3828 HOME RD,"https://www.ccsoh.us/indianspringses"
NORTHERN KENTUCKY TECH,COVINGTON,KY,1025 AMSTERDAM ROAD,"https://gateway.kctcs.edu/"
ORDWAY ELEMENTARY,BAINBRIDGE ISLAND,WA,8555 MADISON AVE NE,"https://www.bisd303.org/Domain/11"
CALIBRE ACADEMY SURPRISE,SURPRISE,AZ,15688 WEST ACOMA LANE,"https://www.calibreacademy.com/"
MORAN ELEMENTARY SCHOOL,OSCEOLA,IN,305 N BEECH RD,"https://moran.phmschools.org/"
A A ANASTASIA ELEMENTARY SCHOOL,LONG BRANCH,NJ,92 SEVENTH AVENUE,"https://www.longbranch.k12.nj.us/domain/12"
BENSON MAGNET HIGH SCHOOL,OMAHA,NE,5120 MAPLE ST,"https://benson.ops.org/"
RANCHO CUCAMONGA MIDDLE,RANCHO CUCAMONGA,CA,10022 FERON BLVD.,"https://rcms-cucamonga-ca.schoolloop.com/"
REPUBLICA DE COSTA RICA,CAGUAS,PR,390CALLE HECTOR R BUNKER,"https://lopezdirepcosta.wixsite.com/website"
PLAINFIELD ELEM SCHOOL,DES PLAINES,IL,1850 PLAINFIELD DR,"https://plainfield.d62.org/"
BRIDGEVIEW ELEMENTARY SCHOOL,SOUTH CHARLESTON,WV,5100 OHIO STREET,"https://bridgeview.kana.k12.wv.us/"
BELMONT ELEMENTARY SCHOOL,BELMONT,WV,512 RIVERVIEW DRIVE,"https://www.pleasantscountyschools.com/o/bes"
BOOKER T. WASHINGTON ELEMENTARY,SUFFOLK,VA,204 WALNUT STREET,"https://btwes.spsk12.net/"
MC POLIN PRESCHOOL,PARK CITY,UT,2270 KEARNS BLVD,"https://mpes.pcschools.us/"
ZEIGLER-ROYALTON HIGH SCHOOL,ZEIGLER,IL,PO BOX 38,"https://www.zr188.org/"
SIX MILE ELEMENTARY,SIX MILE,SC,777 NORTH MAIN STREET,"https://sme.pickens.k12.sc.us/"
COLLINS INT,CORSICANA,TX,1500 DOBBINS RD,"https://www.tshaonline.org/handbook/entries/collins-tx-nueces-county"
BRYSON MIDDLE,SIMPSONVILLE,SC,3657 SOUTH INDUSTRIAL DRIVE,"https://www.greenville.k12.sc.us/brysonm/"
TWIN RIDGE ELEMENTARY SCHOOL,BELLEVUE,NE,1400 SUNBURY DR,"https://www.bellevuepublicschools.org/twinridge"
WISDOM SCHOOL,WISDOM,MT,408 ELM STREET,"https://walkerhomeschoolblog.wordpress.com/2019/08/04/wisdom-school-wisdom-mt/"
ENVISIONS LEVEL III SCHOOL PRG,NORFOLK,NE,407 WEST NORFOLK AVENUE,"https://www.trulia.com/schools/NE-norfolk-envisions_level_iii_school_prg-5700081249"
SOUTHWESTERN VA MENTAL HEALTH INSTITUTE,MARION,VA,340 BAGLEY CIRCLE,"https://swvmhi.dbhds.virginia.gov/"
S. CHRISTA MCAULIFFE ELEMENTARY,RIVERSIDE,CA,4100 GOLDEN AVE.,"https://www.cde.ca.gov/schooldirectory/details?cdscode=33669776106074"
GRANT ELEMENTARY,LONG BEACH,CA,1225 E. 64TH ST.,"https://www.grantschoolcougars.com/"
MCLEES ELEMENTARY,ANDERSON,SC,4900 DOBBINS BRIDGE ROAD,"https://www.anderson5.net/mclees"
EDWARD C REED HIGH SCHOOL,SPARKS,NV,1350 BARING BLVD,"https://www.washoeschools.net/reed"
KAIZEN EDUCATION FOUNDATION DBA SUMMIT HIGH SCHOOL,PHOENIX,AZ,728 E. MCDOWELL RD.,"https://www.summiths.com/"
WEST MINICO MIDDLE SCHOOL,PAUL,ID,155 S 600 W,"https://www.minidokaschools.org/domain/3087"
FELTONVILLE INTERMEDIATE SCHOOL,PHILADELPHIA,PA,238 E WYOMING AVE,"https://fint.philasd.org/"
CARPE DIEM COLLEGIATE HIGH SCHOOL DBA CARPE DIEM E-LEARNING,YUMA,AZ,3777 W. 22ND LANE,"https://www.raise.me/high-school/arizona/carpe-diem-collegiate-high-school-dba-carpe-diem-e-learning"
CHALLENGE ACADEMY,EDDY,TX,1 EAGLE DR,"https://tmd.texas.gov/texas-challenge-academy"
SOUTHWEST ELEMENTARY SCHOOL,GREENWOOD,IN,619 W SMITH VALLEY,"https://spwww.sccpss.com/schools/swes/Pages/default.aspx"
MONMOUTH JUNCTION ELEMENTARY SCHOOL,MONMOUTH JUNCTION,NJ,630 RIDGE ROAD,"https://mj.sbschools.org/"
OPTIONS SCHOOL,AURORA,CO,16500 E. SMOKEY HILL ROAD,"https://littletonpublicschools.net/schools/options-secondary-program"
LAKE ARROWHEAD ELEMENTARY,LAKE ARROWHEAD,CA,1300 GOLDEN RULE LN.,"https://www.rimsd.k12.ca.us/Domain/12"
GRAYSON ELEMENTARY SCHOOL,GRAYSON,GA,460 GRAYSON PKWY,"https://www.gcpsk12.org/GraysonES"
JACKSON ACADEMY MIDDLE SCHOOL,BOWLING GREEN,KY,877 JACKSON STREET,"https://www.warrencountyschools.org/25/Home"
CUMBERLAND ELEMENTARY,CUMBERLAND,VA,60 SCHOOL RD,"https://www.cucps.k12.va.us/"
FIELDSTONE ELEMENTARY SCHOOL,SAINT MICHAEL,MN,5255 JANSEN AVE NE,"https://www.stma.k12.mn.us/Domain/13"
BUENA VISTA ELEMENTARY,BAKERSFIELD,CA,6547 BUENA VISTA RD.,"https://www.walnutcreeksd.org/Subsite001"
ALTO H S,ALTO,TX,248 CR 2429,"https://www.alto.esc7.net/"
ALVARADO ELEMENTARY,SAN FRANCISCO,CA,625 DOUGLAS ST.,"https://aes.mynhusd.org/"
WEST NOBLE PRIMARY SCHOOL,LIGONIER,IN,500 W UNION ST,"https://www.westnoble.k12.in.us/4/home"
EISENHOWER MIDDLE SCHOOL,ROCKFORD,IL,3525 SPRING CREEK RD,"https://eisenhower.rps205.com/"
BELLEVILLE PS4,BELLEVILLE,NJ,30 MAGNOLIA ST,"https://4.bellevilleschools.org/"
NORTHERN CAMBRIA MS,NORTHERN CAMBRIA,PA,601 JOSEPH ST,"http://www.ncsd.k12.pa.us/"
JESSE BOYD ELEMENTARY,SPARTANBURG,SC,1505 FERNWOOD GLENDALE ROAD,"https://www.spartanburg7.org/Domain/8"
BRISTOL CENTRAL HIGH SCHOOL,BRISTOL,CT,480 WOLCOTT ST.,"https://bchs.bristol.k12.ct.us/"
PRESCHOOL CENTER,RUPERT,ID,310 10TH STREET,"https://www.sd25.us/early-int/home"
CHESTNUT OAKS MIDDLE,SUMTER,SC,1200 OSWEGO ROAD,"https://coms.sumterschools.net/"
OAKTON HIGH,VIENNA,VA,2900 SUTTON RD,"https://oaktonhs.fcps.edu/"
MADRONA MIDDLE,TORRANCE,CA,21364 MADRONA AVE.,"https://madrona.tusd.org/"
JULIUS A WENDT ELEMENTARY/JOHN C THOMAS MIDDLE SCHOOL,CATHLAMET,WA,265 SOUTH THIRD ST,"https://wahksd.k12.wa.us/JAWES"
DULUTH AREA LEARNING CENTER,DULUTH,MN,215 N 1ST AVE E,"https://www.isd709.org/area-learning-center/index"
PULLMAN ELEM SCHOOL,CHICAGO,IL,11311 S FORRESTVILLE,"https://www.pullmanschool.org/"
MS 266 PARK PLACE COMMUNITY MIDDLE SCHOOL,BROOKLYN,NY,62 PARK PL,"https://www.schools.nyc.gov/schools/K266"
PS 119 AMERSFORT,BROOKLYN,NY,3829 AVE K,"https://www.schools.nyc.gov/schools/K119"
BROWNSBURG WEST MIDDLE SCHOOL,BROWNSBURG,IN,1555 S ODELL ST,"https://www.brownsburg.k12.in.us/west-middle"
BLAIR ARBOR PARK INTERMEDIATE SCHOOL,BLAIR,NE,1717 ADAMS ST,"https://ap.blairschools.org/"
SPRING BRANCH ED CTR,HOUSTON,TX,9016 WESTVIEW,"https://www.har.com/school/101920038/spring-branch-ed-ctr"
PS 129 JOHN H FINLEY,NEW YORK,NY,425 W 130TH ST,"https://www.schools.nyc.gov/schools/M129"
LYDIA MELENDEZ,AGUADA,PR,CARR 115 KM 23 HM 9 BO ASOMANTE,"https://www.medschool.lsuhsc.edu/internal_medicine/faculty_detail.aspx?name=melendez_lydia"
CAREER ACADEMY HIGH SCHOOL,SOUTH BEND,IN,3801 CRESCENT CIRCLE,"https://www.atlantapublicschools.us/Page/3468"
WHITFIELD EL SCH,WEST LAWN,PA,2700 VAN REED RD,"https://www.wilsonsd.org/whitfield-elementary/"
LANE MIDDLE SCHOOL,FORT WAYNE,IN,4901 VANCE AVE,"https://fortwayneschools.org/Lane"
LIBERTY HIGH,BEALETON,VA,6300 INDEPENDENCE AVE,"https://www.fcps1.org/Liberty"
MCCOLLOUGH ELEMENTARY SCHOOL,DEARBORN,MI,7801 MAPLE ST,"https://mcunis.dearbornschools.org/"
PEPE BARRON ACADEMY,TUCSON,AZ,2797 NORTH INTROSPECT DRIVE,"https://www.ade.az.gov/edd/NewDetails.asp?EntityID=5868&RefTypeID=1035"
BELVIDERE SOUTH MIDDLE SCHOOL,BELVIDERE,IL,919 E 6TH ST,"https://www.district100.com/"
BROWNING HIGH SCHOOL,BROWNING,MT,105 HIGHWAY 89,"https://www.bps.k12.mt.us/our_schools/browning_high_school"
BETHEL-TATE MIDDLE SCHOOL,BETHEL,OH,649 W PLANE ST,"https://www.betheltate.org/2/home"
SOUTHVIEW HIGH,CRESTWOOD,MO,11660 EDDIE AND PARK RD,"https://www.ssdmo.org/southview"
FRANK D. SPAZIANO ELEM SCHOOL,PROVIDENCE,RI,85 LAUREL HILL AVENUE,"https://www.providenceschools.org/spaziano"
WOODLAWN LEADERSHIP ACADEMY,SHREVEPORT,LA,7340 WYNGATE DRIVE,"https://www.woodlawnknights.com/"
SUMTER CAREER AND TECHNOLOGY CENTER,SUMTER,SC,2612 MCCRAY'S MILL ROAD,"https://sctc.sumterschools.net/"
PROSPECT ELEMENTARY SCHOOL,OBERLIN,OH,36 S PROSPECT ST,"https://www.mansfieldschools.org/prospect.aspx"
HARRISON/JEFFERSON/MADISON COMPLEX,PORT LAVACA,TX,605 N COMMERCE ST,"http://hjm.calcoisd.org/"
MENDOCINO K-8,MENDOCINO,CA,44261 LITTLE LAKE RD.,"https://mendocinousd.org/MES"
ROCHESTER ELEM 2-3,ROCHESTER,IL,456 EDUCATION AVE,"https://r2-3.rochester3a.net/"
BERKELEY ARTS MAGNET AT WHITTIER,BERKELEY,CA,1645 MILVIA ST.,"https://www.berkeleyartsmagnet.org/"
CANYON MIDDLE,CASTRO VALLEY,CA,19600 CULL CANYON RD.,"https://canyon.cv.k12.ca.us/"
JUAN A. SANCHEZ DAVILA,MANATI,PR,CARR 670 KM 1 HM 2,"https://www.spellingcity.com/juan-a-sanchez-davila-manati-pr.html"
SINKING SPRINGS EL SCH,YORK,PA,2850 SUSQUEHANNA TRAIL,"http://ss.cysd.k12.pa.us/"
LINDEN HILL SCHOOL,HAWTHORNE,NY,226 LINDA AVE,"https://www.hcks.org/schools/linden-hill-school"
SNOWFLAKE HIGH SCHOOL,SNOWFLAKE,AZ,190 SOUTH 2ND WEST,"https://hs.susd5.org/"
DAYBROOK EARLY HEADSTART CENTER(CLSD 97),FAIRVIEW,WV,2097 DAYBROOK RD,"https://www.k12jobspot.com/School/73281"
ROOSEVELT ELEMENTARY SCHOOL,NORTH ARLINGTON,NJ,50 WEBSTER STREET,"https://res.hawthorne.k12.nj.us/"
GLYNDALE ELEMENTARY SCHOOL,BRUNSWICK,GA,1785 OLD JESUP RD,"https://glyndale.glynn.k12.ga.us/"
WOODLAWN MIDDLE SCHOOL,WEST MONROE,LA,175 WOODLAWN SCHOOL ROAD,"https://www.woodlawnmiddlebr.org/"
